location_id,name,type,location,address,status,food_items,latitude,longitude
1569152,Datam SF LLC dba Anzu To You,Truck,TAYLOR ST: BAY ST to NORTH POINT ST (2500 - 2599),2535 TAYLOR ST,APPROVED,Asian Fusion - Japanese Sandwiches/Sliders/Misubi,37.805885350101000,-122.41594524663700
1569145,Casita Vegana,Truck,JOHN MUIR DR: LAKE MERCED BLVD to SKYLINE BLVD (200 - 699),Assessors Block 7283/Lot004,APPROVED,Coffee: Vegan Pastries: Vegan Hot Dogs: Vegan Tamales: Te: Vegan Shakes,37.72188970870840,-122.4925212449950
1565593,MOMO INNOVATION LLC,Truck,CALIFORNIA ST: BATTERY ST to SANSOME ST (300 - 399),351 CALIFORNIA ST,APPROVED,Noodles: Meat & Drinks,37.792870749741500,-122.4007474940770
1565571,MOMO INNOVATION LLC,Truck,CALIFORNIA ST: DAVIS ST to FRONT ST (100 - 199),101 CALIFORNIA ST,APPROVED,MOMO Spicy Noodle: POPO's Noodle: Spicy Chicken Noodle: Rice Noodles,37.792948952834700,-122.39809861316700
1565954,Treats by the Bay LLC,Truck,POST ST: MONTGOMERY ST to LICK PL (1 - 40),1 MONTGOMERY ST,APPROVED,Sandwich: Donuts: Coffee: Soft Serve Ice Cream: Drinks,37.78924953407510,-122.40241859729400
1565594,MOMO INNOVATION LLC,Truck,MISSION ST: ANNIE ST to 03RD ST (663 - 699),667 MISSION ST,APPROVED,Noodles: Meat & Drinks,37.7865580501799,-122.40103337535000
1565628,Treats by the Bay LLC,Truck,ELLIS ST: POWELL ST to CYRIL MAGNIN ST (100 - 148),120 ELLIS ST,APPROVED,Prepackaged Kettlecorn,37.78561008636920,-122.40815476434500
1565413,MOMO INNOVATION LLC,Truck,BUSH ST: BATTERY ST to SANSOME ST (100 - 199),1 BUSH ST,APPROVED,Noodles,37.79092150726920,-122.4001004237390
1047831,The Chef Station,Truck,10TH ST: FELL ST \ MARKET ST \ POLK ST to STEVENSON ST (1 - 18),8 10TH ST,REQUESTED,South American/Peruvian food,37.7758255197583,-122.41724962664300
1565625,Treats by the Bay LLC,Truck,MARKET ST: DOLORES ST to 14TH ST (2001 - 2065) -- SOUTH --,2029 MARKET ST,APPROVED,Donuts: Soft Serve Ice Cream: Coffee: Sandwiches: Drinks,37.76831005955340,-122.4274165153560
1565414,MOMO INNOVATION LLC,Truck,MISSION ST: SHAW ALY to ANTHONY ST (543 - 586),555 MISSION ST,APPROVED,Noodles,37.78844615690130,-122.3986412420390
1565623,Treats by the Bay LLC,Truck,HOWARD ST: MALDEN ALY to 02ND ST (574 - 599),201 02ND ST,APPROVED,Prepackaged Kettlecorn,37.78680165059710,-122.39787163500300
1577123,El Calamar Perubian Food Truck,Truck,MISSION ST: ANTHONY ST to 02ND ST (573 - 599),85 02ND ST,REQUESTED,Lomo Saltado: Jalea: Ceviche: Calamar: Tilapia plate: chicken special. Soda: Water.,37.788457028828900,-122.3998841605660
1577179,BH & MT LLC,Truck,16TH ST: SPENCER ST to DOLORES ST (3220 - 3299),3253 16TH ST,APPROVED,Cold Truck: Breakfast: Sandwiches: Salads: Pre-Packaged Snacks: Beverages,37.764459521442400,-122.42516137635800
1577113,"BOWL'D ACAI, LLC.",Truck,LARKIN ST: FULTON ST to MCALLISTER ST (200 - 299),200 LARKIN ST,APPROVED,Acai Bowls: Smoothies: Juices,37.78021548028810,-122.41602577015100
1577178,BH & MT LLC,Truck,GROVE ST: BRODERICK ST to BAKER ST (1400 - 1499),1477 GROVE ST,APPROVED,Cold Truck: Breakfast: Sandwiches: Salads: Pre-Packaged Snacks: Beverages,37.77529014231950,-122.4407311621110
1577204,"The New York Frankfurter Co. of CA, Inc. DBA: Annie's Hot Dogs",Push Cart,STOCKTON ST: 04TH ST \ ELLIS ST \ MARKET ST intersection,800 MARKET ST,REQUESTED,Soft pretzels: hot dogs: sausages: chips: popcorn: sodea: coffee: espresso: cappucino: pastries: ice cream: Italian sausages: shish-ka-bob: churros: juice: water: various drinks.,37.785469746489900,-122.40661576107300
1577206,"The New York Frankfurter Co. of CA, Inc. DBA: Annie's Hot Dogs",Push Cart,STOCKTON ST: OFARRELL ST to GEARY ST (100 - 199),101 STOCKTON ST,REQUESTED,Soft Pretzels: hot dogs: sausage: chips: popcorn: soda: espresso: cappucino: pastries: ice cream: italian sausages: shish-ka-bob: churros: juice: water: various drinks,37.786856111883100,-122.40689189299700
1577177,BH & MT LLC,Truck,GROVE ST: SCOTT ST to DIVISADERO ST (1200 - 1299),1265 GROVE ST,APPROVED,Cold Truck: Breakfast: Sandwiches: Salads: Pre-Packaged Snacks: Beverages,37.775774368410300,-122.43733160784100
1577112,"BOWL'D ACAI, LLC.",Truck,BATTERY ST: PINE ST to CALIFORNIA ST (100 - 199),111 BATTERY ST,APPROVED,Acai Bowls: Smoothies: Juices,37.79236678688310,-122.40014830676700
1577174,BH & MT LLC,Truck,PRESIDIO AVE: POST ST to GEARY BLVD (900 - 999),949 PRESIDIO AVE,APPROVED,Cold Truck: Breakfast: Sandwiches: Salads: Pre-Packaged Snacks: Beverages,37.783922070111500,-122.44672163317200
1577205,"The New York Frankfurter Co. of CA, Inc. DBA: Annie's Hot Dogs",Push Cart,MARKET ST: 04TH ST \ ELLIS ST \ STOCKTON ST to POWELL ST (800 - 890) -- NORTH --,870 MARKET ST,REQUESTED,Soft pretzels: hot dogs: sausages: chips: popcorn: soda: espresso: cappucino: pastry: ica cream: ices: italian sausage: shish-ka-bob: churros: juice: water: various drinks,37.78511092044780,-122.40742266827700
1577173,BH & MT LLC,Truck,OTIS ST: GOUGH ST \ MCCOPPIN ST to 13TH ST \ DUBOCE AVE \ HWY 101 NORTHBOUND RAMP \ MISSION ST (100 - 199),170 OTIS ST,APPROVED,Cold Truck: Breakfast: Sandwiches: Salads: Pre-Packaged Snacks: Beverages,0,0
1577114,"BOWL'D ACAI, LLC.",Truck,MONTGOMERY ST: CALIFORNIA ST to SACRAMENTO ST (400 - 499),451 MONTGOMERY ST,APPROVED,Acai Bowls: Smoothies: Juices,37.79357693326180,-122.40322987670100
1577176,BH & MT LLC,Truck,DOLORES ST: 14TH ST intersection,2001 MARKET ST,APPROVED,Cold Truck: Breakfast: Sandwiches: Salads: Pre-Packaged Snacks: Beverages,37.768320249510600,-122.42711064395500
1577175,BH & MT LLC,Truck,23RD ST: START: 100-699 BLOCK to ILLINOIS ST (100 - 699),401 23RD ST,APPROVED,Cold Truck: Breakfast: Sandwiches: Salads: Pre-Packaged Snacks: Beverages,37.755030726766700,-122.38453073422300
1571753,The Geez Freeze,Truck,18TH ST: DOLORES ST to CHURCH ST (3700 - 3799),3750 18TH ST,REQUESTED,Snow Cones: Soft Serve Ice Cream & Frozen Virgin Daiquiris,37.76201920035650,-122.42730642251300
1577180,BH & MT LLC,Truck,MARKET ST: CHURCH ST to 15TH ST (2101 - 2195) -- SOUTH --,2145 MARKET ST,APPROVED,Cold Truck: Breakfast: Sandwiches: Salads: Pre-Packaged Snacks: Beverages,37.7666247727157,-122.42951117634700
1577115,"BOWL'D ACAI, LLC.",Truck,BUCHANAN ST: NORTH POINT ST to BEACH ST \ LOWER FORT MASON ST \ MARINA BLVD (3700 - 3799),15 MARINA BLVD,APPROVED,Acai Bowls: Poke Bowls: Smoothies: Juices,37.80457786909010,-122.43301077434300
934719,"Santana ESG, Inc.",Truck,SANSOME ST: SUTTER ST to BUSH ST (1 - 99),1 SANSOME ST,EXPIRED,Tacos: Burritos: Tortas: Quesadillas: Mexican Drinks: Aguas Frescas,37.790485146128,-122.40094044069000
1509789,Plaza Garibaldy,Truck,CALIFORNIA ST: LEIDESDORFF ST to MONTGOMERY ST (449 - 499),475 CALIFORNIA ST,EXPIRED,Tacos: burritos: quesadillas,37.792346385148,-122.40238532279400
934586,May Catering,Truck,TREAT AVE: MISTRAL ST to END: 650-699 BLOCK (630 - 699),630 TREAT AVE,EXPIRED,Cold Truck: Sandwiches: fruit: snacks: candy: hot and cold drinks,37.75995142942790,-122.41404968022400
1336741,Quan Catering,Truck,BURKE AVE: START: 1500-1599 BLOCK to 03RD ST (1500 - 1599),1575 BURKE AVE,EXPIRED,Cold Truck: Soft drinks: cup cakes: potato chips: cookies: gum: sandwiches (hot & cold): peanuts: muffins: coff (hot & cold): water: juice: yoplait: milk: orange juice: sunflower seeds: can foods: burritos: buscuits: chimichangas: rice krispies,37.744178447375700,-122.38671592975900
1337426,Liang Bai Ping,Truck,PALOU AVE: PALOU AVE to GRIFFITH ST (904 - 999),Assessors Block /Lot,EXPIRED,Cold Truck: Pre-packaged sandwiches: snacks: fruit: various beverages,0,0
848184,Reecees Soulicious,Truck,BAY SHORE BLVD: BAY SHORE BLVD to OAKDALE AVE (185 - 299) -- EAST --,201 BAY SHORE BLVD,REQUESTED,Fried Chicken: Fried Fish: Greens: Mac & Cheese: Peach Cobbler: and String beans,37.74530890865630,-122.40342005999900
1332942,Mini Mobile Food Catering,Truck,FREMONT ST: TRANSBAY HUMP to NATOMA ST (116 - 169),147 FREMONT ST,EXPIRED,Cold Truck: Corn Dogs: Noodle Soups: Candy: Pre-packaged Snacks: Sandwiches: Chips: Coffee: Tea: Various Beverages,37.79018557063340,-122.39547172580900
1343831,Got Snacks,Push Cart,03RD ST: TERRY A FRANCOIS BLVD to CHANNEL ST (1000 - 1099),1020 03RD ST,REQUESTED,sunflower seeds: crackerjacks: bottled water: peanuts: candy,37.77551013804950,-122.39099930600200
934616,May Catering,Truck,DONNER AVE: START: 1600-1699 BLOCK to 03RD ST (1600 - 1699),1600 DONNER AVE,EXPIRED,Cold Truck: Sandwiches: fruit: snacks: candy: hot and cold drinks,37.72400910654020,-122.3929867825780
934516,Scotch Bonnet,Truck,01ST ST: STEVENSON ST to JESSIE ST (21 - 56),50 01ST ST,EXPIRED,Jerk chicken: curry chicken: curry goat: curry dhal: Burritos: Fish: Ox tails: rice: beans: veggies.,37.790149073725500,-122.39865818460400
934608,May Catering,Truck,MISSION CREEK: 05TH ST to 06TH ST (0 - 0),Assessors Block 3810/Lot008,EXPIRED,Cold Truck: Sandwiches: fruit: snacks: candy: hot and cold drinks,37.77203911352500,-122.39597463158600
1544286,Cochinita,Truck,BEALE ST: BRYANT ST \ DELANCEY ST to END: 500-501 BLOCK (500 - 599),501 BEALE ST,REQUESTED,Mexican Food: Yucatan Food: Street Food,37.78623677446540,-122.38906620560500
1336675,Mike's Catering,Truck,23RD ST: START: 100-699 BLOCK to ILLINOIS ST (100 - 699),435 23RD ST,EXPIRED,Cold Truck: packaged sandwiches: snacks: candy: hot and cold drinks,37.755030726766700,-122.38453073422300
1337425,Liang Bai Ping,Truck,PALOU AVE: PALOU AVE to GRIFFITH ST (904 - 999),931 PALOU AVE,EXPIRED,Cold Truck: Pre-packaged sandwiches: snacks: fruit: various beverages,37.72673391124160,-122.37897200523600
1580927,Park's Catering,Truck,NEWHALL ST: MENDELL ST to EVANS AVE (200 - 399),300 NEWHALL ST,REQUESTED,Cold Truck: Hamburger: cheeseburgers: hot dogs: hot sandwiches: cold sandwiches: egg muffins: cup of noodles: corn dogs: canned soup: coffee: hot cocoa: hot tea: gatorade: juice: milk: soda: water: fruits: fruit salad: rice pudding: yogurt: candy bars: chips: cookies: donuts: granola bars: muffins,37.74322468386160,-122.38534297342100
1580924,Park's Catering,Truck,NAPOLEON ST: EVANS AVE \ TOLAND ST to JERROLD AVE (25 - 299),190 NAPOLEON ST,REQUESTED,Cold Truck: Hamburger: cheeseburgers: hot dogs: hot sandwiches: cold sandwiches: egg muffins: cup of noodles: corn dogs: canned soup: coffee: hot cocoa: hot tea: gatorade: juice: milk: soda: water: fruits: fruit salad: rice pudding: yogurt: candy bars: chips: cookies: donuts: granola bars: muffins,37.74758627625650,-122.39886570079600
1580919,Park's Catering,Truck,INNES AVE: ARELIOUS WALKER DR to GRIFFITH ST (800 - 899),Assessors Block 4645/Lot015,REQUESTED,Cold Truck: Hamburger: cheeseburgers: hot dogs: hot sandwiches: cold sandwiches: egg muffins: cup of noodles: corn dogs: canned soup: coffee: hot cocoa: hot tea: gatorade: juice: milk: soda: water: fruits: fruit salad: rice pudding: yogurt: candy bars: chips: cookies: donuts: granola bars: muffins,37.73213495192220,-122.37539807856700
1580915,Park's Catering,Truck,EVANS AVE: RANKIN ST to SELBY ST (1800 - 1890),1801 EVANS AVE,REQUESTED,Cold Truck: Hamburger: cheeseburgers: hot dogs: hot sandwiches: cold sandwiches: egg muffins: cup of noodles: corn dogs: canned soup: coffee: hot cocoa: hot tea: gatorade: juice: milk: soda: water: fruits: fruit salad: rice pudding: yogurt: candy bars: chips: cookies: donuts: granola bars: muffins,37.74459119509170,-122.39307688085800
1575168,Buenafe,Truck,MISSISSIPPI ST: 07TH ST \ 16TH ST to 17TH ST (1 - 99),901 16TH ST,APPROVED,Tacos burritos quesadillas tortas pupusas flautas tamales,37.76612469442700,-122.39547306227000
1571659,"San Francisco Carts & Concessions, Inc. DBA Stanley's Steamers Hot Dogs",Push Cart,POST ST: STOCKTON ST to POWELL ST (300 - 399),345 STOCKTON ST,APPROVED,Hot dogs: condiments: soft pretzels: soft drinks: coffee: cold beverages: pastries: bakery goods: cookies: ice cream: candy: soups: churros: chestnuts: nuts: fresh fruit: fruit juices: desserts: potato chips and popcorn.,37.78891014957050,-122.40719603412200
1575155,Papalote Inc.,Truck,01ST ST: HOWARD ST to TEHAMA ST (200 - 231),505 HOWARD ST,APPROVED,Mexican; Burritos: Burrito Bowls: Salads,37.78798864899530,-122.39610066847200
1575171,Buenafe,Truck,EVANS AVE: PHELPS ST to QUINT ST (1600 - 1699),750 PHELPS ST,APPROVED,Tacos: Burritos: Quesadillas: Tortas,37.73944545286910,-122.39301498669800
1571657,"San Francisco Carts & Concessions, Inc. DBA Stanley's Steamers Hot Dogs",Push Cart,GEARY ST: STOCKTON ST to POWELL ST (200 - 299),233 GEARY ST,APPROVED,Hot dogs: condiments: soft pretzels: soft drinks: coffee: cold beverages: pastries: bakery goods: cookies: ice cream: candy: soups: churros: chestnuts: nuts: fresh fruit: fruit juices: desserts: potato chips and popcorn.,37.787242602596700,-122.40687973821300
1571649,DO UC US Mobile Catering,Truck,MARIN ST: KANSAS ST to HWY 101 N ON RAMP (2500 - 2599),2590 MARIN ST,APPROVED,Cold truck: sandwiches: salads: beverages: chips: candy: cookies: coffee: tea: drinks,37.74837582577800,-122.40320062649600
1575218,"Bay Area Mobile Catering, Inc. dba. Taqueria Angelica's",Truck,MISSION ST: 10TH ST to 11TH ST (1400 - 1499),1455 MARKET ST,APPROVED,Tacos: burritos: soda & juice,37.77522830783410,-122.41746613187000
1568970,Fillmore Square,Truck,WEBSTER ST: EDDY ST to ELLIS ST (1201 - 1299) -- WEST --,1223 WEBSTER ST,APPROVED,Breakfast and lunch items with a nod to various cultures,37.782391510187800,-122.43111456170200
1568948,Senor Sisig,Truck,ELLIS ST: POWELL ST to CYRIL MAGNIN ST (100 - 148),120 ELLIS ST,APPROVED,Filipino fusion food: taco: burrito: nachos: rice plates,37.78561008636920,-122.40815476434500
1568992,La Jefa,Truck,BAY SHORE BLVD: WATERLOO ST to MARENGO ST (501 - 559) -- EAST --,531 BAY SHORE BLVD,APPROVED,Tacos: burritos: quesadillas: tortas: nachos (refried beans: cheese sauce: salsa fresca): carnes (beef: chicken: marinated pork: fried pork): canned beans: rice: sodas: horchata drinks.,37.738726803987100,-122.40673602990500
1568972,Fillmore Square,Truck,FILLMORE ST: TURK ST to EDDY ST (1200 - 1299),1290 FILLMORE ST,APPROVED,Breakfast and lunch items with a nod to various cultures,37.78127594842660,-122.43184035948600
1568947,Senor Sisig,Truck,02ND ST: MISSION ST to MINNA ST (100 - 130),120 02ND ST,APPROVED,Filipino fusion food: taco: burrito: nachos: rice plates,37.787514060738100,-122.39956633142900
1568998,Think is Good Inc.,Truck,CALIFORNIA ST: SANSOME ST to LEIDESDORFF ST (400 - 448),430 CALIFORNIA ST,APPROVED,Lobster rolls: crab rolls: lobster burritos: crab burritos: chicken burritos: fish burritos: chicken burritos: poke bowls: soups: chips & soda.,37.793262206923100,-122.4017890913630
1568951,Senor Sisig,Truck,PINE ST: SANSOME ST to CENTURY PL (300 - 340),300 PINE ST,APPROVED,Filipino fusion food: tacos: burritos: nachos: rice plates. Various beverages.,0,0
1568999,Think is Good Inc.,Truck,MISSION ST: SHAW ALY to ANTHONY ST (543 - 586),560 MISSION ST,APPROVED,Lobster rolls: crab rolls: lobster burritos: crab burritos: chicken burritos: fish burritos: chicken burritos: poke bowls: soups: chips & soda.,37.78886471534300,-122.39935935136300
1568966,CARDONA'S FOOD TRUCK,Truck,MISSION ST: 14TH ST to 15TH ST (1800 - 1899),1888 MISSION ST,APPROVED,Tacos: Burritos: Quesadillas: Various Drinks,37.766897602559200,-122.42032247306800
1568965,CARDONA'S FOOD TRUCK,Truck,MISSION ST: 14TH ST to 15TH ST (1800 - 1899),1800 MISSION ST,APPROVED,Tacos: Burritos: Quesadillas: Various Drinks,37.767817181414100,-122.42057533514200
1568973,Fillmore Square,Truck,FILLMORE ST: TURK ST to EDDY ST (1200 - 1299),1245 FILLMORE ST,APPROVED,Breakfast and lunch items with a nod to various cultures,37.78085752242170,-122.43305677044800
1568997,Think is Good Inc.,Truck,PINE ST: FRONT ST to BATTERY ST (100 - 199),100 PINE ST,APPROVED,Lobster rolls: crab rolls: lobster burritos: crab burritos: chicken burritos: fish burritos: chicken burritos: poke bowls: soups: chips & soda.,37.79264071673370,-122.39897033211100
1568883,Senor Sisig,Truck,CALIFORNIA ST: DAVIS ST to FRONT ST (100 - 199),101 CALIFORNIA ST,APPROVED,Senor Sisig: Filipino fusion food: tacos: burritos: nachos: rice plates. Various beverages.,37.792948952834700,-122.39809861316700
1568971,Fillmore Square,Truck,EDDY ST: WEBSTER ST to FILLMORE ST (1400 - 1499),1290 FILLMORE ST,APPROVED,Breakfast and lunch items with a nod to various cultures,37.78127594842660,-122.43184035948600
1568959,Senor Sisig,Truck,FRONT ST: BROADWAY to VALLEJO ST (800 - 899),90 BROADWAY,APPROVED,Various menu items & drinks,37.799260113502300,-122.39961794865500
1568975,California Kahve,Truck,LA PLAYA: LINCOLN WAY \ MARTIN LUTHER KING JR DR to IRVING ST (1200 - 1299),1234 GREAT HWY,APPROVED,Drip Coffee: Espresso Drinks: Matcha Green Tea: Black Teas: Herbal Teas: Crossaints: Savory and Sweet Breads,37.76360804110200,-122.50959579624600
1568884,Senor Sisig,Truck,MISSION ST: 05TH ST to MINT ST (900 - 930),901 MISSION ST,APPROVED,Senor Sisig: Filipino fusion food: tacos: burritos: nachos: rice plates. Various beverages.,37.78215364099860,-122.40660110683900
1568961,Senor Sisig,Truck,10TH ST: FELL ST \ MARKET ST \ POLK ST to STEVENSON ST (1 - 18),8 10TH ST,APPROVED,Senor Sisig: Filipino fusion food: tacos: burritos: nachos: rice plates. Various beverages.Chairman Bao: Vegetable and meat sandwiches filled with Asian-flavored meats and vegetables.,37.7758255197583,-122.41724962664300
1575170,Buenafe,Truck,RANKIN ST: DAVIDSON AVE to EVANS AVE (200 - 299),220 RANKIN ST,APPROVED,Tacos: Burritos: Quesadillas: Tortas,37.74574924062030,-122.3924814876780
1568960,Senor Sisig,Truck,BROADWAY: DAVIS ST to FRONT ST (50 - 99),90 BROADWAY,APPROVED,Senor Sisig: Filipino fusion food: tacos: burritos: nachos: rice plates. Various beverages.Chairman Bao: Vegetable and meat sandwiches filled with Asian-flavored meats and vegetables.,37.799260113502300,-122.39961794865500
1571648,DO UC US Mobile Catering,Truck,04TH ST: MISSION BAY BLVD to NELSON RISING LN (1400 - 1499),1420 04TH ST,APPROVED,Cold truck: sandwiches: salads: beverages: chips: candy: cookies: coffee: tea: drinks,37.76989774889610,-122.3910982796350
1571646,DO UC US Mobile Catering,Truck,PARNASSUS AVE: HILLWAY AVE to 03RD AVE (400 - 599),400 PARNASSUS AVE,APPROVED,Cold truck: sandwiches: salads: beverages: chips: candy: cookies: coffee: tea: drinks,37.763864032383200,-122.4583917498440
1575216,"Bay Area Mobile Catering, Inc. dba. Taqueria Angelica's",Truck,25TH ST: ALABAMA ST to HARRISON ST (3042 - 3099),3065 25TH ST,APPROVED,Tacos: burritos: soda & juice,37.7509316476402,-122.4114199662060
1571658,"San Francisco Carts & Concessions, Inc. DBA Stanley's Steamers Hot Dogs",Push Cart,GEARY ST: STOCKTON ST to POWELL ST (200 - 299),251 GEARY ST,APPROVED,Hot dogs: condiments: soft pretzels: soft drinks: coffee: cold beverages: pastries: bakery goods: cookies: ice cream: candy: soups: churros: chestnuts: nuts: fresh fruit: fruit juices: desserts: potato chips and popcorn.,37.78717629174160,-122.40739807595800
1571647,DO UC US Mobile Catering,Truck,03RD ST: MISSION BAY BLVD to WARRIORS WAY (1401 - 1599) -- EAST --,1501 03RD ST,APPROVED,Cold truck: sandwiches: salads: beverages: chips: candy: cookies: coffee: tea: drinks,37.77089223103180,-122.3891692314830
1575217,"Bay Area Mobile Catering, Inc. dba. Taqueria Angelica's",Truck,FOLSOM ST: 11TH ST to NORFOLK ST (1500 - 1548),1501 FOLSOM ST,APPROVED,Tacos: burritos: soda & juice,37.771586702670300,-122.41400704302400
963998,Singh Brothers Ice Cream,Truck,PENINSULA AVE: BLANKEN AVE to LATHROP AVE (300 - 399),360 PENINSULA AVE,REQUESTED,Ice Cream: Pre-Packaged Chips: Candies: Bottled Water & Canned SODA,37.7108412835853,-122.39964261496300
1529950,Bonito Poke,Truck,HOWARD ST: FREMONT ST to 01ST ST (400 - 499),400 HOWARD ST,EXPIRED,Bonito Poke Bowls & Various Drinks,37.78911920766770,-122.39588103933500
934577,May Catering,Truck,MINNESOTA ST: 20TH ST to 22ND ST (800 - 999),900 MINNESOTA ST,EXPIRED,Cold Truck: Sandwiches: fruit: snacks: candy: hot and cold drinks,0,0
1575215,"Bay Area Mobile Catering, Inc. dba. Taqueria Angelica's",Truck,CESAR CHAVEZ ST: INDIANA ST to IOWA ST (1300 - 1399),1301 CESAR CHAVEZ ST,APPROVED,Tacos: Burritos: Tortas: Quesadillas: Sodas: Chips: Candy,37.74925585952910,-122.39097537957700
1571660,"San Francisco Carts & Concessions, Inc. DBA Stanley's Steamers Hot Dogs",Push Cart,GEARY ST: GRANT AVE to STOCKTON ST (100 - 199),100 GEARY ST,APPROVED,Hot dogs: condiments: soft pretzels: soft drinks: coffee: cold beverages: pastries: bakery goods: cookies: ice cream: candy: soups: churros: chestnuts: nuts: fresh fruit: fruit juices: desserts: potato chips and popcorn.,37.7879142297241,-122.40527052309500
1575156,Papalote Inc.,Truck,SPEAR ST: MARKET ST to MISSION ST (1 - 99),60 SPEAR ST,APPROVED,Mexican; Burritos: Burrito Bowls: Salads,37.792535988431100,-122.39459319923500
1580913,Park's Catering,Truck,DAVIDSON AVE: RANKIN ST to SELBY ST (1600 - 1699),1650 DAVIDSON AVE,REQUESTED,Cold Truck: Hamburger: cheeseburgers: hot dogs: hot sandwiches: cold sandwiches: egg muffins: cup of noodles: corn dogs: canned soup: coffee: hot cocoa: hot tea: gatorade: juice: milk: soda: water: fruits: fruit salad: rice pudding: yogurt: candy bars: chips: cookies: donuts: granola bars: muffins,37.74671130304030,-122.39215031945300
1174517,CC Acquisition LLC,Push Cart,MARKET ST: MAIN ST to BEALE ST \ DAVIS ST \ PINE ST (214 - 298) -- NORTH --,298 MARKET ST,REQUESTED,Indian Chai (Tea),37.793213731663400,-122.39704303671800
1580917,Park's Catering,Truck,ARELIOUS WALKER DR: PALOU AVE to QUESADA AVE (1300 - 1399),Assessors Block 4755/Lot049,REQUESTED,Cold Truck: Hamburger: cheeseburgers: hot dogs: hot sandwiches: cold sandwiches: egg muffins: cup of noodles: corn dogs: canned soup: coffee: hot cocoa: hot tea: gatorade: juice: milk: soda: water: fruits: fruit salad: rice pudding: yogurt: candy bars: chips: cookies: donuts: granola bars: muffins,37.726382932182200,-122.37843478266800
1535606,Wu Wei LLC dba MoBowl,Truck,STEUART LN: HOWARD ST \ STEUART ST to END: 200-249 BLOCK (1 - 99),75 HOWARD ST,EXPIRED,Various types of meat: veggie: and seafood bowls.,37.79155786415490,-122.39167149978600
1580925,Park's Catering,Truck,NEWHALL ST: MENDELL ST to EVANS AVE (200 - 399),330 NEWHALL ST,REQUESTED,Cold Truck: Hamburger: cheeseburgers: hot dogs: hot sandwiches: cold sandwiches: egg muffins: cup of noodles: corn dogs: canned soup: coffee: hot cocoa: hot tea: gatorade: juice: milk: soda: water: fruits: fruit salad: rice pudding: yogurt: candy bars: chips: cookies: donuts: granola bars: muffins,37.74298987477540,-122.38677326717600
1580911,Park's Catering,Truck,BURKE AVE: START: 1500-1599 BLOCK to 03RD ST (1500 - 1599),1555 BURKE AVE,REQUESTED,Cold Truck: Hamburger: cheeseburgers: hot dogs: hot sandwiches: cold sandwiches: egg muffins: cup of noodles: corn dogs: canned soup: coffee: hot cocoa: hot tea: gatorade: juice: milk: soda: water: fruits: fruit salad: rice pudding: yogurt: candy bars: chips: cookies: donuts: granola bars: muffins,37.74371347536800,-122.38596479003600
1580914,Park's Catering,Truck,EVANS AVE: HUNTERS POINT BLVD to JENNINGS ST \ MIDDLE POINT RD (1031 - 1099),1000 EVANS AVE,REQUESTED,Cold Truck: Hamburger: cheeseburgers: hot dogs: hot sandwiches: cold sandwiches: egg muffins: cup of noodles: corn dogs: canned soup: coffee: hot cocoa: hot tea: gatorade: juice: milk: soda: water: fruits: fruit salad: rice pudding: yogurt: candy bars: chips: cookies: donuts: granola bars: muffins,37.737726866595800,-122.37657291457300
1580916,Park's Catering,Truck,EVANS AVE: NAPOLEON ST \ TOLAND ST to MARIN ST (2000 - 2099),2020 EVANS AVE,REQUESTED,Cold Truck: Hamburger: cheeseburgers: hot dogs: hot sandwiches: cold sandwiches: egg muffins: cup of noodles: corn dogs: canned soup: coffee: hot cocoa: hot tea: gatorade: juice: milk: soda: water: fruits: fruit salad: rice pudding: yogurt: candy bars: chips: cookies: donuts: granola bars: muffins,0,0
1580909,Park's Catering,Truck,CESAR CHAVEZ ST: EVANS AVE to KANSAS ST (2100 - 2550),2323 CESAR CHAVEZ ST,REQUESTED,Cold Truck: Hamburger: cheeseburgers: hot dogs: hot sandwiches: cold sandwiches: egg muffins: cup of noodles: corn dogs: canned soup: coffee: hot cocoa: hot tea: gatorade: juice: milk: soda: water: fruits: fruit salad: rice pudding: yogurt: candy bars: chips: cookies: donuts: granola bars: muffins,37.748801377714500,-122.40055245878500
1580908,Park's Catering,Truck,03RD ST: EVANS AVE to FAIRFAX AVE (3801 - 3899) -- EAST --,3801 03RD ST,REQUESTED,Cold Truck: Hamburger: cheeseburgers: hot dogs: hot sandwiches: cold sandwiches: egg muffins: cup of noodles: corn dogs: canned soup: coffee: hot cocoa: hot tea: gatorade: juice: milk: soda: water: fruits: fruit salad: rice pudding: yogurt: candy bars: chips: cookies: donuts: granola bars: muffins,37.741026207788700,-122.38779292799400
1580918,Park's Catering,Truck,INNES AVE: EARL ST to ARELIOUS WALKER DR (700 - 799),Assessors Block 4644/Lot008,REQUESTED,Cold Truck: Hamburger: cheeseburgers: hot dogs: hot sandwiches: cold sandwiches: egg muffins: cup of noodles: corn dogs: canned soup: coffee: hot cocoa: hot tea: gatorade: juice: milk: soda: water: fruits: fruit salad: rice pudding: yogurt: candy bars: chips: cookies: donuts: granola bars: muffins,37.730906150359700,-122.37330257748500
1576354,San Francisco's Hometown Creamery,Truck,GEARY ST: STOCKTON ST to POWELL ST (200 - 299),281 GEARY ST,APPROVED,Ice Cream & Waffle Cones,37.787136491086100,-122.4077185090010
963989,Singh Brothers Ice Cream,Truck,YOSEMITE AVE: INGALLS ST to JENNINGS ST (1400 - 1499),1420 YOSEMITE AVE,REQUESTED,Ice Cream: Pre-Packaged Chips: Candies: Bottled Water & Canned SODA,37.725181700728800,-122.38819268844400
1163787,"SOHOMEI, LLC",Truck,MASONIC AVE: MCALLISTER ST to FULTON ST (500 - 599),500 MASONIC AVE,REQUESTED,COLD TRUCK. Deli: bbq chicken skewer: Chinese spring roll: Chinese fried rice/noodle: fried chicken leg/wing: bbq chicken sandwich: chicken cheese burger: burrito: lumpia. Snack: sunflower seeds: muffins: chips: snickers: kit-kat: 10 types of chocolate. Drinks: Coke: 7-Up: Dr. Pepper: Pepsi: Redbull: Vitamin Water: Rockstar: Coconut Juice: Water. Hot drinks: coffee: tea.,37.77655004281910,-122.44630763555800
1184866,Subs on Hubs,Truck,,Assessors Block 8711/Lot021,EXPIRED,Italian subs: Cuban sandwich: Gyro,37.7714019465879,-122.3917716468470
1163793,"SOHOMEI, LLC",Truck,CESAR CHAVEZ ST: SOUTH VAN NESS AVE to CAPP ST \ MISSION ST (3300 - 3398) -- NORTH --,3300 CESAR CHAVEZ ST,REQUESTED,COLD TRUCK. Deli: bbq chicken skewer: Chinese spring roll: Chinese fried rice/noodle: fried chicken leg/wing: bbq chicken sandwich: chicken cheese burger: burrito: lumpia. Snack: sunflower seeds: muffins: chips: snickers: kit-kat: 10 types of chocolate. Drinks: Coke: 7-Up: Dr. Pepper: Pepsi: Redbull: Vitamin Water: Rockstar: Coconut Juice: Water. Hot drinks: coffee: tea.,37.74854979425910,-122.41617066200800
1181512,John's Catering #5,Truck,HAYES ST: SHRADER ST to STANYAN ST (2200 - 2299),2200 HAYES ST,EXPIRED,Cold Truck: Soda:Chips:Candy: Cold/Hot Sandwiches: Donuts.  (Pitco Wholesale),0,0
1022810,Serendipity SF,Truck,CALIFORNIA ST: SANSOME ST to LEIDESDORFF ST (400 - 448),400 CALIFORNIA ST,ISSUED,Meatloaf: Grilled Cheese: Chicken Sandwich: Caprese Salad: Kale Salad: Fries: Sweet Potato Fries: Mac and Cheese: Mashed Potatoes,37.79330427556100,-122.4014589984130
1181510,John's Catering #5,Truck,TURK ST: GOUGH ST to LAGUNA ST (900 - 1099),1003 TURK ST,EXPIRED,Cold Truck: Soda:Chips:Candy: Cold/Hot Sandwiches: Donuts.  (Pitco Wholesale),37.780868436568100,-122.42546772661800
1181499,John's Catering #5,Truck,MISSION ST: SHAW ALY to ANTHONY ST (543 - 586),560 MISSION ST,EXPIRED,Cold Truck: Soda:Chips:Candy: Cold/Hot Sandwiches: Donuts.  (Pitco Wholesale),37.78886471534300,-122.39935935136300
1580910,Park's Catering,Truck,BURKE AVE: START: 1500-1599 BLOCK to 03RD ST (1500 - 1599),1570 BURKE AVE,REQUESTED,Cold Truck: Hamburger: cheeseburgers: hot dogs: hot sandwiches: cold sandwiches: egg muffins: cup of noodles: corn dogs: canned soup: coffee: hot cocoa: hot tea: gatorade: juice: milk: soda: water: fruits: fruit salad: rice pudding: yogurt: candy bars: chips: cookies: donuts: granola bars: muffins,37.74475219161640,-122.38567924872100
1580921,Park's Catering,Truck,MARIN ST: KANSAS ST to HWY 101 N ON RAMP (2500 - 2599),2525 MARIN ST,REQUESTED,Cold Truck: Hamburger: cheeseburgers: hot dogs: hot sandwiches: cold sandwiches: egg muffins: cup of noodles: corn dogs: canned soup: coffee: hot cocoa: hot tea: gatorade: juice: milk: soda: water: fruits: fruit salad: rice pudding: yogurt: candy bars: chips: cookies: donuts: granola bars: muffins,37.74761607223310,-122.40197697572400
1580905,Park's Catering,Truck,PHELPS ST: FAIRFAX AVE to SAM JORDANS WAY (500 - 599),525 PHELPS ST,REQUESTED,Cold Truck: Hamburger: cheeseburgers: hot dogs: hot sandwiches: cold sandwiches: egg muffins: cup of noodles: corn dogs: canned soup: coffee: hot cocoa: hot tea: gatorade: juice: milk: soda: water: fruits: fruit salad: rice pudding: yogurt: candy bars: chips: cookies: donuts: granola bars: muffins,37.74176064966550,-122.3890979701950
1580926,Park's Catering,Truck,NEWHALL ST: MENDELL ST to EVANS AVE (200 - 399),220 NEWHALL ST,REQUESTED,Cold Truck: Hamburger: cheeseburgers: hot dogs: hot sandwiches: cold sandwiches: egg muffins: cup of noodles: corn dogs: canned soup: coffee: hot cocoa: hot tea: gatorade: juice: milk: soda: water: fruits: fruit salad: rice pudding: yogurt: candy bars: chips: cookies: donuts: granola bars: muffins,37.743014249631500,-122.38446024493500
1580920,Park's Catering,Truck,LOOMIS ST: BARNEVELD AVE \ MCKINNON AVE to OAKDALE AVE (1 - 99),10 LOOMIS ST,REQUESTED,Cold Truck: Hamburger: cheeseburgers: hot dogs: hot sandwiches: cold sandwiches: egg muffins: cup of noodles: corn dogs: canned soup: coffee: hot cocoa: hot tea: gatorade: juice: milk: soda: water: fruits: fruit salad: rice pudding: yogurt: candy bars: chips: cookies: donuts: granola bars: muffins,37.74378392338270,-122.40378882961000
1580912,Park's Catering,Truck,BURKE AVE: START: 1500-1599 BLOCK to 03RD ST (1500 - 1599),1575 BURKE AVE,REQUESTED,Cold Truck: Hamburger: cheeseburgers: hot dogs: hot sandwiches: cold sandwiches: egg muffins: cup of noodles: corn dogs: canned soup: coffee: hot cocoa: hot tea: gatorade: juice: milk: soda: water: fruits: fruit salad: rice pudding: yogurt: candy bars: chips: cookies: donuts: granola bars: muffins,37.744178447375700,-122.38671592975900
1580922,Park's Catering,Truck,MISSISSIPPI ST: START: 1200-1299 BLOCK to CESAR CHAVEZ ST (1200 - 1299),1200 MISSISSIPPI ST,REQUESTED,Cold Truck: Hamburger: cheeseburgers: hot dogs: hot sandwiches: cold sandwiches: egg muffins: cup of noodles: corn dogs: canned soup: coffee: hot cocoa: hot tea: gatorade: juice: milk: soda: water: fruits: fruit salad: rice pudding: yogurt: candy bars: chips: cookies: donuts: granola bars: muffins,37.75169103572290,-122.3943742132630
1580923,Park's Catering,Truck,NAPOLEON ST: EVANS AVE \ TOLAND ST to JERROLD AVE (25 - 299),250 NAPOLEON ST,REQUESTED,Cold Truck: Hamburger: cheeseburgers: hot dogs: hot sandwiches: cold sandwiches: egg muffins: cup of noodles: corn dogs: canned soup: coffee: hot cocoa: hot tea: gatorade: juice: milk: soda: water: fruits: fruit salad: rice pudding: yogurt: candy bars: chips: cookies: donuts: granola bars: muffins,37.746755554477500,-122.40090627035900
1580906,Park's Catering,Truck,RANKIN ST: DAVIDSON AVE to EVANS AVE (200 - 299),220 RANKIN ST,REQUESTED,Cold Truck: Hamburger: cheeseburgers: hot dogs: hot sandwiches: cold sandwiches: egg muffins: cup of noodles: corn dogs: canned soup: coffee: hot cocoa: hot tea: gatorade: juice: milk: soda: water: fruits: fruit salad: rice pudding: yogurt: candy bars: chips: cookies: donuts: granola bars: muffins,37.74646978811480,-122.3915152387720
1580907,Park's Catering,Truck,03RD ST: ARTHUR AVE \ CARGO WAY to BURKE AVE (3400 - 3498) -- WEST --,3450 03RD ST,REQUESTED,Cold Truck: Hamburger: cheeseburgers: hot dogs: hot sandwiches: cold sandwiches: egg muffins: cup of noodles: corn dogs: canned soup: coffee: hot cocoa: hot tea: gatorade: juice: milk: soda: water: fruits: fruit salad: rice pudding: yogurt: candy bars: chips: cookies: donuts: granola bars: muffins,37.74572922168840,-122.38779765083700
1576239,Natan's Catering,Truck,MARIN ST: START: 800-949 BLOCK to MICHIGAN ST (800 - 899),888 MARIN ST,REQUESTED,Burgers: melts: hot dogs: burritos:sandwiches: fries: onion rings: drinks,37.74945832902700,-122.38508133967800
1515710,Zuri Food Facilities,Truck,MARIPOSA ST: ARKANSAS ST to CAROLINA ST (1500 - 1699),1601 MARIPOSA ST,EXPIRED,Peruvian Food Served Hot,0,0
1576216,Natan's Catering,Truck,QUINT ST: ARTHUR AVE to CUSTER AVE (1 - 199),50 QUINT ST,REQUESTED,Burgers: melts: hot dogs: burritos:sandwiches: fries: onion rings: drinks,37.746470506647100,-122.38899080865400
1576230,Natan's Catering,Truck,EVANS AVE: NAPOLEON ST \ TOLAND ST to MARIN ST (2000 - 2099),2045 EVANS AVE,REQUESTED,Burgers: melts: hot dogs: burritos:sandwiches: fries: onion rings: drinks,37.747772091607500,-122.39703171897800
1576241,Natan's Catering,Truck,MISSOURI ST: 20TH ST to SIERRA ST (500 - 630),555 MISSOURI ST,REQUESTED,Burgers: melts: hot dogs: burritos:sandwiches: fries: onion rings: drinks,37.75930376638340,-122.39590223123600
1576386,San Francisco's Hometown Creamery,Truck,PINE ST: SANSOME ST to CENTURY PL (300 - 340),301 PINE ST,REQUESTED,Ice cream & Waffle cones,37.79183426305550,-122.40127961659600
1576209,Natan's Catering,Truck,,Assessors Block 4058/Lot010,REQUESTED,Burgers: melts: hot dogs: burritos:sandwiches: fries: onion rings: drinks,37.761182994505100,-122.38811870407700
1576233,Natan's Catering,Truck,16TH ST: 04TH ST to OWENS ST (600 - 699),600 16TH ST,REQUESTED,Burgers: melts: hot dogs: burritos:sandwiches: fries: onion rings: drinks,37.76746628714480,-122.39086028943100
1576226,Natan's Catering,Truck,BURKE AVE: START: 1500-1599 BLOCK to 03RD ST (1500 - 1599),1580 BURKE AVE,REQUESTED,Burgers: melts: hot dogs: burritos:sandwiches: fries: onion rings: drinks,37.74475219161640,-122.38567924872100
1576375,San Francisco's Hometown Creamery,Truck,CALIFORNIA ST: SANSOME ST to LEIDESDORFF ST (400 - 448),425 CALIFORNIA ST,REQUESTED,Ice Cream: Waffle Cones,37.79279574157870,-122.40135328093100
1576210,Natan's Catering,Truck,,Assessors Block 4227/Lot012,REQUESTED,Burgers: melts: hot dogs: burritos:sandwiches: fries: onion rings: drinks,37.75315510671550,-122.3911741844560
1576208,Natan's Catering,Truck,,Assessors Block 4172/Lot010,REQUESTED,Burgers: melts: hot dogs: burritos:sandwiches: fries: onion rings: drinks,37.75712456038610,-122.3885295152570
1576212,Natan's Catering,Truck,,Assessors Block 4046/Lot001,REQUESTED,Burgers: melts: hot dogs: burritos:sandwiches: fries: onion rings: drinks,37.76200845803020,-122.38544181156800
1576238,Natan's Catering,Truck,17TH ST: MISSION ST to HOFF ST (3300 - 3343),3335 17TH ST,REQUESTED,Burgers: melts: hot dogs: burritos:sandwiches: fries: onion rings: drinks,37.76315639322650,-122.42032223152600
1576219,Natan's Catering,Truck,MISSION BAY BLVD SOUTH: 03RD ST \ MISSION BAY BLVD to 04TH ST \ MISSION BAY BLVD (501 - 599),Assessors Block 8732/Lot001,REQUESTED,Burgers: melts: hot dogs: burritos:sandwiches: fries: onion rings: drinks,37.77070297609750,-122.39079035556600
1576217,Natan's Catering,Truck,23RD ST: START: 100-699 BLOCK to ILLINOIS ST (100 - 699),435 23RD ST,REQUESTED,Burgers: melts: hot dogs: burritos:sandwiches: fries: onion rings: drinks,37.755030726766700,-122.38453073422300
1576229,Natan's Catering,Truck,EVANS AVE: RANKIN ST to SELBY ST (1800 - 1890),1801 EVANS AVE,REQUESTED,Burgers: melts: hot dogs: burritos:sandwiches: fries: onion rings: drinks,37.74459119509170,-122.39307688085800
1576236,Natan's Catering,Truck,ILLINOIS ST: 25TH ST to ILLINOIS ST (1500 - 1599),Assessors Block 4296/Lot010,REQUESTED,Burgers: melts: hot dogs: burritos:sandwiches: fries: onion rings: drinks,37.75240499247830,-122.38700019629800
1576218,Natan's Catering,Truck,25TH ST: MARYLAND ST to MICHIGAN ST (400 - 699),Assessors Block 4241/Lot002,REQUESTED,Burgers: melts: hot dogs: burritos:sandwiches: fries: onion rings: drinks,37.75334000118110,-122.38412838423700
1576206,Natan's Catering,Truck,,Assessors Block 5598/Lot031,REQUESTED,Burgers: melts: hot dogs: burritos:sandwiches: fries: onion rings: drinks,37.74030387280600,-122.4060597434940
1576387,San Francisco's Hometown Creamery,Truck,POST ST: STOCKTON ST to POWELL ST (300 - 399),340 POST ST,REQUESTED,Ice Cream: Waffle Cones,37.78869699864030,-122.40747042037000
1576228,Natan's Catering,Truck,CONNECTICUT ST: 17TH ST to MARIPOSA ST (100 - 199),146 CONNECTICUT ST,REQUESTED,Burgers: melts: hot dogs: burritos:sandwiches: fries: onion rings: drinks,37.764447295561900,-122.397987371508
1576223,Natan's Catering,Truck,03RD ST: MARIN ST to ARTHUR AVE \ CARGO WAY (3201 - 3399) -- EAST --,3201 03RD ST,REQUESTED,Burgers: melts: hot dogs: burritos:sandwiches: fries: onion rings: drinks,37.748445338837700,-122.38687903198000
1576222,Natan's Catering,Truck,03RD ST: 18TH ST to 19TH ST (2101 - 2199) -- EAST --,2101 03RD ST,REQUESTED,Burgers: melts: hot dogs: burritos:sandwiches: fries: onion rings: drinks,0,0
1576213,Natan's Catering,Truck,,Assessors Block 5216/Lot030,REQUESTED,Burgers: melts: hot dogs: burritos:sandwiches: fries: onion rings: drinks,37.74540642941650,-122.39008122484700
1576369,San Francisco's Hometown Creamery,Truck,GEARY ST: STOCKTON ST to POWELL ST (200 - 299),281 GEARY ST,REQUESTED,Ice cream,37.787136491086100,-122.4077185090010
1576221,Natan's Catering,Truck,,1650 03RD ST,REQUESTED,Burgers: melts: hot dogs: burritos:sandwiches: fries: onion rings: drinks,37.769124412168100,-122.39147491124600
1576214,Natan's Catering,Truck,,Assessors Block 4103/Lot023A,REQUESTED,Burgers: melts: hot dogs: burritos:sandwiches: fries: onion rings: drinks,37.758303395642500,-122.39351405481700
1514026,F & C Catering,Truck,TENNESSEE ST: TENNESSEE ST to 26TH ST (1500 - 1599),1500 TENNESSEE ST,EXPIRED,Cold Truck: Hot/Cold Sandwiches: Water: Soda: Juice: Snacks: Milk: Candies: Canned Food: Soups: Cup of Noodles: Fruit: Salad,37.75224166848030,-122.38918854258900
1515285,FRUITYMANIA,Push Cart,MARKET ST: 04TH ST \ ELLIS ST \ STOCKTON ST to POWELL ST (801 - 863) -- SOUTH --,801 MARKET ST,EXPIRED,Fruit Salads: Fruit Drinks: Can Soda: Water,37.784990279306500,-122.40567662907200
1513358,Brazuca Grill,Truck,03RD ST: MARIPOSA ST to 18TH ST (2001 - 2099) -- EAST --,2085 03RD ST,EXPIRED,Cold Truck: Sandwiches: Noodles:  Pre-packaged Snacks: Candy: Desserts Various Beverages,37.76329905604460,-122.38848230680500
1549615,Roadside Rotisserie Corporation / Country Grill,Truck,FRONT ST: BROADWAY to VALLEJO ST (800 - 899),90 BROADWAY,EXPIRED,Rotisserie Chicken: Ribs: Kickass Salad: Potatos w/fat dripping: chicken wrap.,37.799260113502300,-122.39961794865500
1513354,Brazuca Grill,Truck,TENNESSEE ST: 19TH ST to 20TH ST (800 - 899),815 TENNESSEE ST,EXPIRED,Cold Truck: Sandwiches: Noodles:  Pre-packaged Snacks: Candy: Desserts Various Beverages,37.76150220396640,-122.38927699608100
1515705,San Pancho's Tacos,Truck,CAPITOL AVE: DE MONTFORT AVE to OCEAN AVE (1200 - 1299),1271 CAPITOL AVE,EXPIRED,Tacos: Burritos: Quesadillas: Tortas: Nachos: Hot Dogs:Soda: Water: Fruit Drinks,37.724297778527600,-122.45937730954800
1515284,FRUITYMANIA,Push Cart,MARKET ST: 04TH ST \ ELLIS ST \ STOCKTON ST to POWELL ST (800 - 890) -- NORTH --,870 MARKET ST,EXPIRED,Fruit Salads: Fruit Drinks: Can Soda: Water,37.78511092044780,-122.40742266827700
1529942,Rita's Catering,Truck,MISSION ST: 06TH ST to 07TH ST (1000 - 1099),1028 MISSION ST,EXPIRED,Filipino Food,37.78069437740820,-122.40966881321900
1513368,Brazuca Grill,Truck,10TH ST: SHERIDAN ST to HARRISON ST (350 - 399),380 10TH ST,EXPIRED,Cold Truck: Sandwiches: Noodles:  Pre-packaged Snacks: Candy: Desserts Various Beverages,37.77165385136790,-122.41180906852400
1576227,Natan's Catering,Truck,07TH ST: HOOPER ST to IRWIN ST (1100 - 1199),1140 07TH ST,REQUESTED,Burgers: melts: hot dogs: burritos:sandwiches: fries: onion rings: drinks,37.7682493867935,-122.39843065021400
1488716,El Alambre,Truck,14TH ST: FOLSOM ST to SHOTWELL ST (100 - 150),1800 FOLSOM ST,EXPIRED,Tacos: Burritos: Quesadillas: Tortas,37.76785244271810,-122.41610489253200
1516948,Eva's Catering,Truck,05TH ST: WELSH ST to BRANNAN ST (530 - 599),530 05TH ST,EXPIRED,Cold Truck: Burrito: Corn Dog: Salads: Sandwiches: Quesadilla: Tacos: Fried Rice: Cow Mein: Chinese Rice: Noodle Plates: Soup: Bacon: Eggs: Ham: Avacado: Sausages: Beverages,37.77687638877650,-122.40025957520200
1509787,El Gallo Jiro,Truck,23RD ST: TREAT AVE to FOLSOM ST (3052 - 3099),3055 23RD ST,EXPIRED,Burritos: Giros: Tortas: Quesadillas: Tacos & Various Beverages,37.753927735726500,-122.41332312961800
1515703,San Pancho's Tacos,Truck,ALEMANY BLVD: SICKLES AVE to I-280 N ON RAMP \ REGENT ST \ SAN JOSE AVE (3101 - 3155) -- SOUTH --,3119 ALEMANY BLVD,EXPIRED,Tacos: Burritos: Quesadillas: Tortas: Nachos: Hot Dogs:Soda: Water: Fruit Drinks,37.71019301997580,-122.4552219061260
1513362,Brazuca Grill,Truck,03RD ST: MARIN ST to ARTHUR AVE \ CARGO WAY (3201 - 3399) -- EAST --,3305 03RD ST,EXPIRED,Cold Truck: Sandwiches: Noodles:  Pre-packaged Snacks: Candy: Desserts Various Beverages,37.74383117213270,-122.37779736896200
1513374,Brazuca Grill,Truck,INDIANA ST: 20TH ST to 22ND ST (800 - 999),998 INDIANA ST,EXPIRED,Cold Truck: Sandwiches: Noodles:  Pre-packaged Snacks: Candy: Desserts Various Beverages,37.758037393488100,-122.3916718906820
1513381,Brazuca Grill,Truck,NEWHALL ST: BITTING AVE to EGBERT AVE (2660 - 2899),2660 NEWHALL ST,EXPIRED,Cold Truck: Sandwiches: Noodles:  Pre-packaged Snacks: Candy: Desserts Various Beverages,37.727212173900400,-122.39963625164400
1549613,Roadside Rotisserie Corporation / Country Grill,Truck,BRANNAN ST: STANFORD ST to JACK LONDON ALY (324 - 353),333 BRANNAN ST,EXPIRED,Rotisserie Chicken; Ribs; Pork Loin; Roasted Potatoes; Chicken Wrap; Kale Salad; Drinks,37.780918000993,-122.39241698313300
1512231,"Chairman SF, LLC",Truck,MISSION ST: ECKER ST to SHAW ALY (521 - 548),536 MISSION ST,EXPIRED,Baos: bowls & drinks,37.78924890841370,-122.39889295934600
1495113,"Off the Grid Services, LLC",Truck,BRANNAN ST: STANFORD ST to JACK LONDON ALY (324 - 353),340 BRANNAN ST,EXPIRED,Everything,37.781264686022800,-122.3932290415380
1513375,Brazuca Grill,Truck,INDIANA ST: 20TH ST to 22ND ST (800 - 999),951 INDIANA ST,EXPIRED,Cold Truck: Sandwiches: Noodles:  Pre-packaged Snacks: Candy: Desserts Various Beverages,37.758786162305600,-122.39095839869300
1515850,Philz Coffee Truck,Truck,PINE ST: BATTERY ST to SANSOME ST (200 - 299),250 PINE ST,EXPIRED,Hot coffee: iced coffee: hot chocolate: tea: pastries,37.79229559981870,-122.40070689723300
1513376,Brazuca Grill,Truck,INDIANA ST: 26TH ST to CESAR CHAVEZ ST (1500 - 1599),1575 INDIANA ST,EXPIRED,Cold Truck: Sandwiches: Noodles:  Pre-packaged Snacks: Candy: Desserts Various Beverages,37.75084960681250,-122.3900276155010
1514031,F & C Catering,Truck,MINNESOTA ST: 23RD ST to 24TH ST (1200 - 1299),1275 MINNESOTA ST,EXPIRED,Cold Truck: Hot/Cold Sandwiches: Water: Soda: Juice: Snacks: Milk: Candies: Canned Food: Soups: Cup of Noodles: Fruit: Salad,37.754251708893700,-122.3893812288800
1515860,Curry Up Now,Truck,03RD ST: BRANNAN ST to TOWNSEND ST (600 - 699),601 03RD ST,EXPIRED,Indian Street Food: Tikka Masala Burritos; Samosas; Sexy Fries (Indian-inspired poutine); Naughty Naans; Deconstructed Samosas; Kathi Rolls; Lassis and Lemonades,37.78007717443920,-122.39376729448300
1529949,Bonito Poke,Truck,CALIFORNIA ST: SANSOME ST to LEIDESDORFF ST (400 - 448),430 CALIFORNIA ST,EXPIRED,Bonito Poke Bowls & Various Drinks,37.793262206923100,-122.4017890913630
1513030,"San Francisco Street Foods, Inc.",Push Cart,SACRAMENTO ST: FRONT ST to BATTERY ST (300 - 399),1 THE EMBARCADERO,EXPIRED,Hot dogs: condiments: soft pretzels: soft drinks: coffee: cold beverages: pastries: bakery goods: cookies: ice cream: candy: soups: churros: chestnuts: nuts: fresh fruit: fruit juices: desserts: potato chips and popcorn.,37.79464383461950,-122.39964429852900
1513360,Brazuca Grill,Truck,03RD ST: 26TH ST to CESAR CHAVEZ ST (3000 - 3098) -- WEST --,3000 03RD ST,EXPIRED,Cold Truck: Sandwiches: Noodles:  Pre-packaged Snacks: Candy: Desserts Various Beverages,37.750464115522500,-122.38790832590200
1495093,"Off the Grid Services, LLC",Truck,BERRY ST: 03RD ST to 04TH ST (100 - 199),185 BERRY ST,EXPIRED,everything except for hot dogs,37.77632714778990,-122.39179682107700
1515704,San Pancho's Tacos,Truck,BAY SHORE BLVD: CORTLAND AVE to WATERLOO ST (491 - 499) -- EAST --,491 BAY SHORE BLVD,EXPIRED,Tacos: Burritos: Quesadillas: Tortas: Nachos: Hot Dogs:Soda: Water: Fruit Drinks,0,0
1549616,Roadside Rotisserie Corporation / Country Grill,Truck,BATTERY ST: CALIFORNIA ST to HALLECK ST (200 - 230),225 BATTERY ST,EXPIRED,Rotisserie Chicken; Ribs; Pork Loin; Roasted Potatoes; Chicken Wrap; Kale Salad; Drinks,37.79344652781610,-122.40034367559200
1513341,El Alambre,Truck,FRANKLIN ST: OFARRELL ST \ STARR KING WAY to MYRTLE ST (1100 - 1149),1100 FRANKLIN ST,EXPIRED,Tacos: Burritos: Quesadillas: Nachos Alambres: Choice of Meat: Carne Asada: Carnitas: Pollo: Al Pastor Camarones,37.78484602775550,-122.42256813313700
1513359,Brazuca Grill,Truck,03RD ST: MARIPOSA ST to 18TH ST (2000 - 2098) -- WEST --,2030 03RD ST,EXPIRED,Cold Truck: Sandwiches: Noodles:  Pre-packaged Snacks: Candy: Desserts Various Beverages,37.7636598013494,-122.38913385740500
1514029,F & C Catering,Truck,03RD ST: 24TH ST to 25TH ST (2800 - 2898) -- WEST --,2800 03RD ST,EXPIRED,Cold Truck: Hot/Cold Sandwiches: Water: Soda: Juice: Snacks: Milk: Candies: Canned Food: Soups: Cup of Noodles: Fruit: Salad,37.753717416902100,-122.38835902104400
1513353,Brazuca Grill,Truck,TENNESSEE ST: 18TH ST to 19TH ST (700 - 799),790 TENNESSEE ST,EXPIRED,Cold Truck: Sandwiches: Noodles:  Pre-packaged Snacks: Candy: Desserts Various Beverages,37.761852397504100,-122.38993209325000
1515707,Zuri Food Facilities,Truck,02ND ST: STILLMAN ST to BRYANT ST (454 - 499),490 02ND ST,EXPIRED,Peruvian Food Served Hot,37.783046099750000,-122.39406659923000
1515853,Philz Coffee Truck,Truck,MARINA BLVD: LAGUNA ST to BEACH ST \ BUCHANAN ST \ LOWER FORT MASON ST (1 - 99),15 MARINA BLVD,EXPIRED,Hot coffee: iced coffee: hot chocolate: tea: pastries,37.80457786909010,-122.43301077434300
1513348,Brazuca Grill,Truck,22ND ST: MISSISSIPPI ST to TEXAS ST (1255 - 1399),1255 22ND ST,EXPIRED,Cold Truck: Sandwiches: Noodles:  Pre-packaged Snacks: Candy: Desserts Various Beverages,37.75701552445970,-122.39406294711600
1513342,El Alambre,Truck,FRANKLIN ST: MYRTLE ST to GEARY BLVD (1150 - 1199),1188 FRANKLIN ST,EXPIRED,Tacos: Burritos: Quesadillas: Nachos Alambres: Choice of Meat: Carne Asada: Carnitas: Pollo: Al Pastor Camarones,37.785271949066800,-122.42260358516400
1534178,Street Meet,Truck,GROVE ST: 08TH ST \ HYDE ST \ MARKET ST to LARKIN ST (1 - 55),30 GROVE ST,EXPIRED,Burritos: Tacos: Quesadillas: Tortas: Carne Asada Fries and various drinks,37.779159119969,-122.4158078824270
1522411,Faith Sandwich,Push Cart,MISSION ST: SHAW ALY to ANTHONY ST (543 - 586),560 MISSION ST,EXPIRED,BBQ PORK SANDWICHGRILL CHICKEN SANDWICHSHIRMP SPRING ROLLSBBQ PORK OVER RICEGRILL CHICKEN OVER RICEBBQ PORK VERMICELLIGRILL CHICKEN VERMICELLIBBQ PORK GARLIC NOODLEGRILL CHICKEN GARLIC NOODLENEW ITEMS:MASALA DOSAPANNER DOSACHICKEN CURRY & RICECHICKEN STEWRICE OR DOSAADD CHEESEADD GHEE,37.78886471534300,-122.39935935136300
1513377,Brazuca Grill,Truck,MARIPOSA ST: TENNESSEE ST to 04TH ST \ MINNESOTA ST (600 - 699),601 MARIPOSA ST,EXPIRED,Cold Truck: Sandwiches: Noodles:  Pre-packaged Snacks: Candy: Desserts Various Beverages,37.764052089924200,-122.39014439398800
1513366,Brazuca Grill,Truck,CESAR CHAVEZ ST: EVANS AVE to KANSAS ST (2100 - 2550),2150 CESAR CHAVEZ ST,EXPIRED,Cold Truck: Sandwiches: Noodles:  Pre-packaged Snacks: Candy: Desserts Various Beverages,37.75023688477910,-122.39781803171900
1495090,"Off the Grid Services, LLC",Truck,BERRY ST: 03RD ST to 04TH ST (100 - 199),185 BERRY ST,EXPIRED,everything except for hot dogs,37.77632714778990,-122.39179682107700
1516946,Eva's Catering,Truck,ORTEGA ST: 18TH AVE to 19TH AVE (1100 - 1199),1199 ORTEGA ST,EXPIRED,Cold Truck: Burrito: Corn Dog: Salads: Sandwiches: Quesadilla: Tacos: Fried Rice: Cow Mein: Chinese Rice: Noodle Plates: Soup: Bacon: Eggs: Ham: Avacado: Sausages: Beverages,37.78350912221270,-122.49007120810000
1513356,Brazuca Grill,Truck,26TH ST: MINNESOTA ST to INDIANA ST (1000 - 1099),1051 26TH ST,EXPIRED,Cold Truck: Sandwiches: Noodles:  Pre-packaged Snacks: Candy: Desserts Various Beverages,37.75126940587810,-122.38989436694400
1543851,Truly Food & More,Truck,SANSOME ST: PINE ST to CALIFORNIA ST (200 - 299),217 SANSOME ST,EXPIRED,Latin Food: Tacos: Pupusas: Vegetables: Salad: Waters: Sodas,37.79238986198320,-122.40126969523600
1513363,Brazuca Grill,Truck,03RD ST: MARIN ST to ARTHUR AVE \ CARGO WAY (3201 - 3399) -- EAST --,3255 03RD ST,EXPIRED,Cold Truck: Sandwiches: Noodles:  Pre-packaged Snacks: Candy: Desserts Various Beverages,37.748445338837700,-122.38687903198000
1549612,Roadside Rotisserie Corporation / Country Grill,Truck,POST ST: MONTGOMERY ST to LICK PL (1 - 40),1 POST ST,EXPIRED,Rotisserie chicken: pork loin: ribs: chicken salad wrap: potatoes: roasted seasonal vegetables kale salad: beverages.,37.788778723378000,-122.40257456841100
1037692,Munch A Bunch,Truck,FULTON ST: FRANKLIN ST to GOUGH ST (300 - 399),365 FULTON ST,EXPIRED,Cold Truck: packaged sandwiches: pitas: breakfast: cold and hot drinks: snacks,37.77849359718520,-122.42295474739600
1174531,CC Acquisition LLC,Push Cart,MARKET ST: 01ST ST \ BUSH ST to 02ND ST (501 - 599) -- SOUTH --,525 MARKET ST,REQUESTED,Chai Tea,37.790406719940500,-122.39927588608600
934628,May Catering,Truck,MARIPOSA ST: 04TH ST \ MINNESOTA ST to INDIANA ST (700 - 799),777 MARIPOSA ST,EXPIRED,Cold Truck: Sandwiches: fruit: snacks: candy: hot and cold drinks,37.76381127729060,-122.3912653505990
963991,Singh Brothers Ice Cream,Truck,HARBOR RD: NORTHRIDGE RD to INGALLS ST (1 - 299),297 HARBOR RD,REQUESTED,Ice Cream: Pre-Packaged Chips: Candies: Bottled Water & Canned SODA,37.73343881164080,-122.38046754951800
1181498,John's Catering #5,Truck,HARRISON ST: FREMONT ST \ I-80 W OFF RAMP to 01ST ST \ I-80 E ON RAMP (400 - 499),401 HARRISON ST,EXPIRED,Cold Truck: Soda:Chips:Candy: Cold/Hot Sandwiches: Donuts.  (Pitco Wholesale),37.78606252109720,-122.39217646394900
1163794,"SOHOMEI, LLC",Truck,MISSION ST: 07TH ST to ANGELOS ALY \ JULIA ST (1100 - 1165),1118 MISSION ST,REQUESTED,COLD TRUCK. Deli: bbq chicken skewer: Chinese spring roll: Chinese fried rice/noodle: fried chicken leg/wing: bbq chicken sandwich: chicken cheese burger: burrito: lumpia. Snack: sunflower seeds: muffins: chips: snickers: kit-kat: 10 types of chocolate. Drinks: Coke: 7-Up: Dr. Pepper: Pepsi: Redbull: Vitamin Water: Rockstar: Coconut Juice: Water. Hot drinks: coffee: tea.,37.77915720534110,-122.41161543051900
1181516,John's Catering #5,Truck,11TH ST: KISSLING ST to BURNS PL (236 - 276),251 11TH ST,EXPIRED,Cold Truck: Soda:Chips:Candy: Cold/Hot Sandwiches: Donuts.  (Pitco Wholesale),37.77249677780670,-122.41420984516700
1513373,Brazuca Grill,Truck,FRANCISCO ST: MASON ST to TAYLOR ST (500 - 599),500 FRANCISCO ST,EXPIRED,Cold Truck: Sandwiches: Noodles:  Pre-packaged Snacks: Candy: Desserts Various Beverages,37.805049509058900,-122.41433443694000
1163791,"SOHOMEI, LLC",Truck,CLAY ST: BATTERY ST to SANSOME ST (400 - 499),432 CLAY ST,REQUESTED,COLD TRUCK. Deli: bbq chicken skewer: Chinese spring roll: Chinese fried rice/noodle: fried chicken leg/wing: bbq chicken sandwich: chicken cheese burger: burrito: lumpia. Snack: sunflower seeds: muffins: chips: snickers: kit-kat: 10 types of chocolate. Drinks: Coke: 7-Up: Dr. Pepper: Pepsi: Redbull: Vitamin Water: Rockstar: Coconut Juice: Water. Hot drinks: coffee: tea.,37.795105560981400,-122.40087663372600
963985,Singh Brothers Ice Cream,Truck,BANCROFT AVE: JENNINGS ST to KEITH ST (1500 - 1599),1562 BANCROFT AVE,REQUESTED,Ice Cream: Pre-Packaged Chips: Candies: Bottled Water & Canned SODA,37.725450702172300,-122.39199164141800
1153604,SPUNBYSS,Truck,02ND ST: TEHAMA ST to CLEMENTINA ST (224 - 273),240 02ND ST,REQUESTED,American classic slider:  fried chicken slider: fried chicken skin: wedge cut fries: regular cut fries: handcrafted sodas: spring salad,37.78594032017340,-122.39779993385800
963995,Singh Brothers Ice Cream,Truck,KISKA RD: DORMITORY RD \ KIRKWOOD AVE to REARDON RD (141 - 199),195 KISKA RD,REQUESTED,Ice Cream: Pre-Packaged Chips: Candies: Bottled Water & Canned SODA,37.72943828845400,-122.37665780072300
1090089,Tacos El Primo,Truck,QUINT ST: DAVIDSON AVE to EVANS AVE (300 - 399),1700 EVANS AVE,REQUESTED,Mexican food: tacos: burritos: tortas: various meat and chicken and fish plate: chile relleno plate: fish plate: bread: flan: rice pudding: bread: fruit juice: vegetable juice: coffee: tea,37.744889286143,-122.39097197693500
963992,Singh Brothers Ice Cream,Truck,QUESADA AVE: CRISP RD to HAWES ST (1170 - 1199),1191 QUESADA AVE,REQUESTED,Ice Cream: Pre-Packaged Chips: Candies: Bottled Water & Canned SODA,37.72774449070110,-122.38210737524200
1163792,"SOHOMEI, LLC",Truck,THOMAS MORE WAY: BROTHERHOOD WAY \ CHUMASERO DR to SAN FRANCISCO GOLF CLUB RD (1 - 99),1 THOMAS MORE WAY,REQUESTED,COLD TRUCK. Deli: bbq chicken skewer: Chinese spring roll: Chinese fried rice/noodle: fried chicken leg/wing: bbq chicken sandwich: chicken cheese burger: burrito: lumpia. Snack: sunflower seeds: muffins: chips: snickers: kit-kat: 10 types of chocolate. Drinks: Coke: 7-Up: Dr. Pepper: Pepsi: Redbull: Vitamin Water: Rockstar: Coconut Juice: Water. Hot drinks: coffee: tea.,37.710003334289400,-122.47141191312900
1181505,John's Catering #5,Truck,REDWOOD ST: POLK ST to VAN NESS AVE (100 - 199),180 REDWOOD ST,EXPIRED,Cold Truck: Soda:Chips:Candy: Cold/Hot Sandwiches: Donuts.  (Pitco Wholesale),37.78083157691190,-122.41994286468200
963980,Singh Brothers Ice Cream,Truck,GRIFFITH ST: INGERSON AVE to JAMESTOWN AVE (2900 - 2999),2900 GRIFFITH ST,REQUESTED,Ice Cream: Pre-Packaged Chips: Candies: Bottled Water & Canned SODA,37.71699129032400,-122.38959908417000
1163783,"SOHOMEI, LLC",Truck,PINE ST: POLK ST to VAN NESS AVE (1500 - 1599),1540 PINE ST,REQUESTED,COLD TRUCK. Deli: bbq chicken skewer: Chinese spring roll: Chinese fried rice/noodle: fried chicken leg/wing: bbq chicken sandwich: chicken cheese burger: burrito: lumpia. Snack: sunflower seeds: muffins: chips: snickers: kit-kat: 10 types of chocolate. Drinks: Coke: 7-Up: Dr. Pepper: Pepsi: Redbull: Vitamin Water: Rockstar: Coconut Juice: Water. Hot drinks: coffee: tea.,37.78982691876330,-122.42112628905600
1199051,Munch India,Truck,CALIFORNIA ST: SANSOME ST to LEIDESDORFF ST (400 - 448),400 CALIFORNIA ST,REQUESTED,Daily rotating menus consisting of various local & organic vegetable: poultry: meat: seafood : rice & bread dishes.,37.79330427556100,-122.4014589984130
963978,Singh Brothers Ice Cream,Truck,HOLLISTER AVE: HAWES ST to INGALLS ST (1000 - 1099),1000 HOLLISTER AVE,REQUESTED,Ice Cream: Pre-Packaged Chips: Candies: Bottled Water & Canned SODA,37.718939819095900,-122.39051787206600
1181506,John's Catering #5,Truck,NATOMA ST: FREMONT ST to 01ST ST (1 - 19),400 HOWARD ST,EXPIRED,Cold Truck: Soda:Chips:Candy: Cold/Hot Sandwiches: Donuts.  (Pitco Wholesale),37.78911920766770,-122.39588103933500
963979,Singh Brothers Ice Cream,Truck,INGERSON AVE: JENNINGS ST to 03RD ST (1100 - 1199),1173 INGERSON AVE,REQUESTED,Ice Cream: Pre-Packaged Chips: Candies: Bottled Water & Canned SODA,37.72044936265940,-122.39591501423700
1181511,John's Catering #5,Truck,MASONIC AVE: EWING TER to TURK BLVD (200 - 298) -- EAST --,270 MASONIC AVE,EXPIRED,Cold Truck: Soda:Chips:Candy: Cold/Hot Sandwiches: Donuts.  (Pitco Wholesale),37.778918589893400,-122.44674879681500
1090091,Tacos El Primo,Truck,JENNINGS ST: WALLACE AVE to YOSEMITE AVE (2200 - 2299),1495 WALLACE AVE,REQUESTED,Mexican food: tacos: burritos: tortas: various meat and chicken and fish plate: chile relleno plate: fish plate: bread: flan: rice pudding: bread: fruit juice: vegetable juice: coffee: tea,37.72593049503990,-122.38921555942100
946047,The Huge Hotdog Concession,Truck,POLK ST: BUSH ST to AUSTIN ST \ FRANK NORRIS ST (1300 - 1329),1300 POLK ST,EXPIRED,Hotdogs: chips: soda: nuts: crackers,37.788877117266600,-122.42009102003800
1034228,Julie's Hot Dogs,,MISSION ST: 14TH ST to 15TH ST (1800 - 1899),1850 MISSION ST,REQUESTED,Hot dogs: bacon wrap hot dogs: chicken burgers: energy drinks: water & various drinks,37.76735502136980,-122.42051791382900
934630,May Catering,Truck,EVANS AVE: HUNTERS POINT BLVD to JENNINGS ST \ MIDDLE POINT RD (1031 - 1099),1059 EVANS AVE,EXPIRED,Cold Truck: Sandwiches: fruit: snacks: candy: hot and cold drinks,37.7365721824187,-122.37820966720200
963984,Singh Brothers Ice Cream,Truck,DONNER AVE: INGALLS ST to JENNINGS ST (1400 - 1499),1475 DONNER AVE,REQUESTED,Ice Cream: Pre-Packaged Chips: Candies: Bottled Water & Canned SODA,37.72279368875930,-122.39171966647200
1181501,John's Catering #5,Truck,MARIPOSA ST: HAMPSHIRE ST to YORK ST (2500 - 2599),2500 MARIPOSA ST,EXPIRED,Cold Truck: Soda:Chips:Candy: Cold/Hot Sandwiches: Donuts.  (Pitco Wholesale),37.76372721363290,-122.40933414879000
1186400,Tres Agaves Mexican Kitchen & Tequila Lounge LLC. dba Tres Truck,Truck,16TH ST: KANSAS ST to VERMONT ST (1700 - 1799),1700 16TH ST,EXPIRED,Multiple Truck - Everything,37.76621745068000,-122.40395278412100
934625,May Catering,Truck,,Assessors Block 8710/Lot003,EXPIRED,Cold Truck: Sandwiches: fruit: snacks: candy: hot and cold drinks,37.77064539839080,-122.3934769372000
1037689,Munch A Bunch,Truck,07TH ST: CLEVELAND ST to HARRISON ST (314 - 399),355 07TH ST,EXPIRED,Cold Truck: packaged sandwiches: pitas: breakfast: cold and hot drinks: snacks,37.77638142599360,-122.40693405162600
1181515,John's Catering #5,Truck,HARRISON ST: ALAMEDA ST to 15TH ST (1830 - 1899),1830 HARRISON ST,EXPIRED,Cold Truck: Soda:Chips:Candy: Cold/Hot Sandwiches: Donuts.  (Pitco Wholesale),37.76798459486450,-122.41395382252200
1039786,Julie's Hot Dogs,,MISSION ST: 17TH ST to CLARION ALY (2100 - 2131),2101 MISSION ST,REQUESTED,Hot dogs: bacon wrap hot dogs: chicken burgers: energy drinks: water & various drinks,37.76317461963380,-122.41900951477100
1213203,Marengo,Truck,WATERLOO ST: MARENGO ST to BAY SHORE BLVD (40 - 99),75 WATERLOO ST,REQUESTED,Breakfast - egg: cheese: bacon: tomato: english muffin w/ butter: jam: or nutella: hard boiled eggs: fruit medley: water: coffee: milk: carrot juice: orange juice,37.7386499426562,-122.40618611429500
1184867,Subs on Hubs,Truck,08TH ST: FOLSOM ST to RINGOLD ST (300 - 341),333 08TH ST,EXPIRED,Italian subs: Cuban sandwich: Gyro,37.77497549982170,-122.40938582319400
1186399,Tres Agaves Mexican Kitchen & Tequila Lounge LLC. dba Tres Truck,Truck,RHODE ISLAND ST: 16TH ST to 17TH ST (300 - 399),301 RHODE ISLAND ST,EXPIRED,Multiple Truck - Everything,37.76545973746820,-122.40213637617900
963997,Singh Brothers Ice Cream,Truck,NIBBI CT: GILLETTE AVE to END: 1-99 BLOCK (1 - 99),35 NIBBI CT,REQUESTED,Ice Cream: Pre-Packaged Chips: Candies: Bottled Water & Canned SODA,37.710451691867500,-122.39614907899600
948140,Eli's Hot Dogs,Push Cart,JERROLD AVE: BARNEVELD AVE to JERROLD AVE (2351 - 2369),101 BAY SHORE BLVD,REQUESTED,various styles of hot dogs & sausages: chips: breakfast sandwiches: chili: soda: water:,37.746948295513100,-122.40339096031300
1037695,Munch A Bunch,Truck,TURK ST: WEBSTER ST to FILLMORE ST (1300 - 1399),1345 TURK ST,EXPIRED,Cold Truck: packaged sandwiches: pitas: breakfast: cold and hot drinks: snacks,0,0
963988,Singh Brothers Ice Cream,Truck,PALOU AVE: HAWES ST to INGALLS ST (1100 - 1199),1101 PALOU AVE,REQUESTED,Ice Cream: Pre-Packaged Chips: Candies: Bottled Water & Canned SODA,37.72867144281790,-122.38186508864100
1181514,John's Catering #5,Truck,HOWARD ST: BEALE ST to FREMONT ST (300 - 399),300 HOWARD ST,EXPIRED,Cold Truck: Soda:Chips:Candy: Cold/Hot Sandwiches: Donuts.  (Pitco Wholesale),37.78956931389660,-122.39512939052100
1163784,"SOHOMEI, LLC",Truck,VALENCIA ST: 18TH ST to 19TH ST (700 - 799),740 VALENCIA ST,REQUESTED,COLD TRUCK. Deli: bbq chicken skewer: Chinese spring roll: Chinese fried rice/noodle: fried chicken leg/wing: bbq chicken sandwich: chicken cheese burger: burrito: lumpia. Snack: sunflower seeds: muffins: chips: snickers: kit-kat: 10 types of chocolate. Drinks: Coke: 7-Up: Dr. Pepper: Pepsi: Redbull: Vitamin Water: Rockstar: Coconut Juice: Water. Hot drinks: coffee: tea.,37.760957168278500,-122.42182419935800
1037690,Munch A Bunch,Truck,12TH ST: ISIS ST to BERNICE ST (332 - 365),333 12TH ST,EXPIRED,Cold Truck: packaged sandwiches: pitas: breakfast: cold and hot drinks: snacks,37.770818229999300,-122.41400729759700
1181509,John's Catering #5,Truck,,50 IVY ST,EXPIRED,Cold Truck: Soda:Chips:Candy: Cold/Hot Sandwiches: Donuts.  (Pitco Wholesale),37.77812837973380,-122.41865212999700
1200178,SF Cart Project,Truck,MISSION BAY BLVD SOUTH: 03RD ST \ MISSION BAY BLVD to 04TH ST \ MISSION BAY BLVD (501 - 599),535 MISSION BAY BLVD SOUTH,EXPIRED,7 Multiple Trucks on rotation (1 on Mission Bay Blvd South & 6 on 4th St).   Serving everything but hot dogs,37.769124412168100,-122.39147491124600
949952,"Santana ESG, Inc.",Truck,HARRISON ST: 21ST ST to 22ND ST (2500 - 2599),2598 HARRISON ST,EXPIRED,Tacos: Burritos: Tortas: Quesadillas: Mexican Drinks: Aguas Frescas,0,0
1181503,John's Catering #5,Truck,03RD ST: 16TH ST to MARIPOSA ST (1800 - 1998) -- WEST --,1900 03RD ST,EXPIRED,Cold Truck: Soda:Chips:Candy: Cold/Hot Sandwiches: Donuts.  (Pitco Wholesale),37.765106463190800,-122.38967948729000
1037688,Munch A Bunch,Truck,PARNASSUS AVE: HILLWAY AVE to 03RD AVE (400 - 599),400 PARNASSUS AVE,EXPIRED,Cold Truck: packaged sandwiches: pitas: breakfast: cold and hot drinks: snacks,37.763864032383200,-122.4583917498440
1163799,"SOHOMEI, LLC",Truck,MASONIC AVE: MCALLISTER ST to FULTON ST (500 - 599),599 MASONIC AVE,REQUESTED,COLD TRUCK. Deli: bbq chicken skewer: Chinese spring roll: Chinese fried rice/noodle: fried chicken leg/wing: bbq chicken sandwich: chicken cheese burger: burrito: lumpia. Snack: sunflower seeds: muffins: chips: snickers: kit-kat: 10 types of chocolate. Drinks: Coke: 7-Up: Dr. Pepper: Pepsi: Redbull: Vitamin Water: Rockstar: Coconut Juice: Water. Hot drinks: coffee: tea.,37.780723147544400,-122.44778964047800
1089698,El Tonayense #60,Truck,HARRISON ST: MISTRAL ST to 20TH ST (2345 - 2399),2355 FOLSOM ST,REQUESTED,Tacos: Burritos: Tortas: Quesadillas: Drinks,0,0
1037694,Munch A Bunch,Truck,WEBSTER ST: CLAY ST to WASHINGTON ST (2200 - 2299),2200 WEBSTER ST,EXPIRED,Cold Truck: packaged sandwiches: pitas: breakfast: cold and hot drinks: snacks,0,0
1037691,Munch A Bunch,Truck,LARKIN ST: FERN ST to BUSH ST (1127 - 1199),1144 LARKIN ST,EXPIRED,Cold Truck: packaged sandwiches: pitas: breakfast: cold and hot drinks: snacks,37.788527575313200,-122.41831368572100
1163796,"SOHOMEI, LLC",Truck,DAVIDSON AVE: QUINT ST to RANKIN ST (1500 - 1599),1580 DAVIDSON AVE,REQUESTED,COLD TRUCK. Deli: bbq chicken skewer: Chinese spring roll: Chinese fried rice/noodle: fried chicken leg/wing: bbq chicken sandwich: chicken cheese burger: burrito: lumpia. Snack: sunflower seeds: muffins: chips: snickers: kit-kat: 10 types of chocolate. Drinks: Coke: 7-Up: Dr. Pepper: Pepsi: Redbull: Vitamin Water: Rockstar: Coconut Juice: Water. Hot drinks: coffee: tea.,37.74569302612040,-122.39071458482100
963986,Singh Brothers Ice Cream,Truck,WALLACE AVE: JENNINGS ST to KEITH ST (1500 - 1599),1550 WALLACE AVE,REQUESTED,Ice Cream: Pre-Packaged Chips: Candies: Bottled Water & Canned SODA,37.72716806878200,-122.39002914870100
934627,May Catering,Truck,04TH ST: CHINA BASIN ST to MISSION BAY BLVD (1300 - 1399),1322 04TH ST,EXPIRED,Cold Truck: Sandwiches: fruit: snacks: candy: hot and cold drinks,37.763870760166100,-122.46060056387900
1181513,John's Catering #5,Truck,BRYANT ST: 19TH ST to 20TH ST (2100 - 2199),2157 BRYANT ST,EXPIRED,Cold Truck: Soda:Chips:Candy: Cold/Hot Sandwiches: Donuts.  (Pitco Wholesale),37.759796271722700,-122.40957342162400
1058991,Ruru Juice LLC,Truck,MISSION ST: 02ND ST to NEW MONTGOMERY ST (600 - 634),601 MISSION ST,REQUESTED,Smoothies: Juice: Salads: Fruit Bowls: Soup,37.78767164448790,-122.39976292583900
953001,Wonder Philly,Push Cart,04TH ST: BERRY ST to MISSION CREEK (900 - 999),960 04TH ST,ISSUED,Hot dogs: sausages: cheesesteaks: chips: drinks,37.77433766636960,-122.39405328631300
1184864,Subs on Hubs,Truck,BRANNAN ST: 08TH ST to 09TH ST (900 - 999),934 BRANNAN ST,EXPIRED,Italian subs: Cuban sandwich: Gyro,37.7711790005481,-122.40657367342900
963987,Singh Brothers Ice Cream,Truck,FITZGERALD AVE: HAWES ST to INGALLS ST (1100 - 1199),1104 FITZGERALD AVE,REQUESTED,Ice Cream: Pre-Packaged Chips: Candies: Bottled Water & Canned SODA,37.720174722649300,-122.38940711434200
1163405,Julie's Hot Dogs,Truck,MISSION ST: 19TH ST to 20TH ST (2300 - 2399),2365 MISSION ST,EXPIRED,Hot dogs: Bacon wrapped hot dogs: soda: water: sports drinks: energy drinks: chips,37.75924028515020,-122.4185441711170
1163788,"SOHOMEI, LLC",Truck,MISSION ST: ANNIE ST to 03RD ST (663 - 699),690 MISSION ST,REQUESTED,COLD TRUCK. Deli: bbq chicken skewer: Chinese spring roll: Chinese fried rice/noodle: fried chicken leg/wing: bbq chicken sandwich: chicken cheese burger: burrito: lumpia. Snack: sunflower seeds: muffins: chips: snickers: kit-kat: 10 types of chocolate. Drinks: Coke: 7-Up: Dr. Pepper: Pepsi: Redbull: Vitamin Water: Rockstar: Coconut Juice: Water. Hot drinks: coffee: tea.,0,0
959619,"Kabob Trolley, LLC",Push Cart,04TH ST: TOWNSEND ST to KING ST (700 - 799),298 KING ST,REQUESTED,Gyros: Kebobs: refreshments and dessert,37.77764220851000,-122.39341814593200
934629,May Catering,Truck,LE CONTE AVE: 03RD ST to KEITH ST (1039 - 1099),1075 LE CONTE AVE,EXPIRED,Cold Truck: Sandwiches: fruit: snacks: candy: hot and cold drinks,37.71878807902010,-122.39810598775000
1219753,"Kabob Trolley, LLC",Truck,MISSION ST: 07TH ST to ANGELOS ALY \ JULIA ST (1100 - 1165),1133 MISSION ST,REQUESTED,Halal Gyro and Cheesesteaks,37.77833025576590,-122.41151586526800
1090090,Tacos El Primo,Truck,WILLIAMS AVE: APOLLO ST to PHELPS ST \ VESTA ST (300 - 399),345 WILLIAMS AVE,REQUESTED,Mexican food: tacos: burritos: tortas: various meat and chicken and fish plate: chile relleno plate: fish plate: bread: flan: rice pudding: bread: fruit juice: vegetable juice: coffee: tea,37.72980548057410,-122.39924710472400
963994,Singh Brothers Ice Cream,Truck,INGALLS ST: GEORGE CT to OAKDALE AVE (1350 - 1399),1309 INGALLS ST,REQUESTED,Ice Cream: Pre-Packaged Chips: Candies: Bottled Water & Canned SODA,37.730374237862800,-122.38186187865700
1174530,CC Acquisition LLC,Push Cart,VALENCIA ST: 16TH ST to 17TH ST (500 - 599),560 VALENCIA ST,REQUESTED,Chai Tea,37.763858081360300,-122.4220826209930
1242091,Quick Grub,Push Cart,SANSOME ST: SUTTER ST to BUSH ST (1 - 99),1 BUSH ST,EXPIRED,Pre-packaged cold food and soft drinks,37.79092150726920,-122.4001004237390
1037687,Munch A Bunch,Truck,17TH ST: SAN BRUNO AVE to UTAH ST (2200 - 2299),2222 17TH ST,EXPIRED,Cold Truck: packaged sandwiches: pitas: breakfast: cold and hot drinks: snacks,37.76521594899380,-122.40600697202900
953198,"Santana ESG, Inc.",Truck,SHOTWELL ST: 16TH ST to 17TH ST (200 - 299),200 SHOTWELL ST,EXPIRED,Tacos: Burritos: Tortas: Quesadillas: Mexican Drinks: Aguas Frescas,37.764745350719500,-122.41656213947000
1181504,John's Catering #5,Truck,HARRISON ST: 16TH ST \ TREAT AVE to 17TH ST (2000 - 2099),2010 HARRISON ST,EXPIRED,Cold Truck: Soda:Chips:Candy: Cold/Hot Sandwiches: Donuts.  (Pitco Wholesale),37.78758750472810,-122.39047154033200
1163786,"SOHOMEI, LLC",Truck,02ND ST: FEDERAL ST to SOUTH PARK (519 - 548),544 02ND ST,REQUESTED,COLD TRUCK. Deli: bbq chicken skewer: Chinese spring roll: Chinese fried rice/noodle: fried chicken leg/wing: bbq chicken sandwich: chicken cheese burger: burrito: lumpia. Snack: sunflower seeds: muffins: chips: snickers: kit-kat: 10 types of chocolate. Drinks: Coke: 7-Up: Dr. Pepper: Pepsi: Redbull: Vitamin Water: Rockstar: Coconut Juice: Water. Hot drinks: coffee: tea.,37.782423563294700,-122.39323639939800
1037693,Munch A Bunch,Truck,BRYANT ST: ALAMEDA ST intersection,1525 BRYANT ST,EXPIRED,Cold Truck: packaged sandwiches: pitas: breakfast: cold and hot drinks: snacks,37.76773409267080,-122.41015260194200
1181502,John's Catering #5,Truck,BRANNAN ST: 05TH ST to 06TH ST \ I-280 NORTHBOUND \ I-280 SOUTHBOUND (600 - 699),610 BRANNAN ST,EXPIRED,Cold Truck: Soda:Chips:Candy: Cold/Hot Sandwiches: Donuts.  (Pitco Wholesale),37.776626919922300,-122.39955550378700
1042438,Ruru Juice LLC,Truck,SUTTER ST: SANSOME ST to MONTGOMERY ST (50 - 99),80 SUTTER ST,REQUESTED,Smoothies: Juice: Salads: Fruit Bowls: Soup,37.79034624734140,-122.4018501909890
963983,Singh Brothers Ice Cream,Truck,JENNINGS ST: KEY AVE to LE CONTE AVE (3400 - 3499),3444 JENNINGS ST,REQUESTED,Ice Cream: Pre-Packaged Chips: Candies: Bottled Water & Canned SODA,37.71852204856650,-122.3966614444170
1297766,Tacos Lol-Tun,Truck,ARMSTRONG AVE: KEITH ST to 03RD ST (1600 - 1699),1610 ARMSTRONG AVE,EXPIRED,Tortas: burritos: tacos: ensaladas: sodas,37.726594363386800,-122.39235562563100
934626,May Catering,Truck,,Assessors Block /Lot,EXPIRED,Cold Truck: Sandwiches: fruit: snacks: candy: hot and cold drinks,0,0
1089697,El Tonayense #60,Truck,HARRISON ST: 17TH ST to MARIPOSA ST (2050 - 2149),401 TREAT AVE,REQUESTED,Tacos: Burritos: Tortas: Quesadillas: Drinks,37.763108325376700,-122.41345489002200
1163797,"SOHOMEI, LLC",Truck,BURKE AVE: START: 1500-1599 BLOCK to 03RD ST (1500 - 1599),1570 BURKE AVE,REQUESTED,COLD TRUCK. Deli: bbq chicken skewer: Chinese spring roll: Chinese fried rice/noodle: fried chicken leg/wing: bbq chicken sandwich: chicken cheese burger: burrito: lumpia. Snack: sunflower seeds: muffins: chips: snickers: kit-kat: 10 types of chocolate. Drinks: Coke: 7-Up: Dr. Pepper: Pepsi: Redbull: Vitamin Water: Rockstar: Coconut Juice: Water. Hot drinks: coffee: tea.,37.74475219161640,-122.38567924872100
1163801,"SOHOMEI, LLC",Truck,ELLIS ST: LARKIN ST to POLK ST (700 - 799),730 ELLIS ST,REQUESTED,COLD TRUCK. Deli: bbq chicken skewer: Chinese spring roll: Chinese fried rice/noodle: fried chicken leg/wing: bbq chicken sandwich: chicken cheese burger: burrito: lumpia. Snack: sunflower seeds: muffins: chips: snickers: kit-kat: 10 types of chocolate. Drinks: Coke: 7-Up: Dr. Pepper: Pepsi: Redbull: Vitamin Water: Rockstar: Coconut Juice: Water. Hot drinks: coffee: tea.,37.78442073689950,-122.41840535178200
1163795,"SOHOMEI, LLC",Truck,MINNESOTA ST: 23RD ST to 24TH ST (1200 - 1299),1240 MINNESOTA ST,REQUESTED,COLD TRUCK. Deli: bbq chicken skewer: Chinese spring roll: Chinese fried rice/noodle: fried chicken leg/wing: bbq chicken sandwich: chicken cheese burger: burrito: lumpia. Snack: sunflower seeds: muffins: chips: snickers: kit-kat: 10 types of chocolate. Drinks: Coke: 7-Up: Dr. Pepper: Pepsi: Redbull: Vitamin Water: Rockstar: Coconut Juice: Water. Hot drinks: coffee: tea.,37.75461495148920,-122.39038813202000
1163789,"SOHOMEI, LLC",Truck,02ND ST: JESSIE ST to MISSION ST (69 - 99),85 02ND ST,REQUESTED,COLD TRUCK. Deli: bbq chicken skewer: Chinese spring roll: Chinese fried rice/noodle: fried chicken leg/wing: bbq chicken sandwich: chicken cheese burger: burrito: lumpia. Snack: sunflower seeds: muffins: chips: snickers: kit-kat: 10 types of chocolate. Drinks: Coke: 7-Up: Dr. Pepper: Pepsi: Redbull: Vitamin Water: Rockstar: Coconut Juice: Water. Hot drinks: coffee: tea.,37.788457028828900,-122.3998841605660
963990,Singh Brothers Ice Cream,Truck,JENNINGS ST: VAN DYKE AVE to WALLACE AVE (2100 - 2199),2115 JENNINGS ST,REQUESTED,Ice Cream: Pre-Packaged Chips: Candies: Bottled Water & Canned SODA,37.72672797825710,-122.38865842883200
963981,Singh Brothers Ice Cream,Truck,JAMESTOWN AVE: GRIFFITH ST to CORONADO ST (800 - 850),800 JAMESTOWN AVE,REQUESTED,Ice Cream: Pre-Packaged Chips: Candies: Bottled Water & Canned SODA,37.71644300214740,-122.38993787932100
1163798,"SOHOMEI, LLC",Truck,HOWARD ST: 01ST ST to MALDEN ALY (500 - 589),501 HOWARD ST,REQUESTED,COLD TRUCK. Deli: bbq chicken skewer: Chinese spring roll: Chinese fried rice/noodle: fried chicken leg/wing: bbq chicken sandwich: chicken cheese burger: burrito: lumpia. Snack: sunflower seeds: muffins: chips: snickers: kit-kat: 10 types of chocolate. Drinks: Coke: 7-Up: Dr. Pepper: Pepsi: Redbull: Vitamin Water: Rockstar: Coconut Juice: Water. Hot drinks: coffee: tea.,0,0
963996,Singh Brothers Ice Cream,Truck,KIRKWOOD AVE: NEWHALL ST to PHELPS ST (1600 - 1699),1698 KIRKWOOD AVE,REQUESTED,Ice Cream: Pre-Packaged Chips: Candies: Bottled Water & Canned SODA,37.73935716086750,-122.39152281175900
1181500,John's Catering #5,Truck,PINE ST: MONTGOMERY ST to BELDEN ST (400 - 489),555 CALIFORNIA ST,EXPIRED,Cold Truck: Soda:Chips:Candy: Cold/Hot Sandwiches: Donuts.  (Pitco Wholesale),37.79226163417750,-122.4034859553910
1163800,"SOHOMEI, LLC",Truck,22ND ST: SAN BRUNO AVE to UTAH ST (2400 - 2449),2401 22ND ST,REQUESTED,COLD TRUCK. Deli: bbq chicken skewer: Chinese spring roll: Chinese fried rice/noodle: fried chicken leg/wing: bbq chicken sandwich: chicken cheese burger: burrito: lumpia. Snack: sunflower seeds: muffins: chips: snickers: kit-kat: 10 types of chocolate. Drinks: Coke: 7-Up: Dr. Pepper: Pepsi: Redbull: Vitamin Water: Rockstar: Coconut Juice: Water. Hot drinks: coffee: tea.,37.75563700983230,-122.40510193037900
963993,Singh Brothers Ice Cream,Truck,SHAFTER AVE: HAWES ST to INGALLS ST (1200 - 1299),1207 SHAFTER AVE,REQUESTED,Ice Cream: Pre-Packaged Chips: Candies: Bottled Water & Canned SODA,37.726708272962200,-122.38362491720000
1184865,Subs on Hubs,Truck,05TH ST: HARRISON ST \ I-80 W OFF RAMP to PERRY ST (400 - 449),400 05TH ST,EXPIRED,Italian subs: Cuban sandwich: Gyro,37.77871039190090,-122.4018393503300
1181508,John's Catering #5,Truck,MARKET ST: 12TH ST \ PAGE ST to FRANKLIN ST (1591 - 1615) -- SOUTH --,1601 MARKET ST,EXPIRED,Cold Truck: Soda:Chips:Candy: Cold/Hot Sandwiches: Donuts.  (Pitco Wholesale),37.773915065679800,-122.42002629150400
1163785,"SOHOMEI, LLC",Truck,EDDY ST: STEINER ST to PIERCE ST (1600 - 1699),1652 EDDY ST,REQUESTED,COLD TRUCK. Deli: bbq chicken skewer: Chinese spring roll: Chinese fried rice/noodle: fried chicken leg/wing: bbq chicken sandwich: chicken cheese burger: burrito: lumpia. Snack: sunflower seeds: muffins: chips: snickers: kit-kat: 10 types of chocolate. Drinks: Coke: 7-Up: Dr. Pepper: Pepsi: Redbull: Vitamin Water: Rockstar: Coconut Juice: Water. Hot drinks: coffee: tea.,37.78159674576020,-122.43485778844000
1181507,John's Catering #5,Truck,14TH ST: SHOTWELL ST to SOUTH VAN NESS AVE (139 - 199),164 14TH ST,EXPIRED,Cold Truck: Soda:Chips:Candy: Cold/Hot Sandwiches: Donuts.  (Pitco Wholesale),37.76876525095860,-122.41690220595300
1037696,Munch A Bunch,Truck,MISSION ST: 14TH ST to 15TH ST (1800 - 1899),1850 MISSION ST,EXPIRED,Cold Truck: packaged sandwiches: pitas: breakfast: cold and hot drinks: snacks,37.767347670704100,-122.42047663908100
1090081,El Tonayanse #4 / #36,Truck,HARRISON ST: 13TH ST to 14TH ST (1700 - 1799),1717 HARRISON ST,REQUESTED,Tacos: Burritos: Tortas: Quesadillas,0,0
963982,Singh Brothers Ice Cream,Truck,KEY AVE: JENNINGS ST to 03RD ST (1000 - 1068),1060 KEY AVE,REQUESTED,Ice Cream: Pre-Packaged Chips: Candies: Bottled Water & Canned SODA,37.71920021771330,-122.39597673109600
1163790,"SOHOMEI, LLC",Truck,TREAT AVE: DIVISION ST \ FLORIDA ST to ALAMEDA ST (1 - 99),Assessors Block 3902/Lot002,REQUESTED,COLD TRUCK. Deli: bbq chicken skewer: Chinese spring roll: Chinese fried rice/noodle: fried chicken leg/wing: bbq chicken sandwich: chicken cheese burger: burrito: lumpia. Snack: sunflower seeds: muffins: chips: snickers: kit-kat: 10 types of chocolate. Drinks: Coke: 7-Up: Dr. Pepper: Pepsi: Redbull: Vitamin Water: Rockstar: Coconut Juice: Water. Hot drinks: coffee: tea.,37.76830699280000,-122.41200033609200
1495094,"Off the Grid Services, LLC",Truck,BROADWAY: DAVIS ST to FRONT ST (50 - 99),90 BROADWAY,EXPIRED,everything except for hot dogs,37.799260113502300,-122.39961794865500
1535609,Wu Wei LLC dba MoBowl,Truck,FRONT ST: VALLEJO ST to GREEN ST (900 - 999),900 FRONT ST,EXPIRED,Various types of meat: veggie: and seafood bowls.,37.80022091559220,-122.39956901857700
1512232,"Chairman SF, LLC",Truck,02ND ST: BRANNAN ST to TOWNSEND ST (600 - 699),625 02ND ST,EXPIRED,Baos: bowls & drinks,37.78168897534510,-122.39106181728700
1513352,Brazuca Grill,Truck,TENNESSEE ST: MARIPOSA ST to 18TH ST (600 - 699),640 TENNESSEE ST,EXPIRED,Cold Truck: Sandwiches: Noodles:  Pre-packaged Snacks: Candy: Desserts Various Beverages,37.76354048392960,-122.39009664366300
1513364,Brazuca Grill,Truck,03RD ST: EGBERT AVE to FITZGERALD AVE (6000 - 6170) -- WEST --,6000 03RD ST,EXPIRED,Cold Truck: Sandwiches: Noodles:  Pre-packaged Snacks: Candy: Desserts Various Beverages,37.723979903892900,-122.39590345491300
1495114,"Off the Grid Services, LLC",Truck,BRANNAN ST: 04TH ST to 05TH ST (500 - 599),525 BRANNAN ST,EXPIRED,Everything,37.77751326467550,-122.3970441344820
1513029,"San Francisco Street Foods, Inc.",Push Cart,NEW MONTGOMERY ST: MARKET ST \ MONTGOMERY ST intersection,2 MONTGOMERY ST,EXPIRED,Hot dogs: condiments: soft pretzels: soft drinks: coffee: cold beverages: pastries: bakery goods: cookies: ice cream: candy: soups: churros: chestnuts: nuts: fresh fruit: fruit juices: desserts: potato chips and popcorn.,37.78939197610270,-122.4018247471210
1515854,Philz Coffee Truck,Truck,MONTGOMERY ST: COLUMBUS AVE \ WASHINGTON ST to JACKSON ST (700 - 799),735 MONTGOMERY ST,EXPIRED,Hot coffee: iced coffee: hot chocolate: tea: pastries,37.79621549659410,-122.40375455824500
1543850,Truly Food & More,Truck,01ST ST: HOWARD ST to TEHAMA ST (200 - 231),505 HOWARD ST,EXPIRED,Latin Food: Tacos: Pupusas: Vegetables: Salad: Waters: Sodas,37.78798864899530,-122.39610066847200
1524389,Flavors of Africa,Truck,MISSION ST: SHAW ALY to ANTHONY ST (543 - 586),560 MISSION ST,EXPIRED,Meat and vegi rice bowls: meat and vegi salad bowls: meat and vegi wraps: drinks and juices.,37.78886471534300,-122.39935935136300
1513378,Brazuca Grill,Truck,MARIPOSA ST: PENNSYLVANIA AVE to MISSISSIPPI ST (1000 - 1099),1040 MARIPOSA ST,EXPIRED,Cold Truck: Sandwiches: Noodles:  Pre-packaged Snacks: Candy: Desserts Various Beverages,37.76420237830190,-122.39428524234000
1535610,Wu Wei LLC dba MoBowl,Truck,HOWARD ST: 01ST ST to MALDEN ALY (500 - 589),500 HOWARD ST,EXPIRED,Various types of meat: veggie: and seafood bowls.,0,0
1515851,Philz Coffee Truck,Truck,SUTTER ST: POWELL ST to MASON ST (500 - 599),556 SUTTER ST,EXPIRED,Hot coffee: iced coffee: hot chocolate: tea: pastries,37.789385451039100,-122.4095912604670
1516944,Eva's Catering,Truck,ORTEGA ST: 18TH AVE to 19TH AVE (1100 - 1199),1100 ORTEGA ST,EXPIRED,Cold Truck: Burrito: Corn Dog: Salads: Sandwiches: Quesadilla: Tacos: Fried Rice: Cow Mein: Chinese Rice: Noodle Plates: Soup: Bacon: Eggs: Ham: Avacado: Sausages: Beverages,37.752660520412300,-122.47547353178100
1534179,Street Meet,Truck,LARKIN ST: GROVE ST to FULTON ST (100 - 199),100 LARKIN ST,EXPIRED,Burritos: Tacos: Quesadillas: Tortas: Carne Asada Fries and various drinks,37.779159119969,-122.4158078824270
1513369,Brazuca Grill,Truck,DONNER AVE: HAWES ST to INGALLS ST (1300 - 1399),1347 DONNER AVE,EXPIRED,Cold Truck: Sandwiches: Noodles:  Pre-packaged Snacks: Candy: Desserts Various Beverages,37.72145083973350,-122.38935344507600
1513347,Brazuca Grill,Truck,PENNSYLVANIA AVE: I-280 S OFF RAMP to 25TH ST (1050 - 1099),1082 PENNSYLVANIA AVE,EXPIRED,Cold Truck: Sandwiches: Noodles:  Pre-packaged Snacks: Candy: Desserts Various Beverages,37.75336082945510,-122.39304592079800
1513350,Brazuca Grill,Truck,SHOTWELL ST: 15TH ST to 16TH ST (100 - 199),131 SHOTWELL ST,EXPIRED,Cold Truck: Sandwiches: Noodles:  Pre-packaged Snacks: Candy: Desserts Various Beverages,37.74793093611290,-122.41519315390900
1512230,"Chairman SF, LLC",Truck,ELLIS ST: 04TH ST \ MARKET ST \ STOCKTON ST to POWELL ST (1 - 99),34 ELLIS ST,EXPIRED,Baos: bowls & drinks,37.78756516537880,-122.40959283348000
1516950,Eva's Catering,Truck,EVANS AVE: NAPOLEON ST \ TOLAND ST to MARIN ST (2000 - 2099),2045 EVANS AVE,EXPIRED,Cold Truck: Burrito: Corn Dog: Salads: Sandwiches: Quesadilla: Tacos: Fried Rice: Cow Mein: Chinese Rice: Noodle Plates: Soup: Bacon: Eggs: Ham: Avacado: Sausages: Beverages,37.747772091607500,-122.39703171897800
1495086,"Off the Grid Services, LLC",Truck,BROADWAY: DAVIS ST to FRONT ST (50 - 99),90 BROADWAY,EXPIRED,everything except for hot dogs,37.799260113502300,-122.39961794865500
1488685,El Alambre,Truck,SHOTWELL ST: 14TH ST to 15TH ST (1 - 99),1800 FOLSOM ST,EXPIRED,Tacos: Burritos: Quesadillas: Tortas,37.76785244271810,-122.41610489253200
1522420,"Halal Cart, LLC",Push Cart,MONTGOMERY ST: CALIFORNIA ST to SACRAMENTO ST (400 - 499),400 MONTGOMERY ST,EXPIRED,kebabs: halal gyro: grilled halal meat: refreshments,37.79314862698350,-122.4025671755780
1535608,Wu Wei LLC dba MoBowl,Truck,DRUMM ST: CLAY ST to WASHINGTON ST (200 - 299),253 DRUMM ST,EXPIRED,Various types of meat: veggie: and seafood bowls.,37.79612338025220,-122.39727320433800
1513033,"San Francisco Street Foods, Inc.",Push Cart,POST ST: KEARNY ST to ROBERT KIRK LN (100 - 140),100 POST ST,EXPIRED,Hot dogs: condiments: soft pretzels: soft drinks: coffee: cold beverages: pastries: bakery goods: cookies: ice cream: candy: soups: churros: chestnuts: nuts: fresh fruit: fruit juices: desserts: potato chips and popcorn.,37.78923328289610,-122.40557905421000
1514028,F & C Catering,Truck,03RD ST: 24TH ST to 25TH ST (2800 - 2898) -- WEST --,2890 03RD ST,EXPIRED,Cold Truck: Hot/Cold Sandwiches: Water: Soda: Juice: Snacks: Milk: Candies: Canned Food: Soups: Cup of Noodles: Fruit: Salad,37.75310874987130,-122.38817020206600
1513372,Brazuca Grill,Truck,FOLSOM ST: ERIE ST to 14TH ST (1718 - 1799),1750 FOLSOM ST,EXPIRED,Cold Truck: Sandwiches: Noodles:  Pre-packaged Snacks: Candy: Desserts Various Beverages,37.76890352056650,-122.41598117460100
1513345,Brazuca Grill,Truck,PENNSYLVANIA AVE: MARIPOSA ST to I-280 S OFF RAMP (200 - 256),208 PENNSYLVANIA AVE,EXPIRED,Cold Truck: Sandwiches: Noodles:  Pre-packaged Snacks: Candy: Desserts Various Beverages,37.763462959906600,-122.39401294737700
1516943,Eva's Catering,Truck,INGALLS ST: CARROLL AVE to DONNER AVE (2600 - 2699),2600 INGALLS ST,EXPIRED,Corndogs: fried burrito: rice placet: soda: water: sandwiches: soup: noodle plates,37.722629217598300,-122.39006184632700
1513083,Curry Up Now,Truck,WASHINGTON ST: DRUMM ST intersection,370 DRUMM ST,EXPIRED,Chicken Tiki Masala Burritos: Paneer Tiki Masala Burritos: Samosas: Mango Lassi,37.79691371248350,-122.39665067526400
1513355,Brazuca Grill,Truck,TEXAS ST: SIERRA ST to 22ND ST (632 - 699),640 TEXAS ST,EXPIRED,Cold Truck: Sandwiches: Noodles:  Pre-packaged Snacks: Candy: Desserts Various Beverages,37.757917056690100,-122.39547585249000
1515852,Philz Coffee Truck,Truck,CALIFORNIA ST: SANSOME ST to LEIDESDORFF ST (400 - 448),401 CALIFORNIA ST,EXPIRED,Hot coffee: iced coffee: hot chocolate: tea: pastries,37.79279574157870,-122.40135328093100
1515717,Treats by the Bay LLC,Push Cart,MARKET ST: STEUART ST to SPEAR ST (1 - 99) -- SOUTH --,1 MARKET ST,EXPIRED,Ice Cream: Donuts,37.793871507150600,-122.39486523862100
1513344,Brazuca Grill,Truck,OTIS ST: GOUGH ST \ MCCOPPIN ST to 13TH ST \ DUBOCE AVE \ HWY 101 NORTHBOUND RAMP \ MISSION ST (100 - 199),150 OTIS ST,EXPIRED,Cold Truck: Sandwiches: Noodles:  Pre-packaged Snacks: Candy: Desserts Various Beverages,37.770683395042600,-122.42087956139900
1543852,Truly Food & More,Truck,MISSION ST: 02ND ST to NEW MONTGOMERY ST (600 - 634),602 MISSION ST,EXPIRED,Latin Food: Tacos: Pupusas: Vegetables: Salad: Waters: Sodas,37.78797328321600,-122.40018504988900
1516945,Eva's Catering,Truck,ORTEGA ST: 18TH AVE to 19TH AVE (1100 - 1199),1900 19TH AVE,EXPIRED,Cold Truck: Burrito: Corn Dog: Salads: Sandwiches: Quesadilla: Tacos: Fried Rice: Cow Mein: Chinese Rice: Noodle Plates: Soup: Bacon: Eggs: Ham: Avacado: Sausages: Beverages,37.75212416311870,-122.47587232222200
1513357,Brazuca Grill,Truck,26TH ST: MINNESOTA ST to INDIANA ST (1000 - 1099),1090 26TH ST,EXPIRED,Cold Truck: Sandwiches: Noodles:  Pre-packaged Snacks: Candy: Desserts Various Beverages,37.751608413578900,-122.39030948950100
1516947,Eva's Catering,Truck,20TH AVE: LAWTON ST to MORAGA ST (1600 - 1699),1650 20TH AVE,EXPIRED,Cold Truck: Burrito: Corn Dog: Salads: Sandwiches: Quesadilla: Tacos: Fried Rice: Cow Mein: Chinese Rice: Noodle Plates: Soup: Bacon: Eggs: Ham: Avacado: Sausages: Beverages,37.75798419052860,-122.43346578040700
1524385,Leo's Hot Dogs,Push Cart,MISSION ST: 19TH ST to 20TH ST (2300 - 2399),2301 MISSION ST,EXPIRED,Hot dogs and related toppings: non alcoholic beverages,37.76008693198700,-122.41880648110100
1513346,Brazuca Grill,Truck,PENNSYLVANIA AVE: 22ND ST to 23RD ST (700 - 899),700 PENNSYLVANIA AVE,EXPIRED,Cold Truck: Sandwiches: Noodles:  Pre-packaged Snacks: Candy: Desserts Various Beverages,37.75692365373410,-122.39354961053600
1524387,Flavors of Africa,Truck,HOWARD ST: FREMONT ST to 01ST ST (400 - 499),405 HOWARD ST,EXPIRED,Meat and vegi rice bowls: meat and vegi salad bowls: meat and vegi wraps: drinks and juices.,37.788530010632500,-122.39514429387400
1515709,Zuri Food Facilities,Truck,SPEAR ST: MISSION ST to HOWARD ST (100 - 199),100 SPEAR ST,EXPIRED,Peruvian Food Served Hot,37.792150548481700,-122.39399997405900
1512229,"Chairman SF, LLC",Truck,CALIFORNIA ST: SANSOME ST to LEIDESDORFF ST (400 - 448),400 CALIFORNIA ST,EXPIRED,Baos: bowls & drinks,0,0
1514024,F & C Catering,Truck,,Assessors Block /Lot,EXPIRED,Cold Truck: Hot/Cold Sandwiches: Water: Soda: Juice: Snacks: Milk: Candies: Canned Food: Soups: Cup of Noodles: Fruit: Salad,0,0
1513351,Brazuca Grill,Truck,23RD ST: START: 100-699 BLOCK to ILLINOIS ST (100 - 699),601 23RD ST,EXPIRED,Cold Truck: Sandwiches: Noodles:  Pre-packaged Snacks: Candy: Desserts Various Beverages,37.755030726766700,-122.38453073422300
1515708,Zuri Food Facilities,Truck,CALIFORNIA ST: LEIDESDORFF ST to MONTGOMERY ST (449 - 499),475 CALIFORNIA ST,EXPIRED,Peruvian Food Served Hot,37.792346385148,-122.40238532279400
1524388,Flavors of Africa,Truck,MISSION ST: SHAW ALY to ANTHONY ST (543 - 586),555 MISSION ST,EXPIRED,Meat and vegi rice bowls: meat and vegi salad bowls: meat and vegi wraps: drinks and juices.,37.78844615690130,-122.3986412420390
1522421,"Halal Cart, LLC",Push Cart,MARKET ST: FREMONT ST \ FRONT ST to 01ST ST \ BUSH ST (401 - 499) -- SOUTH --,455 MARKET ST,EXPIRED,Gyros: Kebabs: soft drinks: and water,37.79094704192340,-122.39863358940400
1514030,F & C Catering,Truck,MINNESOTA ST: 20TH ST to 22ND ST (800 - 999),900 MINNESOTA ST,EXPIRED,Cold Truck: Hot/Cold Sandwiches: Water: Soda: Juice: Snacks: Milk: Candies: Canned Food: Soups: Cup of Noodles: Fruit: Salad,0,0
1514027,F & C Catering,Truck,25TH ST: MICHIGAN ST to ILLINOIS ST (700 - 799),700 25TH ST,EXPIRED,Cold Truck: Hot/Cold Sandwiches: Water: Soda: Juice: Snacks: Milk: Candies: Canned Food: Soups: Cup of Noodles: Fruit: Salad,37.75338080997490,-122.38636768585700
1513361,Brazuca Grill,Truck,03RD ST: CESAR CHAVEZ ST to MARIN ST (3100 - 3199),3150 03RD ST,EXPIRED,Cold Truck: Sandwiches: Noodles:  Pre-packaged Snacks: Candy: Desserts Various Beverages,37.74944293760040,-122.38798553250400
1513379,Brazuca Grill,Truck,MARKET ST: 10TH ST \ FELL ST \ POLK ST to 11TH ST (1401 - 1455) -- SOUTH --,1411 MARKET ST,EXPIRED,Cold Truck: Sandwiches: Noodles:  Pre-packaged Snacks: Candy: Desserts Various Beverages,37.7758255197583,-122.41724962664300
1529951,Bonito Poke,Truck,ILLINOIS ST: 16TH ST to MARIPOSA ST \ TERRY A FRANCOIS BLVD (400 - 599),409 ILLINOIS ST,EXPIRED,Bonito Poke Bowls & Various Drinks,37.76624504710290,-122.38735628651100
1513032,"San Francisco Street Foods, Inc.",Push Cart,DRUMM ST: CALIFORNIA ST intersection,5 THE EMBARCADERO,EXPIRED,Hot dogs: condiments: soft pretzels: soft drinks: coffee: cold beverages: pastries: bakery goods: cookies: ice cream: candy: soups: churros: chestnuts: nuts: fresh fruit: fruit juices: desserts: potato chips and popcorn.,37.794331003246800,-122.39581105302300
1522419,"Halal Cart, LLC",Push Cart,MARKET ST: STEUART ST to SPEAR ST (1 - 99) -- SOUTH --,1 MARKET ST,EXPIRED,kebabs: halal gyro: grilled halal meat: refreshments,37.793871507150600,-122.39486523862100
1515859,Curry Up Now,Truck,SANSOME ST: GOLD ST to PACIFIC AVE (705 - 799),727 SANSOME ST,EXPIRED,Indian Street Food: Tikka Masala Burritos; Samosas; Sexy Fries (Indian-inspired poutine); Naughty Naans; Deconstructed Samosas; Kathi Rolls; Lassis and Lemonades,37.79694900602120,-122.40218343189400
1513370,Brazuca Grill,Truck,EDDY ST: BUCHANAN ST to WEBSTER ST (1300 - 1399),1346 EDDY ST,EXPIRED,Cold Truck: Sandwiches: Noodles:  Pre-packaged Snacks: Candy: Desserts Various Beverages,37.78186711757410,-122.42988524760300
1514025,F & C Catering,Truck,PENNSYLVANIA AVE: 22ND ST to 23RD ST (700 - 899),898 PENNSYLVANIA AVE,EXPIRED,Cold Truck: Hot/Cold Sandwiches: Water: Soda: Juice: Snacks: Milk: Candies: Canned Food: Soups: Cup of Noodles: Fruit: Salad,37.755534471603900,-122.39392527753900
1513371,Brazuca Grill,Truck,ELM ST: FRANKLIN ST to GOUGH ST (300 - 399),368 ELM ST,EXPIRED,Cold Truck: Sandwiches: Noodles:  Pre-packaged Snacks: Candy: Desserts Various Beverages,37.7813800275549,-122.42314384550600
1522410,Faith Sandwich,Push Cart,MAIN ST: MARKET ST to MISSION ST (1 - 99),58 MAIN ST,EXPIRED,BBQ PORK SANDWICHGRILL CHICKEN SANDWICHSHIRMP SPRING ROLLSBBQ PORK OVER RICEGRILL CHICKEN OVER RICEBBQ PORK VERMICELLIGRILL CHICKEN VERMICELLIBBQ PORK GARLIC NOODLEGRILL CHICKEN GARLIC NOODLENEW ITEMS:MASALA DOSAPANNER DOSACHICKEN CURRY & RICECHICKEN STEWRICE OR DOSAADD CHEESEADD GHEE,37.79210933860900,-122.39580386550200
1513380,Brazuca Grill,Truck,MINNESOTA ST: MINNESOTA ST to 26TH ST (1400 - 1499),1400 MINNESOTA ST,EXPIRED,Cold Truck: Sandwiches: Noodles:  Pre-packaged Snacks: Candy: Desserts Various Beverages,37.75207458620840,-122.39014490082200
1513084,Curry Up Now,Truck,,225 BUSH ST,EXPIRED,Chicken Tiki Masala Burritos: Paneer Tiki Masala Burritos: Samosas: Mango Lassi,37.79083841945170,-122.40116037029900
1529948,Bonito Poke,Truck,01ST ST: HOWARD ST to TEHAMA ST (200 - 231),505 HOWARD ST,EXPIRED,Bonito Poke Bowls & Various Drinks,37.78798864899530,-122.39610066847200
1516949,Eva's Catering,Truck,BRANNAN ST: 05TH ST to 06TH ST \ I-280 NORTHBOUND \ I-280 SOUTHBOUND (600 - 699),630 BRANNAN ST,EXPIRED,Cold Truck: Burrito: Corn Dog: Salads: Sandwiches: Quesadilla: Tacos: Fried Rice: Cow Mein: Chinese Rice: Noodle Plates: Soup: Bacon: Eggs: Ham: Avacado: Sausages: Beverages,37.77609875315740,-122.40028723986800
1513367,Brazuca Grill,Truck,CARROLL AVE: INGALLS ST to JENNINGS ST (1400 - 1499),1420 CARROLL AVE,EXPIRED,Cold Truck: Sandwiches: Noodles:  Pre-packaged Snacks: Candy: Desserts Various Beverages,37.7235768564887,-122.39005910139900
1549614,Roadside Rotisserie Corporation / Country Grill,Truck,BUSH ST: 01ST ST \ MARKET ST to BATTERY ST (1 - 99),1 BUSH ST,EXPIRED,Rotisserie Chicken: Ribs: Kickass Salad: Potatos w/fat dripping: chicken wrap.,37.79092150726920,-122.4001004237390
1534180,Street Meet,Truck,MINNESOTA ST: 04TH ST \ MARIPOSA ST to 18TH ST (500 - 599),777 MARIPOSA ST,EXPIRED,Tacos: burritos: quesadillas: tortas: asada fries: nachos,37.76381127729060,-122.3912653505990
1515119,Tacos El Flaco,Truck,03RD ST: 25TH ST to 26TH ST (2901 - 2999) -- EAST --,2901 03RD ST,EXPIRED,Tacos: Burritos: Tortas: Quesadillas: Chips & Salsa & Various Beverages,37.75240499247830,-122.38700019629800
1535607,Wu Wei LLC dba MoBowl,Truck,WASHINGTON ST: THE EMBARCADERO to DRUMM ST (1 - 99),370 DRUMM ST,EXPIRED,Various types of meat: veggie: and seafood bowls.,37.79691371248350,-122.39665067526400
1513031,"San Francisco Street Foods, Inc.",Push Cart,HOWARD ST: 03RD ST to 04TH ST (700 - 799),701 HOWARD ST,EXPIRED,Hot dogs: condiments: soft pretzels: soft drinks: coffee: cold beverages: pastries: bakery goods: cookies: ice cream: candy: soups: churros: chestnuts: nuts: fresh fruit: fruit juices: desserts: potato chips and popcorn.,37.783513351245400,-122.40081339110500
1509791,Plaza Garibaldy,Truck,MONTGOMERY ST: POST ST to SUTTER ST (1 - 99),1 MONTGOMERY ST,EXPIRED,Tacos: burritos: quesadillas,37.78924953407510,-122.40241859729400
1509790,Plaza Garibaldy,Truck,HOWARD ST: 01ST ST to MALDEN ALY (500 - 589),540 HOWARD ST,EXPIRED,Tacos: burritos: quesadillas,37.78795495968580,-122.39723654373100
1495092,"Off the Grid Services, LLC",Truck,04TH ST: HOWARD ST to CLEMENTINA ST (200 - 267),250 04TH ST,EXPIRED,everything except for hot dogs,37.78236012101750,-122.40209599456300
1513365,Brazuca Grill,Truck,ARMSTRONG AVE: HAWES ST to INGALLS ST (1300 - 1399),1315 ARMSTRONG AVE,EXPIRED,Cold Truck: Sandwiches: Noodles:  Pre-packaged Snacks: Candy: Desserts Various Beverages,37.723078757516,-122.38752570401700
1513349,Brazuca Grill,Truck,SHIPLEY ST: 04TH ST to 05TH ST (100 - 199),133 SHIPLEY ST,EXPIRED,Cold Truck: Sandwiches: Noodles:  Pre-packaged Snacks: Candy: Desserts Various Beverages,37.78072409776970,-122.40123539265800
1576240,Natan's Catering,Truck,MENDELL ST: CARGO WAY to NEWHALL ST (1 - 199),151 MENDELL ST,REQUESTED,Burgers: melts: hot dogs: burritos:sandwiches: fries: onion rings: drinks,37.742820234675900,-122.38284735551800
1576374,San Francisco's Hometown Creamery,Truck,POST ST: MONTGOMERY ST to LICK PL (1 - 40),1 MONTGOMERY ST,REQUESTED,Ice Cream: Waffle Cones,37.78924953407510,-122.40241859729400
1576232,Natan's Catering,Truck,HARRISON ST: 26TH ST to KAMILLE CT (3000 - 3048),3040 HARRISON ST,REQUESTED,Burgers: melts: hot dogs: burritos:sandwiches: fries: onion rings: drinks,37.748848056566300,-122.41261899465500
1576205,Natan's Catering,Truck,,Assessors Block 8722/Lot003,REQUESTED,Burgers: melts: hot dogs: burritos:sandwiches: fries: onion rings: drinks,37.76743301733120,-122.39214911417200
1576215,Natan's Catering,Truck,POTRERO AVE: 10TH ST \ BRANNAN ST \ DIVISION ST to ALAMEDA ST (1 - 99),66 POTRERO AVE,REQUESTED,Burgers: melts: hot dogs: burritos:sandwiches: fries: onion rings: drinks,37.76854328902420,-122.40849289243900
1576237,Natan's Catering,Truck,KANSAS ST: 16TH ST to 17TH ST (300 - 399),350 KANSAS ST,REQUESTED,Burgers: melts: hot dogs: burritos:sandwiches: fries: onion rings: drinks,37.76537066931710,-122.40390784821200
1576234,Natan's Catering,Truck,,Assessors Block 8722/Lot001,REQUESTED,Burgers: melts: hot dogs: burritos:sandwiches: fries: onion rings: drinks,37.76799554568560,-122.38754942654700
1576224,Natan's Catering,Truck,ALEMANY BLVD: FOLSOM ST to ELLSWORTH ST \ I-280 S OFF RAMP \ I-280 S ON RAMP (400 - 498) -- NORTH --,400 ALEMANY BLVD,REQUESTED,Burgers: melts: hot dogs: burritos:sandwiches: fries: onion rings: drinks,37.73314239514260,-122.41456863241900
1576211,Natan's Catering,Truck,,Assessors Block 5369/Lot003,REQUESTED,Burgers: melts: hot dogs: burritos:sandwiches: fries: onion rings: drinks,37.73811777159190,-122.40441846721200
1576220,Natan's Catering,Truck,26TH ST: RHODE ISLAND ST to KANSAS ST (2200 - 2299),Assessors Block 4281a/Lot012A,REQUESTED,Burgers: melts: hot dogs: burritos:sandwiches: fries: onion rings: drinks,37.75076076946010,-122.40154029135700
1576235,Natan's Catering,Truck,ILLINOIS ST: MARIPOSA ST \ TERRY A FRANCOIS BLVD to 18TH ST (600 - 699),Assessors Block 3941/Lot001,REQUESTED,Burgers: melts: hot dogs: burritos:sandwiches: fries: onion rings: drinks,37.764741322675000,-122.38712481217900
1576207,Natan's Catering,Truck,,Assessors Block 7295/Lot022,REQUESTED,Burgers: melts: hot dogs: burritos:sandwiches: fries: onion rings: drinks,37.730003683189200,-122.4781863254150
1576225,Natan's Catering,Truck,CESAR CHAVEZ ST: 03RD ST to TENNESSEE ST (1000 - 1099),Assessors Block 4315/Lot03008,REQUESTED,Burgers: melts: hot dogs: burritos:sandwiches: fries: onion rings: drinks,0,0
1576231,Natan's Catering,Truck,HARRISON ST: MERLIN ST to OAK GROVE ST (924 - 950),950 HARRISON ST,REQUESTED,Burgers: melts: hot dogs: burritos:sandwiches: fries: onion rings: drinks,37.778388615786600,-122.40319178322900
1345312,Shah's Halal Food,Push Cart,MARKET ST: BATTERY ST to SUTTER ST (540 - 558) -- NORTH --,532 MARKET ST,EXPIRED,Chicken Gyro: Lamb Gyro: Chiken Gyro Plate: Lamb Gyro Plate: Combination Gyro Plate.,37.79054831818320,-122.40033367367900
955616,Tacos Santo Toribio,Truck,TOLAND ST: NEWCOMB AVE to OAKDALE AVE (900 - 999),928 TOLAND ST,REQUESTED,tacos,37.74162368623530,-122.4015472063970
1367290,Star Taco,,HOWARD ST: MALDEN ALY to 02ND ST (574 - 599),580 HOWARD ST,REQUESTED,Mexican Food,37.7873042488646,-122.39803725191200
1336732,Quan Catering,Truck,03RD ST: 25TH ST to 26TH ST (2900 - 2998) -- WEST --,2920 03RD ST,EXPIRED,Cold Truck: Soft drinks: cup cakes: potato chips: cookies: gum: sandwiches (hot & cold): peanuts: muffins: coff (hot & cold): water: juice: yoplait: milk: orange juice: sunflower seeds: can foods: burritos: buscuits: chimichangas: rice krispies,37.7519716288769,-122.38796548380100
1334819,tacos y pupusas los trinos,,MISSION ST: AVALON AVE to COTTER ST (4368 - 4439),4384 MISSION ST,REQUESTED,,37.727566537591700,-122.4329697019890
1336028,Paradise Catering,Truck,FOLSOM ST: DORE ST to 10TH ST (1345 - 1399),1398 FOLSOM ST,EXPIRED,Cold Truck: Sandwiches: snacks: prepackaged items: beverages:,37.77309677131090,-122.41274507720500
934518,Scotch Bonnet,Truck,SANSOME ST: BUSH ST to PINE ST (100 - 199),115 SANSOME ST,EXPIRED,Jerk chicken: curry chicken: curry goat: curry dhal: Burritos: Fish: Ox tails: rice: beans: veggies.,37.79142654133210,-122.40103785668800
934595,May Catering,Truck,FOLSOM ST: 16TH ST to ENTERPRISE ST (2000 - 2035),2000 FOLSOM ST,EXPIRED,Cold Truck: Sandwiches: fruit: snacks: candy: hot and cold drinks,37.76502716388220,-122.41550777249000
1341056,Kettle Corn Star,Push Cart,MARKET ST: YERBA BUENA LN to 04TH ST \ ELLIS ST \ STOCKTON ST (767 - 799) -- SOUTH --,773 MARKET ST,EXPIRED,Kettle Corn: Funnel Cakes: Lemonade: Beverages: Flan: Hot Dogs: Falafel: Hot and Cold Sandwiches: French Fries: Baklava and Pastries,37.78539563944050,-122.40439104283000
1336744,Quan Catering,Truck,LANE ST: VAN DYKE AVE to 03RD ST (2100 - 2199),2111 LANE ST,EXPIRED,Cold Truck: Soft drinks: cup cakes: potato chips: cookies: gum: sandwiches (hot & cold): peanuts: muffins: coff (hot & cold): water: juice: yoplait: milk: orange juice: sunflower seeds: can foods: burritos: buscuits: chimichangas: rice krispies,37.72878795772640,-122.39229482070200
934601,May Catering,Truck,HARRISON ST: 19TH ST to MISTRAL ST (2301 - 2360),2301 HARRISON ST,EXPIRED,Cold Truck: Sandwiches: fruit: snacks: candy: hot and cold drinks,37.760099665489300,-122.41237599732200
1337439,Liang Bai Ping,Truck,WALLACE AVE: INGALLS ST to JENNINGS ST (1400 - 1499),1450 WALLACE AVE,EXPIRED,Cold Truck: Pre-packaged sandwiches: snacks: fruit: various beverages,37.72614569247290,-122.38822774090300
934585,May Catering,Truck,YORK ST: 18TH ST to 19TH ST (600 - 699),620 YORK ST,EXPIRED,Cold Truck: Sandwiches: fruit: snacks: candy: hot and cold drinks,37.761571848719700,-122.40944471895800
934587,May Catering,Truck,16TH ST: OWENS ST to 07TH ST \ MISSISSIPPI ST (700 - 899),Assessors Block 8727/Lot005,EXPIRED,Cold Truck: Sandwiches: fruit: snacks: candy: hot and cold drinks,37.76558646814730,-122.39319710116600
735318,Ziaurehman Amini,Push Cart,MARKET ST: DRUMM ST intersection,5 THE EMBARCADERO,REQUESTED,,37.794331003246800,-122.39581105302300
812017,SF Street Food,Truck,SUTTER ST: CLAUDE LN to GRANT AVE (216 - 299),290 SUTTER ST,REQUESTED,Chicken Tikka Masala: Vegetarian Rice Plate: Burritos: Tacos: Mango Lassi,37.78991386713440,-122.40523289252400
1336041,Paradise Catering,Truck,MISSION ST: 07TH ST to ANGELOS ALY \ JULIA ST (1100 - 1165),1119 MISSION ST,EXPIRED,Cold Truck: Sandwiches: snacks: prepackaged items: beverages:,37.77865151450760,-122.41122956752500
1336678,Mike's Catering,Truck,CHINA BASIN ST: TERRY A FRANCOIS BLVD to 03RD ST (300 - 499),Assessors Block 8720/Lot009,EXPIRED,Cold Truck: packaged sandwiches: snacks: candy: hot and cold drinks,37.77215224324450,-122.38774298411600
1416733,"Off the Grid Services, LLC",Truck,SANSOME ST: SUTTER ST to BUSH ST (1 - 99),1 BUSH ST,REQUESTED,,37.79092150726920,-122.4001004237390
1344202,"Bay Area Dots, LLC",Push Cart,BEACH ST: HYDE ST to LARKIN ST (700 - 799),900 BEACH ST,REQUESTED,Hot dogs: condiments: soft pretzels: soft drinks: coffee:cold beverages: pastries: bakery goods: cookies: icecream: candy: soups: churros: chestnuts: nuts: fresh fruit: fruit juices: desserts: potato chips and popcorn.,37.80774328844550,-122.42414994487000
934600,May Catering,Truck,03RD ST: 24TH ST to 25TH ST (2800 - 2898) -- WEST --,2800 03RD ST,EXPIRED,Cold Truck: Sandwiches: fruit: snacks: candy: hot and cold drinks,37.753717416902100,-122.38835902104400
1336017,Paradise Catering,Truck,03RD ST: MISSION BAY BLVD to WARRIORS WAY (1401 - 1599) -- EAST --,1455 03RD ST,EXPIRED,Cold Truck: Sandwiches: snacks: prepackaged items: beverages:,37.77110993943720,-122.3891900403280
1336032,Paradise Catering,Truck,GRACE ST: MISSION ST to HOWARD ST (1 - 99),65 GRACE ST,EXPIRED,Cold Truck: Sandwiches: snacks: prepackaged items: beverages:,37.77494453482050,-122.41443674475200
934582,May Catering,Truck,23RD ST: HARRISON ST to TREAT AVE (3000 - 3053),3000 23RD ST,EXPIRED,Cold Truck: Sandwiches: fruit: snacks: candy: hot and cold drinks,0,0
1337428,Liang Bai Ping,Truck,REVERE AVE: GRIFFITH ST to CRISP RD (1100 - 1188),1145 REVERE AVE,EXPIRED,Cold Truck: Pre-packaged sandwiches: snacks: fruit: various beverages,37.72659047951940,-122.3817522114060
1366269,Golden Gate Halal Food,Push Cart,MARKET ST: 07TH ST \ CHARLES J BRENHAM PL to 08TH ST \ GROVE ST \ HYDE ST (1101 - 1199) -- SOUTH --,1169 MARKET ST,REQUESTED,Pulao Plates & Sandwiches: Various Drinks,0,0
1336685,Mike's Catering,Truck,INDIANA ST: 26TH ST to CESAR CHAVEZ ST (1500 - 1599),1575 INDIANA ST,EXPIRED,Cold Truck: packaged sandwiches: snacks: candy: hot and cold drinks,37.75084960681250,-122.3900276155010
1337353,Tacos Rodriguez,Truck,SANSOME ST: SUTTER ST to BUSH ST (1 - 99),1 SANSOME ST,EXPIRED,Tacos: burritos: quesadillas: soda & water,37.790485146128,-122.40094044069000
1336775,Golden Catering,Truck,CRESCENT AVE: ANDERSON ST to ELLSWORTH ST (600 - 699),601 CRESCENT AVE,EXPIRED,Cold Truck: Pre-packaged Sandwiches: Various Beverages: Salads: Snacks,37.73500529912840,-122.41541740974500
934604,May Catering,Truck,NAPOLEON ST: SELBY ST to EVANS AVE \ TOLAND ST (1 - 98),Assessors Block 4347a/Lot004,EXPIRED,Cold Truck: Sandwiches: fruit: snacks: candy: hot and cold drinks,37.7478431533724,-122.39457521495700
1265606,"San Francisco Carts & Concessions, Inc. DBA Stanley's Steamers Hot Dogs",Push Cart,POST ST: STOCKTON ST to POWELL ST (300 - 399),384 POST ST,REQUESTED,American Food: Hot dogs: pretzels: ice cream: salads: beverages: sandwiches: soup: coffee: pastries:etc.,37.78862121908620,-122.40806890640700
1336674,Mike's Catering,Truck,STANFORD ST: BRANNAN ST to TOWNSEND ST (1 - 100),Assessors Block 3788/Lot002,EXPIRED,Cold Truck: packaged sandwiches: snacks: candy: hot and cold drinks,37.78107467807540,-122.39170566116700
1527317,"BOWL'D ACAI, LLC.",Truck,NORTH POINT ST: LAGUNA ST to BUCHANAN ST (1500 - 1599),15 MARINA BLVD,REQUESTED,Acai Bowls: Poke Bowls: Smoothies: Juices,37.80457786909010,-122.43301077434300
1334599,Tacos El Ojo De Agua,Truck,03RD ST: SOUTH PARK to VARNEY PL (548 - 586),551 03RD ST,EXPIRED,Tacos: Burritos: Tortas: Quesadillas: Salads: Soup: Fruits: Juices: Soda: Water,37.780647210048400,-122.39462918166200
453013,Tacos Santana,,JERROLD AVE: PHELPS ST to QUINT ST (1700 - 1799),1700 JERROLD AVE,EXPIRED,,37.7424951959228,-122.39161759509800
1337431,Liang Bai Ping,Truck,SHAFTER AVE: GRIFFITH ST to HAWES ST (1100 - 1199),1127 SHAFTER AVE,EXPIRED,Cold Truck: Pre-packaged sandwiches: snacks: fruit: various beverages,37.725945558046500,-122.38228115325300
1332938,Mini Mobile Food Catering,Truck,BERRY ST: 06TH ST to KING ST (400 - 431),420 BERRY ST,EXPIRED,Cold Truck: Corn Dogs: Noodle Soups: Candy: Pre-packaged Snacks: Sandwiches: Chips: Coffee: Tea: Various Beverages,37.77200865646880,-122.3990838454730
1336036,Paradise Catering,Truck,HOWARD ST: 08TH ST to 09TH ST (1200 - 1299),1252 HOWARD ST,EXPIRED,Cold Truck: Sandwiches: snacks: prepackaged items: beverages:,37.775725484934800,-122.41265612258900
1336739,Quan Catering,Truck,BRANNAN ST: HARRIET ST to LUCERNE ST (715 - 743),722 BRANNAN ST,EXPIRED,Cold Truck: Soft drinks: cup cakes: potato chips: cookies: gum: sandwiches (hot & cold): peanuts: muffins: coff (hot & cold): water: juice: yoplait: milk: orange juice: sunflower seeds: can foods: burritos: buscuits: chimichangas: rice krispies,37.77444911077540,-122.40208723606300
1336731,Quan Catering,Truck,,3305 03RD ST,EXPIRED,Cold Truck: Soft drinks: cup cakes: potato chips: cookies: gum: sandwiches (hot & cold): peanuts: muffins: coff (hot & cold): water: juice: yoplait: milk: orange juice: sunflower seeds: can foods: burritos: buscuits: chimichangas: rice krispies,37.74383117213270,-122.37779736896200
1336033,Paradise Catering,Truck,HARRIET ST: HOWARD ST to FOLSOM ST (1 - 99),15 HARRIET ST,EXPIRED,Cold Truck: Sandwiches: snacks: prepackaged items: beverages:,37.77917621076680,-122.40722175847200
934579,May Catering,Truck,29TH ST: DOLORES ST to CHURCH ST (200 - 299),210 29TH ST,EXPIRED,Cold Truck: Sandwiches: fruit: snacks: candy: hot and cold drinks,37.744039098601700,-122.4250941863310
1336029,Paradise Catering,Truck,FRANKLIN ST: HAYES ST to IVY ST (300 - 348),300 FRANKLIN ST,EXPIRED,Cold Truck: Sandwiches: snacks: prepackaged items: beverages:,37.77765783621040,-122.42065233083300
934606,May Catering,Truck,23RD ST: HARRISON ST to TREAT AVE (3000 - 3053),3050 23RD ST,EXPIRED,Cold Truck: Sandwiches: fruit: snacks: candy: hot and cold drinks,37.75447643410750,-122.4128553632840
934618,May Catering,Truck,MISSION ST: BEALE ST to FREMONT ST (300 - 399),350 MISSION ST,EXPIRED,Cold Truck: Sandwiches: fruit: snacks: candy: hot and cold drinks,37.79088546350190,-122.39668587581100
1526959,Kid Abelha - Brazilian Hamburgers,Truck,NAPOLEON ST: EVANS AVE \ TOLAND ST to JERROLD AVE (25 - 299),Assessors Block /Lot,REQUESTED,,0,0
755221,Fruteria Serrano,,MISSION ST: OCEAN AVE to PERSIA AVE (4650 - 4699),4650 MISSION ST,REQUESTED,Fruits including mangoes: pineapples: coconuts: watermelon: corn: cucumber: potatoes chips: water: Mexican drinks: sodas: juices: snow cones,37.723661279505300,-122.43594382524000
848185,Reecees Soulicious,Truck,03RD ST: NEWCOMB AVE to OAKDALE AVE (4701 - 4799) -- EAST --,4705 03RD ST,REQUESTED,Fried Chicken: Fried Fish: Greens: Mac & Cheese: Peach Cobbler: and String beans,37.735004228951400,-122.39017246970000
934615,May Catering,Truck,BRYANT ST: 11TH ST \ 13TH ST \ DIVISION ST to DIVISION ST (1300 - 1319),1300 BRYANT ST,EXPIRED,Cold Truck: Sandwiches: fruit: snacks: candy: hot and cold drinks,37.769087126767100,-122.41152766713200
848080,Taqueria Lolita,Truck,RANKIN ST: DAVIDSON AVE to EVANS AVE (200 - 299),1700 EVANS AVE,SUSPEND,Tacos: burritos: quesadillas: combination plates: tortas: tostadas,37.744889286143,-122.39097197693500
1010174,Julie's Hot Dogs,Truck,MISSION ST: 19TH ST to 20TH ST (2300 - 2399),2386 MISSION ST,REQUESTED,Hot dogs: bacon-wrapped hot dogs: chicken burgers: energy drinks: water and various other drinks.,37.75887999201480,-122.41937920298400
1265597,"San Francisco Carts & Concessions, Inc. DBA Stanley's Steamers Hot Dogs",Push Cart,POST ST: STOCKTON ST to POWELL ST (300 - 399),Assessors Block /Lot,REQUESTED,American Food: Hot dogs: pretzels: ice cream: salads: beverages: sandwiches: soup: coffee: pastries:etc.,0,0
627558,"Off the Grid Services, LLC",Truck,DAVIS ST: DAVIS CT \ JACKSON ST to BROADWAY (500 - 699),Assessors Block /Lot,REQUESTED,varies truck to truck,0,0
1336038,Paradise Catering,Truck,MINNA ST: 08TH ST to 09TH ST (700 - 799),786 MINNA ST,EXPIRED,Cold Truck: Sandwiches: snacks: prepackaged items: beverages:,37.776222759514200,-122.41390733044100
1337442,Liang Bai Ping,Truck,YOSEMITE AVE: INGALLS ST to JENNINGS ST (1400 - 1499),1420 YOSEMITE AVE,EXPIRED,Cold Truck: Pre-packaged sandwiches: snacks: fruit: various beverages,37.725181700728800,-122.38819268844400
1548490,MOMO INNOVATION LLC,Truck,CALIFORNIA ST: BATTERY ST to SANSOME ST (300 - 399),351 CALIFORNIA ST,REQUESTED,Noodles: Meat & Drinks,37.792870749741500,-122.4007474940770
1337450,Liang Bai Ping,Truck,FELL ST: BRODERICK ST to BAKER ST (1300 - 1399),1377 FELL ST,EXPIRED,Cold Truck: Pre-packaged sandwiches: snacks: fruit: various beverages,37.773287940470400,-122.44003231663500
1336730,Quan Catering,Truck,02ND ST: HOWARD ST to TEHAMA ST (200 - 227),222 02ND ST,EXPIRED,Cold Truck: Soft drinks: cup cakes: potato chips: cookies: gum: sandwiches (hot & cold): peanuts: muffins: coff (hot & cold): water: juice: yoplait: milk: orange juice: sunflower seeds: can foods: burritos: buscuits: chimichangas: rice krispies,37.78631979828400,-122.39823507424900
1336042,Paradise Catering,Truck,MISSION ST: 07TH ST to ANGELOS ALY \ JULIA ST (1100 - 1165),1131 MISSION ST,EXPIRED,Cold Truck: Sandwiches: snacks: prepackaged items: beverages:,37.77838535864770,-122.41138253950000
1332937,Mini Mobile Food Catering,Truck,BERRY ST: 05TH ST to 06TH ST (300 - 399),355 BERRY ST,EXPIRED,Cold Truck: Corn Dogs: Noodle Soups: Candy: Pre-packaged Snacks: Sandwiches: Chips: Coffee: Tea: Various Beverages,37.772363914767300,-122.39704097036300
1336030,Paradise Catering,Truck,FRANKLIN ST: FULTON ST to MCALLISTER ST (466 - 599),301 VAN NESS AVE,EXPIRED,Cold Truck: Sandwiches: snacks: prepackaged items: beverages:,37.77905544246840,-122.42093519603600
1336676,Mike's Catering,Truck,TERRY A FRANCOIS BLVD: MISSION BAY BLVD to MISSION BAY BLVD (0 - 0),Assessors Block 8722/Lot005,EXPIRED,Cold Truck: packaged sandwiches: snacks: candy: hot and cold drinks,37.76964003221770,-122.38623665419900
364218,The Chai Cart,Push Cart,NEW MONTGOMERY ST: AMBROSE BIERCE ST to MISSION ST (77 - 99),79 NEW MONTGOMERY ST,SUSPEND,Hot Indian Chai (Tea),37.78788969990610,-122.40053532677700
1544289,Cochinita,Truck,07TH AVE: LINCOLN WAY to HUGO ST (1200 - 1246),1219 07TH AVE,REQUESTED,Mexican Food: Yucatan Food: Street Food,37.76549698761920,-122.46459761957100
931093,Swell Cream & Coffee,Truck,TARAVAL ST: 36TH AVE to SUNSET BLVD (2600 - 2649),2401 36TH AVE,REQUESTED,Ice cream: coffee: pastries,37.7412902847707,-122.49437792043500
1336736,Quan Catering,Truck,CESAR CHAVEZ ST: CONNECTICUT ST to EVANS AVE (1900 - 2099),2190 CESAR CHAVEZ ST,EXPIRED,Cold Truck: Soft drinks: cup cakes: potato chips: cookies: gum: sandwiches (hot & cold): peanuts: muffins: coff (hot & cold): water: juice: yoplait: milk: orange juice: sunflower seeds: can foods: burritos: buscuits: chimichangas: rice krispies,37.75023688477910,-122.39781803171900
1511641,Lerso,Truck,MISSION ST: 10TH ST to 11TH ST (1400 - 1499),1450 MISSION ST,REQUESTED,Pernil Asado: Ropa Vieja: Arroz con Pollo: Cuban Sandwich: Croquetas Fritas: Tostones: Platanos Maduros: Yuca Frita,37.77522830783410,-122.41746613187000
1337430,Liang Bai Ping,Truck,REVERE AVE: GRIFFITH ST to CRISP RD (1100 - 1188),1135 REVERE AVE,EXPIRED,Cold Truck: Pre-packaged sandwiches: snacks: fruit: various beverages,37.72647071624600,-122.38154121915800
1336679,Mike's Catering,Truck,CESAR CHAVEZ ST: EVANS AVE to KANSAS ST (2100 - 2550),2323 CESAR CHAVEZ ST,EXPIRED,Cold Truck: packaged sandwiches: snacks: candy: hot and cold drinks,37.748801377714500,-122.40055245878500
1552756,Corazon Maya,Truck,MISSION ST: 17TH ST to CLARION ALY (2100 - 2131),2109 MISSION ST,REQUESTED,Tacos: Burritos: Quesadillas: Tortas,37.76317461963380,-122.41900951477100
1336040,Paradise Catering,Truck,MISSION ST: 06TH ST to 07TH ST (1000 - 1099),1045 MISSION ST,EXPIRED,Cold Truck: Sandwiches: snacks: prepackaged items: beverages:,37.77974457293880,-122.40964834306100
934612,May Catering,Truck,WISCONSIN ST: 16TH ST to 17TH ST (100 - 199),166 WISCONSIN ST,EXPIRED,Cold Truck: Sandwiches: fruit: snacks: candy: hot and cold drinks,37.76543386848270,-122.40019820529400
934594,May Catering,Truck,YORK ST: 19TH ST to 20TH ST (700 - 799),720 YORK ST,EXPIRED,Cold Truck: Sandwiches: fruit: snacks: candy: hot and cold drinks,37.7598258374358,-122.40920291508300
934591,May Catering,Truck,YORK ST: MARIPOSA ST to 18TH ST (500 - 599),501 YORK ST,EXPIRED,Cold Truck: Sandwiches: fruit: snacks: candy: hot and cold drinks,37.76291431161150,-122.40895116153800
997504,Munch India,Truck,POST ST: MONTGOMERY ST to LICK PL (1 - 40),Assessors Block /Lot,REQUESTED,Daily rotating menus consisting of various local & organic vegetable: poultry: meat: seafood : rice & bread dishes.,0,0
1337429,Liang Bai Ping,Truck,REVERE AVE: GRIFFITH ST to CRISP RD (1100 - 1188),1160 REVERE AVE,EXPIRED,Cold Truck: Pre-packaged sandwiches: snacks: fruit: various beverages,37.727234007495900,-122.38181551187000
1341238,Halal Cart of San Francisco,Push Cart,CALIFORNIA ST: LEIDESDORFF ST to MONTGOMERY ST (449 - 499),400 MONTGOMERY ST,EXPIRED,Halal Gyro over Rice: Halal Chicken over Rice: Halal Gyro: and Chicken Sandwich,37.79314862698350,-122.4025671755780
1336031,Paradise Catering,Truck,GEARY ST: HYDE ST to LARKIN ST (800 - 899),855 GEARY ST,EXPIRED,Cold Truck: Sandwiches: snacks: prepackaged items: beverages:,37.78591568786930,-122.4173022846850
1332944,Mini Mobile Food Catering,Truck,HARRISON ST: BEALE ST to FREMONT ST \ I-80 W OFF RAMP (300 - 399),355 FREMONT ST,EXPIRED,Cold Truck: Corn Dogs: Noodle Soups: Candy: Pre-packaged Snacks: Sandwiches: Chips: Coffee: Tea: Various Beverages,37.78732241931990,-122.39222370638300
1544285,Cochinita,Truck,02ND ST: BRYANT ST to TABER PL (500 - 518),501 02ND ST,REQUESTED,Mexican Food: Yucatan Food: Street Food,37.783171104343400,-122.39290104947900
1337455,Liang Bai Ping,Truck,JENNINGS ST: VAN DYKE AVE to WALLACE AVE (2100 - 2199),2115 JENNINGS ST,EXPIRED,Cold Truck: Pre-packaged sandwiches: snacks: fruit: various beverages,37.72672797825710,-122.38865842883200
1552372,Breakfast Embed,Truck,01ST ST: TEHAMA ST to CLEMENTINA ST (232 - 274),234 01ST ST,REQUESTED,Coffee: Pastries: Bagels: Sandwiches: Other Items,37.7877332717998,-122.39566345752200
1337441,Liang Bai Ping,Truck,YOSEMITE AVE: HAWES ST to INGALLS ST (1300 - 1399),1335 YOSEMITE AVE,EXPIRED,Cold Truck: Pre-packaged sandwiches: snacks: fruit: various beverages,37.72387884083250,-122.3870108787850
1332941,Mini Mobile Food Catering,Truck,FOLSOM ST: 12TH ST to 13TH ST (1600 - 1699),1690 FOLSOM ST,EXPIRED,Cold Truck: Corn Dogs: Noodle Soups: Candy: Pre-packaged Snacks: Sandwiches: Chips: Coffee: Tea: Various Beverages,37.77013758050150,-122.41598340280400
1336729,Quan Catering,Truck,SELBY ST: HUDSON AVE to INNES AVE (500 - 599),500 SELBY ST,EXPIRED,Cold Truck: Soft drinks: cup cakes: potato chips: cookies: gum: sandwiches (hot & cold): peanuts: muffins: coff (hot & cold): water: juice: yoplait: milk: orange juice: sunflower seeds: can foods: burritos: buscuits: chimichangas: rice krispies,37.74449821321120,-122.39695540584200
751253,Pipo's Grill,Truck,FOLSOM ST: 14TH ST to 15TH ST (1800 - 1899),1800 FOLSOM ST,REQUESTED,Tacos: Burritos: Hot Dogs: and Hamburgers,37.76785244271810,-122.41610489253200
1336738,Quan Catering,Truck,BEALE ST: HARRISON ST to BRYANT ST \ DELANCEY ST (400 - 499),400 BEALE ST,EXPIRED,Cold Truck: Soft drinks: cup cakes: potato chips: cookies: gum: sandwiches (hot & cold): peanuts: muffins: coff (hot & cold): water: juice: yoplait: milk: orange juice: sunflower seeds: can foods: burritos: buscuits: chimichangas: rice krispies,37.78690491945700,-122.39092026296200
1366268,Golden Gate Halal Food,Push Cart,MARKET ST: MASON ST \ TURK ST to 06TH ST \ GOLDEN GATE AVE \ TAYLOR ST (943 - 999) -- SOUTH --,979 MARKET ST,REQUESTED,Pulao Plates & Sandwiches: Various Drinks,37.78228077241860,-122.40953118732000
934573,May Catering,Truck,TOLAND ST: KIRKWOOD AVE to MCKINNON AVE (600 - 799),600 TOLAND ST,EXPIRED,Cold Truck: Sandwiches: fruit: snacks: candy: hot and cold drinks,37.74344004200520,-122.39993256957700
1332940,Mini Mobile Food Catering,Truck,11TH ST: FOLSOM ST to HARRISON ST (300 - 399),355 11TH ST,EXPIRED,Cold Truck: Corn Dogs: Noodle Soups: Candy: Pre-packaged Snacks: Sandwiches: Chips: Coffee: Tea: Various Beverages,37.77146721590100,-122.41287229421000
1336022,Paradise Catering,Truck,COLUMBIA SQUARE ST: FOLSOM ST to HARRISON ST (1 - 99),57 COLUMBIA SQUARE ST,EXPIRED,Cold Truck: Sandwiches: snacks: prepackaged items: beverages:,37.77738314510620,-122.40545816650100
773095,Athena SF Gyro,Push Cart,MARKET ST: 11TH ST intersection,10 SOUTH VAN NESS AVE,REQUESTED,Gyro pita bread (Lamb or chicken): lamb over rice: chicken over rice: chicken biryani rice: soft drinks,37.77425926306000,-122.41948598839800
934623,May Catering,Truck,ULLOA ST: WOODSIDE AVE to SYDNEY WAY (1 - 56),2 ULLOA ST,EXPIRED,Cold Truck: Sandwiches: fruit: snacks: candy: hot and cold drinks,37.74563668388080,-122.45423318865700
1552671,Izzy's Cheesesteaks,Truck,BATTERY ST: CALIFORNIA ST to HALLECK ST (200 - 230),255 BATTERY ST,REQUESTED,Cheesesteaks: French Fries: and Drinks,37.79344652781610,-122.40034367559200
1337926,La Jefa,,SUTTER ST: SANSOME ST to MONTGOMERY ST (50 - 99),80 SUTTER ST,REQUESTED,Tacos: burritos: quesadillas: tortas: nachos (refried beans: cheese sauce: salsa fresca): carnes (beef: chicken: marinated pork: fried pork): canned beans: rice: sodas: horchata drinks.,37.79034624734140,-122.4018501909890
934552,"Casey's Pizza, LLC",Truck,MISSION ST: NEW MONTGOMERY ST to ANNIE ST (635 - 664),654 MISSION ST,EXPIRED,Artisan Pizzas (Margherita: Yukon Potato: Zoe's Pepperoni: Funghi: Brocolli Rabe: Bacon Kale:  Arugula) and Drinks.,37.78718284771540,-122.40123480885100
1337440,Liang Bai Ping,Truck,WALLACE AVE: JENNINGS ST to KEITH ST (1500 - 1599),1500 WALLACE AVE,EXPIRED,Cold Truck: Pre-packaged sandwiches: snacks: fruit: various beverages,37.726725793811800,-122.38924985802700
1337432,Liang Bai Ping,Truck,THOMAS AVE: GRIFFITH ST to HAWES ST (1100 - 1199),1180 THOMAS AVE,EXPIRED,Cold Truck: Pre-packaged sandwiches: snacks: fruit: various beverages,37.726125239645000,-122.38319932723900
934598,May Catering,Truck,26TH ST: SHOTWELL ST to VIRGIL ST (3251 - 3273),3251 26TH ST,EXPIRED,Cold Truck: Sandwiches: fruit: snacks: candy: hot and cold drinks,37.74876215147920,-122.41432682875500
1337787,Giant Burrito,Truck,GENEVA AVE: PRAGUE ST to LINDA VISTA STPS (1500 - 1598) -- SOUTH --,1500 GENEVA AVE,REQUESTED,Tacos: Burritos: Tostadas: Flautas: Tostadas: Tortas: Pozole Menudo,37.712302604744400,-122.43164419037300
453012,Tacos Santana,,CARROLL AVE: QUINT ST to BAY SHORE BLVD \ THORNTON AVE (2100 - 2199),2101 CARROLL AVE,EXPIRED,,37.73022168130490,-122.40297852668600
1336039,Paradise Catering,Truck,MISSION ST: 06TH ST to 07TH ST (1000 - 1099),1023 MISSION ST,EXPIRED,Cold Truck: Sandwiches: snacks: prepackaged items: beverages:,37.78021593850250,-122.40905748550100
934584,May Catering,Truck,26TH ST: TREAT AVE \ TREAT WAY to LUCKY ST (3133 - 3164),3150 26TH ST,EXPIRED,Cold Truck: Sandwiches: fruit: snacks: candy: hot and cold drinks,37.74953311452310,-122.413116536729
1544288,Cochinita,Truck,BRYANT ST: 04TH ST \ I-80 E OFF RAMP to 05TH ST \ I-80 E ON RAMP (600 - 699),617 BRYANT ST,REQUESTED,Mexican Food: Yucatan Food: Street Food,37.779051111573100,-122.39830388133400
1336024,Paradise Catering,Truck,10TH ST: FOLSOM ST to SHERIDAN ST (300 - 353),340 10TH ST,EXPIRED,Cold Truck: Sandwiches: snacks: prepackaged items: beverages:,37.77200984067110,-122.41246279621400
1336735,Quan Catering,Truck,CESAR CHAVEZ ST: INDIANA ST to IOWA ST (1300 - 1399),1301 CESAR CHAVEZ ST,EXPIRED,Cold Truck: Soft drinks: cup cakes: potato chips: cookies: gum: sandwiches (hot & cold): peanuts: muffins: coff (hot & cold): water: juice: yoplait: milk: orange juice: sunflower seeds: can foods: burritos: buscuits: chimichangas: rice krispies,37.74925585952910,-122.39097537957700
934610,May Catering,Truck,CESAR CHAVEZ ST: EVANS AVE to KANSAS ST (2100 - 2550),2400 CESAR CHAVEZ ST,EXPIRED,Cold Truck: Sandwiches: fruit: snacks: candy: hot and cold drinks,37.749916469391000,-122.40113011221200
934517,Scotch Bonnet,Truck,MONTGOMERY ST: POST ST to SUTTER ST (1 - 99),25 MONTGOMERY ST,EXPIRED,Jerk chicken: curry chicken: curry goat: curry dhal: Burritos: Fish: Ox tails: rice: beans: veggies.,37.78948669612780,-122.40246743800400
934575,May Catering,Truck,JERROLD AVE: UPTON ST to NAPOLEON ST (2201 - 2299),2270 JERROLD AVE,EXPIRED,Cold Truck: Sandwiches: fruit: snacks: candy: hot and cold drinks,37.7461044517152,-122.40036183496500
1089427,Halal Food,Push Cart,CALIFORNIA ST: DRUMM ST to DAVIS ST (1 - 99),50 CALIFORNIA ST,REQUESTED,rice chicken beef hot dogs and sandwich's and coke and water,37.79405318373290,-122.39734769332600
1336777,Golden Catering,Truck,EXECUTIVE PARK BLVD: CRESCENT WAY to HARNEY WAY (300 - 399),301 EXECUTIVE PARK BLVD,EXPIRED,Cold Truck: Pre-packaged Sandwiches: Various Beverages: Salads: Snacks,37.71163228119490,-122.39001633363600
1336682,Mike's Catering,Truck,BROADWAY: POWELL ST \ ROBERT C LEVY TUNL to MASON ST (800 - 898) -- NORTH --,860 BROADWAY,EXPIRED,Cold Truck: packaged sandwiches: snacks: candy: hot and cold drinks,37.79757898806040,-122.41143988608900
934554,"Casey's Pizza, LLC",Truck,SPEAR ST: MISSION ST to HOWARD ST (100 - 199),100 SPEAR ST,EXPIRED,Artisan Pizzas (Margherita: Yukon Potato: Zoe's Pepperoni: Funghi: Brocolli Rabe: Bacon Kale:  Arugula) and Drinks.,37.792150548481700,-122.39399997405900
934551,"Casey's Pizza, LLC",Truck,FELL ST: GOUGH ST to OCTAVIA ST (300 - 399),368 FELL ST,EXPIRED,Artisan Pizzas (Margherita: Yukon Potato: Zoe's Pepperoni: Funghi: Brocolli Rabe: Bacon Kale:  Arugula) and Drinks.,37.77604870809230,-122.42393921117200
1337448,Liang Bai Ping,Truck,DONNER AVE: INGALLS ST to JENNINGS ST (1400 - 1499),1475 CARROLL AVE,EXPIRED,Cold Truck: Pre-packaged sandwiches: snacks: fruit: various beverages,37.72325986632420,-122.39117288596900
934555,"Casey's Pizza, LLC",Truck,SANSOME ST: PINE ST to CALIFORNIA ST (200 - 299),231 SANSOME ST,EXPIRED,Artisan Pizzas (Margherita: Yukon Potato: Zoe's Pepperoni: Funghi: Brocolli Rabe: Bacon Kale:  Arugula) and Drinks.,37.792609401119000,-122.40131490545100
1337436,Liang Bai Ping,Truck,UNDERWOOD AVE: INGALLS ST to JENNINGS ST (1300 - 1399),1351 UNDERWOOD AVE,EXPIRED,Cold Truck: Pre-packaged sandwiches: snacks: fruit: various beverages,37.7270146636245,-122.38749735902200
1332948,Mini Mobile Food Catering,Truck,LOOMIS ST: FLOWER ST to WATERLOO ST (120 - 255),491 BAY SHORE BLVD,EXPIRED,Cold Truck: Corn Dogs: Noodle Soups: Candy: Pre-packaged Snacks: Sandwiches: Chips: Coffee: Tea: Various Beverages,0,0
934619,May Catering,Truck,EXECUTIVE PARK BLVD: CANDLESTICK COVE WAY to SANDPIPER COVE WAY \ THOMAS MELLON DR (138 - 198),150 EXECUTIVE PARK BLVD,EXPIRED,Cold Truck: Sandwiches: fruit: snacks: candy: hot and cold drinks,37.71083793114100,-122.39354336301300
1337427,Liang Bai Ping,Truck,QUESADA AVE: ARELIOUS WALKER DR to GRIFFITH ST (1000 - 1099),1031 QUESADA AVE,EXPIRED,Cold Truck: Pre-packaged sandwiches: snacks: fruit: various beverages,37.72578913981240,-122.37897271962400
934620,May Catering,Truck,MINNA ST: 10TH ST to 11TH ST (900 - 999),911 MINNA ST,EXPIRED,Cold Truck: Sandwiches: fruit: snacks: candy: hot and cold drinks,37.77439801094030,-122.41565865581100
1337453,Liang Bai Ping,Truck,GRIFFITH ST: SHAFTER AVE to THOMAS AVE (1500 - 1599),1515 GRIFFITH ST,EXPIRED,Cold Truck: Pre-packaged sandwiches: snacks: fruit: various beverages,37.72531943367550,-122.3813892094270
773105,Athena SF Gyro,Push Cart,08TH ST: BRANNAN ST to TOWNSEND ST (600 - 699),699 08TH ST,REQUESTED,Gyro pita bread (Lamb or chicken): lamb over rice: chicken over rice: chicken biryani rice: soft drinks,37.771021999243700,-122.4035462541840
839523,Halal Cart of San Francisco,Push Cart,MARKET ST: FREMONT ST \ FRONT ST to 01ST ST \ BUSH ST (400 - 498) -- NORTH --,1 FRONT ST,REQUESTED,Gyro; Chicken over rice; Gyro over rice;,37.791757205944400,-122.39889763689200
1336776,Golden Catering,Truck,EXECUTIVE PARK BLVD: EMERALD COVE WAY to CANDLESTICK COVE WAY (101 - 137),101 EXECUTIVE PARK BLVD,EXPIRED,Cold Truck: Pre-packaged Sandwiches: Various Beverages: Salads: Snacks,0,0
837171,Chilifruit,Push Cart,24TH ST: MISSION ST to OSAGE ALY (3300 - 3322),Assessors Block /Lot,REQUESTED,Mangoneadas: Fruit snacks: Chamoyadas: Bionicos,0,0
1336733,Quan Catering,Truck,03RD ST: ARTHUR AVE \ CARGO WAY to BURKE AVE (3401 - 3499) -- EAST --,3433 03RD ST,EXPIRED,Cold Truck: Soft drinks: cup cakes: potato chips: cookies: gum: sandwiches (hot & cold): peanuts: muffins: coff (hot & cold): water: juice: yoplait: milk: orange juice: sunflower seeds: can foods: burritos: buscuits: chimichangas: rice krispies,0,0
1336921,Kettle Corn Star,Push Cart,MARKET ST: POWELL ST to 05TH ST \ CYRIL MAGNIN ST (865 - 899) -- SOUTH --,865 MARKET ST,EXPIRED,Kettle Corn: Funnel Cakes: Waffles: Lemonade,37.783946907974200,-122.40715834498400
1265569,"San Francisco Carts & Concessions, Inc. DBA Stanley's Steamers Hot Dogs",Push Cart,POWELL ST: GEARY ST to POST ST (300 - 399),331 POWELL ST,REQUESTED,American Food: Hot dogs: pretzels: ice cream: salads: beverages: sandwiches: soup: coffee: pastries:etc.,37.787755298967500,-122.40878221396500
1336734,Quan Catering,Truck,ALABAMA ST: TREAT AVE to 15TH ST (201 - 212),201 ALABAMA ST,EXPIRED,Cold Truck: Soft drinks: cup cakes: potato chips: cookies: gum: sandwiches (hot & cold): peanuts: muffins: coff (hot & cold): water: juice: yoplait: milk: orange juice: sunflower seeds: can foods: burritos: buscuits: chimichangas: rice krispies,37.76779784361900,-122.4120963188610
453014,Tacos Santana,,JERROLD AVE: TOLAND ST to UPTON ST (2100 - 2230),2142 JERROLD AVE,EXPIRED,,37.744518582664900,-122.39894084662800
1337443,Liang Bai Ping,Truck,YOSEMITE AVE: INGALLS ST to JENNINGS ST (1400 - 1499),1430 YOSEMITE AVE,EXPIRED,Cold Truck: Pre-packaged sandwiches: snacks: fruit: various beverages,37.72549804795050,-122.38836915044200
934589,May Catering,Truck,HARRISON ST: 17TH ST to MARIPOSA ST (2050 - 2149),2130 HARRISON ST,EXPIRED,Cold Truck: Sandwiches: fruit: snacks: candy: hot and cold drinks,37.76281495322900,-122.41321151367300
1332947,Mini Mobile Food Catering,Truck,KANSAS ST: CESAR CHAVEZ ST to MARIN ST (1600 - 1699),Assessors Block 4341/Lot001,EXPIRED,Cold Truck: Corn Dogs: Noodle Soups: Candy: Pre-packaged Snacks: Sandwiches: Chips: Coffee: Tea: Various Beverages,37.748950363427100,-122.40149318970800
1337456,Liang Bai Ping,Truck,MAIN ST: FOLSOM ST to HARRISON ST (300 - 399),201 FOLSOM ST,EXPIRED,Cold Truck: Pre-packaged sandwiches: snacks: fruit: various beverages,37.78814528329280,-122.39118192026300
934599,May Catering,Truck,NAPOLEON ST: EVANS AVE \ TOLAND ST to JERROLD AVE (25 - 299),180 NAPOLEON ST,EXPIRED,Cold Truck: Sandwiches: fruit: snacks: candy: hot and cold drinks,37.74758627625650,-122.39886570079600
1353436,Alfaro Truck,Truck,VALENCIA ST: 14TH ST to ROSA PARKS LN (300 - 337),306 VALENCIA ST,EXPIRED,Burritos: Tacos: Tortas: Quesadillas & Various Drinks.,37.767855269354300,-122.42248440416200
1337451,Liang Bai Ping,Truck,FREMONT ST: NATOMA ST to HOWARD ST (170 - 199),Assessors Block 3720/Lot001,EXPIRED,Cold Truck: Pre-packaged sandwiches: snacks: fruit: various beverages,37.78969136758700,-122.39659563708400
1344178,"Expresso Subito, LLC.",Truck,FRONT ST: CALIFORNIA ST to HALLECK ST (200 - 234),150 CALIFORNIA ST,EXPIRED,Expresso drinks: assorted beverages (canned: bottled: home made): scones: croissants: bagels: soup: chili: parfaits: smoothies: frappes: milk shakes.,37.793673381504700,-122.39846350948600
934592,May Catering,Truck,,299 ILLINOIS ST,EXPIRED,Cold Truck: Sandwiches: fruit: snacks: candy: hot and cold drinks,0,0
934621,May Catering,Truck,MINNESOTA ST: 04TH ST \ MARIPOSA ST to 18TH ST (500 - 599),535 MINNESOTA ST,EXPIRED,Cold Truck: Sandwiches: fruit: snacks: candy: hot and cold drinks,37.763690871096,-122.3904573860160
1337356,Tacos Rodriguez,Truck,OAKDALE AVE: INDUSTRIAL ST \ SELBY ST to TOLAND ST (2100 - 2199),2198 OAKDALE AVE,EXPIRED,Tacos: burritos: quesadillas: soda & water,37.74099473500240,-122.4011723353860
934588,May Catering,Truck,CESAR CHAVEZ ST: KANSAS ST to BAY SHORE BLVD \ VERMONT ST (2501 - 2625) -- SOUTH --,2501 CESAR CHAVEZ ST,EXPIRED,Cold Truck: Sandwiches: fruit: snacks: candy: hot and cold drinks,37.74897924115540,-122.40240923456100
934624,May Catering,Truck,HAWES ST: INGERSON AVE to JAMESTOWN AVE (2900 - 2999),2930 HAWES ST,EXPIRED,Cold Truck: Sandwiches: fruit: snacks: candy: hot and cold drinks,37.717779453627000,-122.39165476517900
1336034,Paradise Catering,Truck,HARRISON ST: ESSEX ST \ I-80 E ON RAMP to 02ND ST (550 - 599),575 HARRISON ST,EXPIRED,Cold Truck: Sandwiches: snacks: prepackaged items: beverages:,37.78442049199290,-122.39438063910100
1336681,Mike's Catering,Truck,BROADWAY: BATTERY ST to SANSOME ST (200 - 299),250 BROADWAY,EXPIRED,Cold Truck: packaged sandwiches: snacks: candy: hot and cold drinks,37.79875493640090,-122.40179879385400
934597,May Catering,Truck,03RD ST: 22ND ST to 23RD ST (2501 - 2699) -- EAST --,2565 03RD ST,EXPIRED,Cold Truck: Sandwiches: fruit: snacks: candy: hot and cold drinks,37.75671729983720,-122.38764896299300
934613,May Catering,Truck,POTRERO AVE: ALAMEDA ST to 15TH ST (100 - 199),100 POTRERO AVE,EXPIRED,Cold Truck: Sandwiches: fruit: snacks: candy: hot and cold drinks,37.768075885952700,-122.40828959528700
839524,Halal Cart of San Francisco,Push Cart,MARKET ST: 01ST ST \ BUSH ST to 02ND ST (501 - 599) -- SOUTH --,555 MARKET ST,REQUESTED,Gyro; Chicken over rice; Gyro over rice;,37.78988987820980,-122.39993041135100
1336778,Golden Catering,Truck,JAMESTOWN AVE: GRIFFITH ST to CORONADO ST (800 - 850),835 JAMESTOWN AVE,EXPIRED,Cold Truck: Pre-packaged Sandwiches: Various Beverages: Salads: Snacks,37.71717416180370,-122.39222247462400
1544281,Boulangerie La Camionnette,,FLORIDA ST: MARIPOSA ST to 18TH ST (500 - 599),500 FLORIDA ST,REQUESTED,Bread: Pastries: Coffee: Pizza,37.762590159713900,-122.41148385548200
1336015,Paradise Catering,Truck,,Assessors Block /Lot,EXPIRED,Cold Truck: Sandwiches: snacks: prepackaged items: beverages:,0,0
1344172,"Expresso Subito, LLC.",Truck,CALIFORNIA ST: DAVIS ST to FRONT ST (100 - 199),150 CALIFORNIA ST,EXPIRED,Expresso drinks: assorted beverages (canned: bottled: home made): scones: croissants: bagels: soup: chili: parfaits: smoothies: frappes: milk shakes.,37.793673381504700,-122.39846350948600
1340418,Let's Be Frank,Push Cart,LINDEN ST: GOUGH ST to OCTAVIA ST (300 - 399),404 OCTAVIA ST,EXPIRED,Hot dogs and chili,37.77603906266590,-122.42417557149200
1141511,Khalid M Malik,Push Cart,BATTERY ST: MARKET ST to BUSH ST (1 - 10),Assessors Block /Lot,REQUESTED,chicken sandwich: chicken gyro: chicken biryani,0,0
1047771,The Chef Station,,DIVISADERO ST: OAK ST to FELL ST (401 - 499) -- WEST --,425 DIVISADERO ST,REQUESTED,South American Peruvian Food - Ceiches: hot wok dishes: hot pastas: rice dishes: and Tapas.,37.77336405319090,-122.43787522530300
934581,May Catering,Truck,POTRERO AVE: 24TH ST to 25TH ST (1200 - 1299),1200 POTRERO AVE,EXPIRED,Cold Truck: Sandwiches: fruit: snacks: candy: hot and cold drinks,37.7525772700714,-122.40680641715200
1332936,Mini Mobile Food Catering,Truck,ALAMEDA ST: HAMPSHIRE ST to BRYANT ST (2400 - 2599),Assessors Block 3905/Lot011,EXPIRED,Cold Truck: Corn Dogs: Noodle Soups: Candy: Pre-packaged Snacks: Sandwiches: Chips: Coffee: Tea: Various Beverages,37.76855707131210,-122.40961023629800
1337435,Liang Bai Ping,Truck,UNDERWOOD AVE: INGALLS ST to JENNINGS ST (1300 - 1399),1389 UNDERWOOD AVE,EXPIRED,Cold Truck: Pre-packaged sandwiches: snacks: fruit: various beverages,37.72711043338280,-122.3882612881440
934583,May Catering,Truck,ILLINOIS ST: MARIPOSA ST \ TERRY A FRANCOIS BLVD to 18TH ST (600 - 699),600 ILLINOIS ST,EXPIRED,Cold Truck: Sandwiches: fruit: snacks: candy: hot and cold drinks,37.76416012822030,-122.38814226212800
934519,Scotch Bonnet,Truck,CALIFORNIA ST: SANSOME ST to LEIDESDORFF ST (400 - 448),430 CALIFORNIA ST,EXPIRED,Jerk chicken: curry chicken: curry goat: curry dhal: Burritos: Fish: Ox tails: rice: beans: veggies.,37.793262206923100,-122.4017890913630
1336023,Paradise Catering,Truck,09TH ST: BRYANT ST \ HWY 101 N OFF RAMP to BRANNAN ST (500 - 599),555 09TH ST,EXPIRED,Cold Truck: Sandwiches: snacks: prepackaged items: beverages:,37.77102779661400,-122.40731420131300
934622,May Catering,Truck,JAMESTOWN AVE: GRIFFITH ST to CORONADO ST (800 - 850),800 JAMESTOWN AVE,EXPIRED,Cold Truck: Sandwiches: fruit: snacks: candy: hot and cold drinks,37.71644300214740,-122.38993787932100
1544290,Cochinita,Truck,DIVISADERO ST: MCALLISTER ST to GOLDEN GATE AVE (901 - 999) -- WEST --,999 DIVISADERO ST,REQUESTED,Mexican Food: Yucatan Food: Street Food,37.778384300969000,-122.43878238856700
1336020,Paradise Catering,Truck,CLAY ST: MONTGOMERY ST to KEARNY ST (600 - 699),634 CLAY ST,EXPIRED,Cold Truck: Sandwiches: snacks: prepackaged items: beverages:,37.794793001017800,-122.40386388586500
1534033,"Off the Grid Services, LLC",,MINNA ST: SHAW ALY to 02ND ST (44 - 99),65 MINNA ST,REQUESTED,N/A,37.7879095795372,-122.39836076940500
1337449,Liang Bai Ping,Truck,DONNER AVE: INGALLS ST to JENNINGS ST (1400 - 1499),1450 DONNER AVE,EXPIRED,Cold Truck: Pre-packaged sandwiches: snacks: fruit: various beverages,37.72305650933890,-122.39111194064200
1337452,Liang Bai Ping,Truck,GRIFFITH ST: QUESADA AVE to REVERE AVE (1300 - 1399),1300 GRIFFITH ST,EXPIRED,Cold Truck: Pre-packaged sandwiches: snacks: fruit: various beverages,37.727086633951400,-122.38107444874900
1337354,Tacos Rodriguez,Truck,EVANS AVE: KEITH ST to MENDELL ST (1201 - 1399) -- SOUTH --,1275 EVANS AVE,EXPIRED,Tacos: burritos: quesadillas: soda & water,37.73911142974500,-122.38246497113600
934602,May Catering,Truck,HARRISON ST: MARIPOSA ST to 18TH ST (2150 - 2198),2150 HARRISON ST,EXPIRED,Cold Truck: Sandwiches: fruit: snacks: candy: hot and cold drinks,0,0
1332945,Mini Mobile Food Catering,Truck,HARRISON ST: FREMONT ST \ I-80 W OFF RAMP to 01ST ST \ I-80 E ON RAMP (400 - 499),401 HARRISON ST,EXPIRED,Cold Truck: Corn Dogs: Noodle Soups: Candy: Pre-packaged Snacks: Sandwiches: Chips: Coffee: Tea: Various Beverages,0,0
1337444,Liang Bai Ping,Truck,BANCROFT AVE: INGALLS ST to JENNINGS ST (1400 - 1499),1440 BANCROFT AVE,EXPIRED,Cold Truck: Pre-packaged sandwiches: snacks: fruit: various beverages,37.72417289276130,-122.38973542901100
1337438,Liang Bai Ping,Truck,VAN DYKE AVE: INGALLS ST to JENNINGS ST (1300 - 1399),1337 VAN DYKE AVE,EXPIRED,Cold Truck: Pre-packaged sandwiches: snacks: fruit: various beverages,37.7262494817986,-122.38781536801400
1332935,Mini Mobile Food Catering,Truck,01ST ST: CLEMENTINA ST to FOLSOM ST (245 - 299),245 01ST ST,EXPIRED,Cold Truck: Corn Dogs: Noodle Soups: Candy: Pre-packaged Snacks: Sandwiches: Chips: Coffee: Tea: Various Beverages,37.7879000978181,-122.39459403620500
1336035,Paradise Catering,Truck,HARRISON ST: MERLIN ST to OAK GROVE ST (924 - 950),938 HARRISON ST,EXPIRED,Cold Truck: Sandwiches: snacks: prepackaged items: beverages:,0,0
1336740,Quan Catering,Truck,BRYANT ST: 04TH ST \ I-80 E OFF RAMP to 05TH ST \ I-80 E ON RAMP (600 - 699),645 BRYANT ST,EXPIRED,Cold Truck: Soft drinks: cup cakes: potato chips: cookies: gum: sandwiches (hot & cold): peanuts: muffins: coff (hot & cold): water: juice: yoplait: milk: orange juice: sunflower seeds: can foods: burritos: buscuits: chimichangas: rice krispies,37.778266576694600,-122.3988359224450
934593,May Catering,Truck,16TH ST: 03RD ST to 04TH ST (500 - 599),500 16TH ST,EXPIRED,Cold Truck: Sandwiches: fruit: snacks: candy: hot and cold drinks,0,0
1336774,Golden Catering,Truck,BAY SHORE BLVD: LELAND AVE to VISITACION AVE (2401 - 2499) -- EAST --,2401 BAY SHORE BLVD,EXPIRED,Cold Truck: Pre-packaged Sandwiches: Various Beverages: Salads: Snacks,37.71093379298100,-122.40278453801000
1336016,Paradise Catering,Truck,RUSS ST: TULIP ALY to NATOMA ST (20 - 39),25 RUSS ST,EXPIRED,Cold Truck: Sandwiches: snacks: prepackaged items: beverages:,37.779463731622500,-122.40886795102300
934302,Yummy Hot Dogs,Push Cart,MARKET ST: MASON ST \ TURK ST to 06TH ST \ GOLDEN GATE AVE \ TAYLOR ST (950 - 998) -- NORTH --,954 MARKET ST,SUSPEND,Hot dogs: pretzels: chips: juices and cold drinks,37.78317542073360,-122.40956831554700
934617,May Catering,Truck,BERRY ST: 03RD ST to 04TH ST (100 - 199),185 BERRY ST,EXPIRED,Cold Truck: Sandwiches: fruit: snacks: candy: hot and cold drinks,37.77632714778990,-122.39179682107700
812018,SF Street Food,Truck,MISSION ST: ANNIE ST to 03RD ST (663 - 699),667 MISSION ST,REQUESTED,Chicken Tikka Masala: Vegetarian Rice Plate: Burritos: Tacos: Mango Lassi,37.7865580501799,-122.40103337535000
931094,Swell Cream & Coffee,Truck,TARAVAL ST: 34TH AVE to 35TH AVE (2400 - 2499),2450 TARAVAL ST,REQUESTED,Ice cream: coffee: pastries,37.74255037355930,-122.49267708221500
934590,May Catering,Truck,BERRY ST: 05TH ST to 06TH ST (300 - 399),301 BERRY ST,EXPIRED,Cold Truck: Sandwiches: fruit: snacks: candy: hot and cold drinks,37.77433766636960,-122.39405328631300
934603,May Catering,Truck,16TH ST: MISSOURI ST to CONNECTICUT ST (1000 - 1099),1006 16TH ST,EXPIRED,Cold Truck: Sandwiches: fruit: snacks: candy: hot and cold drinks,37.76668985738670,-122.3971823227810
1336037,Paradise Catering,Truck,MINNA ST: 07TH ST to JULIA ST (600 - 666),621 MINNA ST,EXPIRED,Cold Truck: Sandwiches: snacks: prepackaged items: beverages:,37.77823283967360,-122.4108229895070
1336742,Quan Catering,Truck,CALIFORNIA ST: DRUMM ST to DAVIS ST (1 - 99),50 CALIFORNIA ST,EXPIRED,Cold Truck: Soft drinks: cup cakes: potato chips: cookies: gum: sandwiches (hot & cold): peanuts: muffins: coff (hot & cold): water: juice: yoplait: milk: orange juice: sunflower seeds: can foods: burritos: buscuits: chimichangas: rice krispies,37.79405318373290,-122.39734769332600
1336019,Paradise Catering,Truck,07TH ST: CLEVELAND ST to HARRISON ST (314 - 399),370 07TH ST,EXPIRED,Cold Truck: Sandwiches: snacks: prepackaged items: beverages:,37.77571285897460,-122.40695037968600
934576,May Catering,Truck,ILLINOIS ST: 20TH ST to 22ND ST (900 - 1099),1000 ILLINOIS ST,EXPIRED,Cold Truck: Sandwiches: fruit: snacks: candy: hot and cold drinks,37.75924591902610,-122.38791737699100
1265607,"San Francisco Carts & Concessions, Inc. DBA Stanley's Steamers Hot Dogs",Push Cart,GEARY ST: STOCKTON ST to POWELL ST (200 - 299),Assessors Block /Lot,REQUESTED,American Food: Hot dogs: pretzels: ice cream: salads: beverages: sandwiches: soup: coffee: pastries:etc.,0,0
1332943,Mini Mobile Food Catering,Truck,FREMONT ST: FOLSOM ST to HARRISON ST \ I-80 W OFF RAMP (300 - 399),350 FREMONT ST,EXPIRED,Cold Truck: Corn Dogs: Noodle Soups: Candy: Pre-packaged Snacks: Sandwiches: Chips: Coffee: Tea: Various Beverages,37.787076530384300,-122.39298262422800
1336686,Mike's Catering,Truck,MINNESOTA ST: 24TH ST to 25TH ST (1300 - 1399),1310 MINNESOTA ST,EXPIRED,Cold Truck: packaged sandwiches: snacks: candy: hot and cold drinks,37.75369989994380,-122.39006834690800
1332949,Mini Mobile Food Catering,Truck,MENDELL ST: GALVEZ AVE to HUDSON AVE (600 - 699),620 MENDELL ST,EXPIRED,Cold Truck: Corn Dogs: Noodle Soups: Candy: Pre-packaged Snacks: Sandwiches: Chips: Coffee: Tea: Various Beverages,37.739378669437300,-122.38633794515300
1336025,Paradise Catering,Truck,DORE ST: HOWARD ST to FOLSOM ST (1 - 99),45 DORE ST,EXPIRED,Cold Truck: Sandwiches: snacks: prepackaged items: beverages:,37.77407092896160,-122.41290398690800
840504,Taqueria Lolita,Truck,EVANS AVE: QUINT ST to RANKIN ST (1700 - 1799),750 PHELPS ST,SUSPEND,Tacos: burritos: quesadillas: combination plates: tortas: tostadas,37.73944545286910,-122.39301498669800
1336677,Mike's Catering,Truck,CHINA BASIN ST: TERRY A FRANCOIS BLVD to 03RD ST (300 - 499),435 CHINA BASIN ST,EXPIRED,Cold Truck: packaged sandwiches: snacks: candy: hot and cold drinks,0,0
1337355,Tacos Rodriguez,Truck,MENDELL ST: GALVEZ AVE to HUDSON AVE (600 - 699),600 MENDELL ST,EXPIRED,Tacos: burritos: quesadillas: soda & water,37.73967879180790,-122.38649338455500
1544283,Cochinita,Truck,24TH ST: UTAH ST to POTRERO AVE (2600 - 2699),2601 24TH ST,REQUESTED,Panushos: Salbutes: Salad: Rice: Beans: Cochinita: etc.,37.752822368121500,-122.4055319192160
1336743,Quan Catering,Truck,ALANA WAY: COUNTY LINE intersection,151 EXECUTIVE PARK BLVD,EXPIRED,Cold Truck: Soft drinks: cup cakes: potato chips: cookies: gum: sandwiches (hot & cold): peanuts: muffins: coff (hot & cold): water: juice: yoplait: milk: orange juice: sunflower seeds: can foods: burritos: buscuits: chimichangas: rice krispies,0,0
1336018,Paradise Catering,Truck,BRANNAN ST: HARRIET ST to LUCERNE ST (715 - 743),732 BRANNAN ST,EXPIRED,Cold Truck: Sandwiches: snacks: prepackaged items: beverages:,37.77423022913090,-122.402102214519
934605,May Catering,Truck,16TH ST: FLORIDA ST to ALABAMA ST (2500 - 2599),2500 16TH ST,EXPIRED,Cold Truck: Sandwiches: fruit: snacks: candy: hot and cold drinks,37.76582045448320,-122.41196835791200
1337437,Liang Bai Ping,Truck,VAN DYKE AVE: INGALLS ST to JENNINGS ST (1300 - 1399),1370 VAN DYKE AVE,EXPIRED,Cold Truck: Pre-packaged sandwiches: snacks: fruit: various beverages,37.72695076437820,-122.3879799562620
934303,Yummy Hot Dogs,Push Cart,MARKET ST: MASON ST \ TURK ST to 06TH ST \ GOLDEN GATE AVE \ TAYLOR ST (943 - 999) -- SOUTH --,945 MARKET ST,SUSPEND,Hot dogs: pretzels: chips: juices and cold drinks,37.78283416369840,-122.408837940446
1337433,Liang Bai Ping,Truck,THOMAS AVE: HAWES ST to INGALLS ST (1200 - 1299),1212 THOMAS AVE,EXPIRED,Cold Truck: Pre-packaged sandwiches: snacks: fruit: various beverages,37.7266647697066,-122.38414422460600
1336737,Quan Catering,Truck,BAY SHORE BLVD: VISITACION AVE to SUNNYDALE AVE (2501 - 2599) -- EAST --,2555 BAY SHORE BLVD,EXPIRED,Cold Truck: Soft drinks: cup cakes: potato chips: cookies: gum: sandwiches (hot & cold): peanuts: muffins: coff (hot & cold): water: juice: yoplait: milk: orange juice: sunflower seeds: can foods: burritos: buscuits: chimichangas: rice krispies,37.70937546400140,-122.40415437850900
1351263,Isidoro Serrano,Push Cart,21ST ST: CAPP ST to MISSION ST (3150 - 3199),2501 MISSION ST,EXPIRED,,37.756877451535700,-122.41857988947600
934607,May Catering,Truck,17TH ST: TREAT AVE to FOLSOM ST (3025 - 3099),3030 17TH ST,EXPIRED,Cold Truck: Sandwiches: fruit: snacks: candy: hot and cold drinks,37.764038182817400,-122.41375751658900
735315,Ziaurehman Amini,Push Cart,DRUMM ST: MARKET ST to CALIFORNIA ST (1 - 6),1 CALIFORNIA ST,REQUESTED,,37.793213731663400,-122.39704303671800
1337445,Liang Bai Ping,Truck,BANCROFT AVE: INGALLS ST to JENNINGS ST (1400 - 1499),1460 BANCROFT AVE,EXPIRED,Cold Truck: Pre-packaged sandwiches: snacks: fruit: various beverages,37.72441324329630,-122.39015723961100
1337457,Liang Bai Ping,Truck,OFARRELL ST: BRODERICK ST to SAINT JOSEPHS AVE (2200 - 2299),2200 OFARRELL ST,EXPIRED,Cold Truck: Pre-packaged sandwiches: snacks: fruit: various beverages,0,0
1343454,Esmeli Catering,Truck,HOOPER ST: 07TH ST to 08TH ST (100 - 199),Assessors Block /Lot,REQUESTED,tacos: burritos: quesadilla: tortas sodas,0,0
1337446,Liang Bai Ping,Truck,BANCROFT AVE: JENNINGS ST to KEITH ST (1500 - 1599),1555 BANCROFT AVE,EXPIRED,Cold Truck: Pre-packaged sandwiches: snacks: fruit: various beverages,37.72439752974340,-122.39150511638300
1515719,Treats by the Bay LLC,Truck,04TH ST: NELSON RISING LN to GENE FRIEND WAY (1500 - 1599),1550 04TH ST,REQUESTED,Prepackaged Kettle Corn,37.769124412168100,-122.39147491124600
1367765,Authentic India,Push Cart,MARKET ST: 09TH ST \ LARKIN ST to 10TH ST \ FELL ST \ POLK ST (1301 - 1399) -- SOUTH --,1355 MARKET ST,EXPIRED,Indian Street Food,37.776736212750100,-122.41639493007700
934574,May Catering,Truck,MARIN ST: KANSAS ST to HWY 101 N ON RAMP (2500 - 2599),2525 MARIN ST,EXPIRED,Cold Truck: Sandwiches: fruit: snacks: candy: hot and cold drinks,37.74761607223310,-122.40197697572400
1544287,Cochinita,Truck,BRANNAN ST: ZOE ST to 04TH ST (440 - 499),490 BRANNAN ST,REQUESTED,Mexican Food: Yucatan Food: Street Food,37.778863135500200,-122.39644435935800
1344203,"Bay Area Dots, LLC",Push Cart,TAYLOR ST: BAY ST intersection,567 BAY ST,REQUESTED,Hot dogs: condiments: soft pretzels: soft drinks: coffee: cold beverages: pastries: bakery goods: cookies: ice cream: candy: soups: churros: chestnuts: nuts: fresh fruit: fruit juices: desserts: potato chips and popcorn.,0,0
1552373,Breakfast Embed,Truck,MISSION ROCK ST: 04TH ST intersection,1200 04TH ST,REQUESTED,Coffee: Pastries: Bagels: Sandwiches: Other Items,37.772483606822600,-122.39181160681600
1337454,Liang Bai Ping,Truck,HAWES ST: SHAFTER AVE to THOMAS AVE (1500 - 1599),1153 SHAFTER AVE,EXPIRED,Cold Truck: Pre-packaged sandwiches: snacks: fruit: various beverages,37.72648516321650,-122.38323245870700
934609,May Catering,Truck,MISSION CREEK: 03RD ST to 04TH ST (0 - 0),Assessors Block 8711/Lot023,EXPIRED,Cold Truck: Sandwiches: fruit: snacks: candy: hot and cold drinks,37.77407484105830,-122.39066845814600
1336027,Paradise Catering,Truck,FOLSOM ST: SHERMAN ST to MOSS ST (1061 - 1078),1069 FOLSOM ST,EXPIRED,Cold Truck: Sandwiches: snacks: prepackaged items: beverages:,37.77704787514930,-122.4070350934510
1344173,"Expresso Subito, LLC.",Truck,MISSION ST: ANTHONY ST to 02ND ST (573 - 599),85 02ND ST,EXPIRED,Expresso drinks: assorted beverages (canned: bottled: home made): scones: croissants: bagels: soup: chili: parfaits: smoothies: frappes: milk shakes.,37.788457028828900,-122.3998841605660
1400796,El Calamar Perubian Food Truck,Truck,24TH ST: UTAH ST to POTRERO AVE (2600 - 2699),2615 24TH ST,REQUESTED,Lomo Saltado: Jalea: Ceviche: Calamari Tilapia Plates: Chicken: Soda: Water.,37.75281482922110,-122.40566264191800
1337923,La Jefa,,SANSOME ST: BUSH ST to PINE ST (100 - 199),155 SANSOME ST,REQUESTED,Tacos: burritos: quesadillas: tortas: nachos (refried beans: cheese sauce: salsa fresca): carnes (beef: chicken: marinated pork: fried pork): canned beans: rice: sodas: horchata drinks.,37.79183426305550,-122.40127961659600
934611,May Catering,Truck,CESAR CHAVEZ ST: EVANS AVE to KANSAS ST (2100 - 2550),2300 CESAR CHAVEZ ST,EXPIRED,Cold Truck: Sandwiches: fruit: snacks: candy: hot and cold drinks,37.749945285757100,-122.40042088443800
1340417,Let's Be Frank,Push Cart,HAYES ST: GOUGH ST to OCTAVIA ST (400 - 499),425 HAYES ST,EXPIRED,Hot dogs and chili,37.776566896519500,-122.42339537672700
1336680,Mike's Catering,Truck,CESAR CHAVEZ ST: EVANS AVE to KANSAS ST (2100 - 2550),2200 CESAR CHAVEZ ST,EXPIRED,Cold Truck: packaged sandwiches: snacks: candy: hot and cold drinks,37.750048825970400,-122.39967205970900
1447794,Street Meet,Truck,HOWARD ST: 01ST ST to MALDEN ALY (500 - 589),564 HOWARD ST,REQUESTED,Tortas: Burritos: Tacos: Churros: Nachos: Asada Fries,37.787539893467500,-122.39772670915200
934614,May Catering,Truck,EVANS AVE: NAPOLEON ST \ TOLAND ST to MARIN ST (2000 - 2099),2090 EVANS AVE,EXPIRED,Cold Truck: Sandwiches: fruit: snacks: candy: hot and cold drinks,37.74795496456780,-122.39579738491600
1337920,La Jefa,,04TH ST: NELSON RISING LN to GENE FRIEND WAY (1500 - 1599),1550 04TH ST,REQUESTED,Tacos: burritos: quesadillas: tortas: nachos (refried beans: cheese sauce: salsa fresca): carnes (beef: chicken: marinated pork: fried pork): canned beans: rice: sodas: horchata drinks.,37.769124412168100,-122.39147491124600
1359707,Union Square Business Improvement District,Truck,MAIDEN LN: GRANT AVE to STOCKTON ST (100 - 199),Assessors Block /Lot,REQUESTED,All types of food except for BBQ on site per fire safety. Partnership with Off the Grid and their fleet of MFF's,0,0
934578,May Catering,Truck,ALABAMA ST: 16TH ST to 17TH ST (300 - 399),380 ALABAMA ST,EXPIRED,Cold Truck: Sandwiches: fruit: snacks: candy: hot and cold drinks,37.764452392765100,-122.41267189164500
934580,May Catering,Truck,LE CONTE AVE: 03RD ST to KEITH ST (1039 - 1099),1098 LE CONTE AVE,EXPIRED,Cold Truck: Sandwiches: fruit: snacks: candy: hot and cold drinks,37.7194317184807,-122.39813950691400
1544284,Cochinita,Truck,TOWNSEND ST: LUSK ST to 04TH ST (252 - 299),290 TOWNSEND ST,REQUESTED,Mexican Food: Yucatan Food: Street Food,37.77775521656860,-122.394807823179
1336683,Mike's Catering,Truck,ILLINOIS ST: 16TH ST to MARIPOSA ST \ TERRY A FRANCOIS BLVD (400 - 599),409 ILLINOIS ST,EXPIRED,Cold Truck: packaged sandwiches: snacks: candy: hot and cold drinks,0,0
1336026,Paradise Catering,Truck,FOLSOM ST: FALMOUTH ST to 06TH ST (947 - 999),965 FOLSOM ST,EXPIRED,Cold Truck: Sandwiches: snacks: prepackaged items: beverages:,37.77900126791780,-122.40448509035800
1336021,Paradise Catering,Truck,CLEMENTINA ST: 01ST ST to ECKER ST (1 - 37),19 CLEMENTINA ST,EXPIRED,Cold Truck: Sandwiches: snacks: prepackaged items: beverages:,37.78715774417400,-122.39544760515200
1332946,Mini Mobile Food Catering,Truck,16TH ST: OWENS ST to 07TH ST \ MISSISSIPPI ST (700 - 899),701 16TH ST,EXPIRED,Cold Truck: Corn Dogs: Noodle Soups: Candy: Pre-packaged Snacks: Sandwiches: Chips: Coffee: Tea: Various Beverages,0,0
934553,"Casey's Pizza, LLC",Truck,POST ST: MONTGOMERY ST to LICK PL (1 - 40),1 POST ST,EXPIRED,Artisan Pizzas (Margherita: Yukon Potato: Zoe's Pepperoni: Funghi: Brocolli Rabe: Bacon Kale:  Arugula) and Drinks.,37.788778723378000,-122.40257456841100
1332939,Mini Mobile Food Catering,Truck,08TH ST: HERON ST to HARRISON ST (350 - 399),350 08TH ST,EXPIRED,Cold Truck: Corn Dogs: Noodle Soups: Candy: Pre-packaged Snacks: Sandwiches: Chips: Coffee: Tea: Various Beverages,37.77369415247490,-122.40965844135600
1337434,Liang Bai Ping,Truck,THOMAS AVE: HAWES ST to INGALLS ST (1200 - 1299),1265 THOMAS AVE,EXPIRED,Cold Truck: Pre-packaged sandwiches: snacks: fruit: various beverages,37.72670967536870,-122.38529469118700
1341239,Halal Cart of San Francisco,Push Cart,MARKET ST: STEUART ST to SPEAR ST (1 - 99) -- SOUTH --,1 MARKET ST,EXPIRED,Halal Gyro over Rice: Halal Chicken over Rice: Halal Gyro: and Chicken Sandwich,37.793871507150600,-122.39486523862100
1337447,Liang Bai Ping,Truck,BEALE ST: FOLSOM ST to HARRISON ST (300 - 399),300 BEALE ST,EXPIRED,Cold Truck: Pre-packaged sandwiches: snacks: fruit: various beverages,37.78813947887160,-122.39257951537400
1526958,Kid Abelha - Brazilian Hamburgers,Truck,TOLAND ST: EVANS AVE \ NAPOLEON ST to GALVEZ AVE (1 - 199),16 TOLAND ST,REQUESTED,,37.74688946752010,-122.39651029019300
1336684,Mike's Catering,Truck,INDIANA ST: 23RD ST to 25TH ST \ I-280 N ON RAMP (1200 - 1399),Assessors Block 4228/Lot080,EXPIRED,Cold Truck: packaged sandwiches: snacks: candy: hot and cold drinks,37.753679978967500,-122.39041453229400
1337786,Giant Burrito,Truck,BAY SHORE BLVD: FLOWER ST to CORTLAND AVE (341 - 489) -- EAST --,353 BAY SHORE BLVD,REQUESTED,Tacos: Burritos: Tostadas: Flautas: Tostadas: Tortas: Pozole Menudo,37.74171783074390,-122.40541797744800
934596,May Catering,Truck,ALABAMA ST: MARIPOSA ST to 18TH ST (500 - 599),501 ALABAMA ST,EXPIRED,Cold Truck: Sandwiches: fruit: snacks: candy: hot and cold drinks,37.762476819591,-122.41181900367900